#DEBUG: Format Typ    -> tdf
#DEBUG: Time Period   -> 2024-03-01 00:00:00+00:00 2024-03-02 00:00:00+00:00
#DEBUG: Time Zone     -> UTC
#DEBUG: Data Contact   -> daryl herzmann akrherz@iastate.edu 515-294-5978
#DEBUG: Entries Found -> -1
station	valid	metar
CVG	2024-03-01 00:00	KCVG 010000Z AUTO 15005KT 10SM 03/M10 A3043 RMK T00301100 MADISHF
CVG	2024-03-01 00:05	KCVG 010005Z AUTO 14005KT 10SM 03/M10 A3043 RMK T00301100 MADISHF
CVG	2024-03-01 00:10	KCVG 010010Z AUTO 14005KT 10SM 03/M10 A3043 RMK T00301100 MADISHF
CVG	2024-03-01 00:15	KCVG 010015Z AUTO 14005KT 10SM 02/M10 A3043 RMK T00201100 MADISHF
CVG	2024-03-01 00:20	KCVG 010020Z AUTO 14005KT 10SM 02/M10 A3043 RMK T00201100 MADISHF
CVG	2024-03-01 00:25	KCVG 010025Z AUTO 13005KT 10SM 02/M10 A3042 RMK T00201100 MADISHF
CVG	2024-03-01 00:30	KCVG 010030Z AUTO 13005KT 10SM 03/M11 A3042 RMK T00301110 MADISHF
CVG	2024-03-01 00:35	KCVG 010035Z AUTO 14005KT 10SM 03/M11 A3042 RMK T00301110 MADISHF
CVG	2024-03-01 00:40	KCVG 010040Z AUTO 14005KT 10SM 02/M10 A3043 RMK T00201100 MADISHF
CVG	2024-03-01 00:45	KCVG 010045Z AUTO 13004KT 10SM 02/M10 A3043 RMK T00201100 MADISHF
CVG	2024-03-01 00:50	KCVG 010050Z AUTO 14002KT 10SM 03/M10 A3042 RMK T00301100 MADISHF
CVG	2024-03-01 00:52	KCVG 010052Z 14003KT 10SM FEW250 03/M11 A3042 RMK AO2 SLP310 T00281106 $
CVG	2024-03-01 00:55	KCVG 010055Z AUTO 13002KT 10SM 03/M11 A3042 RMK T00301110 MADISHF
CVG	2024-03-01 01:00	KCVG 010100Z AUTO 13002KT 10SM 03/M11 A3042 RMK T00301110 MADISHF
CVG	2024-03-01 01:05	KCVG 010105Z AUTO 00000KT 10SM 03/M11 A3042 RMK T00301110 MADISHF
CVG	2024-03-01 01:10	KCVG 010110Z AUTO 12002KT 10SM 03/M10 A3042 RMK T00301100 MADISHF
CVG	2024-03-01 01:15	KCVG 010115Z AUTO 12002KT 10SM 03/M10 A3042 RMK T00301100 MADISHF
CVG	2024-03-01 01:20	KCVG 010120Z AUTO 12002KT 10SM 03/M11 A3042 RMK T00301110 MADISHF
CVG	2024-03-01 01:25	KCVG 010125Z AUTO 13002KT 10SM 03/M10 A3042 RMK T00301100 MADISHF
CVG	2024-03-01 01:30	KCVG 010130Z AUTO 12002KT 10SM 03/M11 A3042 RMK T00301110 MADISHF
CVG	2024-03-01 01:35	KCVG 010135Z AUTO 12004KT 10SM 03/M10 A3042 RMK T00301100 MADISHF
CVG	2024-03-01 01:40	KCVG 010140Z AUTO 14004KT 10SM 02/M10 A3042 RMK T00201100 MADISHF
CVG	2024-03-01 01:45	KCVG 010145Z AUTO 15005KT 10SM 02/M10 A3042 RMK T00201100 MADISHF
CVG	2024-03-01 01:50	KCVG 010150Z AUTO 14005KT 10SM CLR 02/M09 A3042 RMK T00201090 MADISHF
CVG	2024-03-01 01:52	KCVG 010152Z 15007KT 10SM CLR 02/M09 A3042 RMK AO2 SLP309 T00171094 $
CVG	2024-03-01 01:55	KCVG 010155Z AUTO 14005KT 10SM CLR 01/M09 A3042 RMK T00101090 MADISHF
CVG	2024-03-01 02:00	KCVG 010200Z AUTO 15005KT 10SM CLR 01/M09 A3042 RMK T00101090 MADISHF
CVG	2024-03-01 02:05	KCVG 010205Z AUTO 15005KT 10SM CLR 02/M09 A3042 RMK T00201090 MADISHF
CVG	2024-03-01 02:10	KCVG 010210Z AUTO 15005KT 10SM CLR 01/M09 A3042 RMK T00101090 MADISHF
CVG	2024-03-01 02:20	KCVG 010220Z AUTO 15007KT 10SM CLR 01/M09 A3042 RMK T00101090 MADISHF
CVG	2024-03-01 02:25	KCVG 010225Z AUTO 14007KT 10SM CLR 01/M08 A3042 RMK T00101080 MADISHF
CVG	2024-03-01 02:30	KCVG 010230Z AUTO 15007KT 10SM CLR 00/M08 A3042 RMK T00001080 MADISHF
CVG	2024-03-01 02:35	KCVG 010235Z AUTO 15007KT 10SM CLR 01/M08 A3042 RMK T00101080 MADISHF
CVG	2024-03-01 02:40	KCVG 010240Z AUTO 15007KT 10SM CLR 01/M08 A3042 RMK T00101080 MADISHF
CVG	2024-03-01 02:45	KCVG 010245Z AUTO 15007KT 10SM CLR 01/M09 A3042 RMK T00101090 MADISHF
CVG	2024-03-01 02:50	KCVG 010250Z AUTO 15007KT 10SM 01/M09 A3042 RMK T00101090 MADISHF
CVG	2024-03-01 02:52	KCVG 010252Z 16007KT 10SM FEW250 01/M09 A3042 RMK AO2 SLP307 T00061089 56003 $
CVG	2024-03-01 02:55	KCVG 010255Z AUTO 16005KT 10SM CLR 00/M09 A3042 RMK T00001090 MADISHF
CVG	2024-03-01 03:00	KCVG 010300Z AUTO 15005KT 10SM CLR 00/M08 A3042 RMK T00001080 MADISHF
CVG	2024-03-01 03:05	KCVG 010305Z AUTO 15005KT 10SM CLR 01/M08 A3042 RMK T00101080 MADISHF
CVG	2024-03-01 03:10	KCVG 010310Z AUTO 15007KT 10SM CLR 01/M08 A3042 RMK T00101080 MADISHF
CVG	2024-03-01 03:15	KCVG 010315Z AUTO 16007KT 10SM CLR 01/M08 A3042 RMK T00101080 MADISHF
CVG	2024-03-01 03:20	KCVG 010320Z AUTO 16005KT 10SM CLR 00/M08 A3042 RMK T00001080 MADISHF
CVG	2024-03-01 03:25	KCVG 010325Z AUTO 15007KT 10SM CLR 00/M08 A3042 RMK T00001080 MADISHF
CVG	2024-03-01 03:30	KCVG 010330Z AUTO 15007KT 10SM CLR 00/M08 A3041 RMK T00001080 MADISHF
CVG	2024-03-01 03:35	KCVG 010335Z AUTO 16007KT 10SM CLR 00/M08 A3041 RMK T00001080 MADISHF
CVG	2024-03-01 03:40	KCVG 010340Z AUTO 15007KT 10SM CLR 00/M08 A3041 RMK T00001080 MADISHF
CVG	2024-03-01 03:45	KCVG 010345Z AUTO 15007KT 10SM CLR 00/M08 A3041 RMK T00001080 MADISHF
CVG	2024-03-01 03:50	KCVG 010350Z AUTO 15007KT 10SM 00/M08 A3041 RMK T00001080 MADISHF
CVG	2024-03-01 03:52	KCVG 010352Z 15007KT 10SM FEW250 00/M08 A3041 RMK AO2 SLP303 T00001078 $
CVG	2024-03-01 03:55	KCVG 010355Z AUTO 14007KT 10SM CLR 00/M08 A3040 RMK T00001080 MADISHF
CVG	2024-03-01 04:00	KCVG 010400Z AUTO 15007KT 10SM CLR 00/M08 A3040 RMK T00001080 MADISHF
CVG	2024-03-01 04:05	KCVG 010405Z AUTO 14007KT 10SM CLR 00/M08 A3040 RMK T00001080 MADISHF
CVG	2024-03-01 04:10	KCVG 010410Z AUTO 14007KT 10SM CLR 00/M08 A3040 RMK T00001080 MADISHF
CVG	2024-03-01 04:15	KCVG 010415Z AUTO 15007KT 10SM CLR 00/M08 A3040 RMK T00001080 MADISHF
CVG	2024-03-01 04:20	KCVG 010420Z AUTO 15005KT 10SM CLR 00/M08 A3040 RMK T00001080 MADISHF
CVG	2024-03-01 04:25	KCVG 010425Z AUTO 15005KT 10SM CLR 00/M08 A3040 RMK T00001080 MADISHF
CVG	2024-03-01 04:30	KCVG 010430Z AUTO 15007KT 10SM CLR 01/M08 A3040 RMK T00101080 MADISHF
CVG	2024-03-01 04:35	KCVG 010435Z AUTO 15008KT 10SM CLR 01/M08 A3040 RMK T00101080 MADISHF
CVG	2024-03-01 04:40	KCVG 010440Z AUTO 15008KT 10SM CLR 00/M08 A3039 RMK T00001080 MADISHF
CVG	2024-03-01 04:45	KCVG 010445Z AUTO 15008KT 10SM CLR 00/M08 A3039 RMK T00001080 MADISHF
CVG	2024-03-01 04:50	KCVG 010450Z AUTO 14007KT 10SM 00/M08 A3039 RMK T00001080 MADISHF
CVG	2024-03-01 04:52	KCVG 010452Z 15007KT 10SM FEW250 00/M08 A3039 RMK AO2 SLP297 T00001078 400671061 $
CVG	2024-03-01 04:55	KCVG 010455Z AUTO 14007KT 10SM CLR 00/M08 A3039 RMK T00001080 MADISHF
CVG	2024-03-01 05:00	KCVG 010500Z AUTO 14005KT 10SM CLR 00/M08 A3039 RMK T00001080 MADISHF
CVG	2024-03-01 05:05	KCVG 010505Z AUTO 13005KT 10SM CLR 01/M08 A3038 RMK T00101080 MADISHF
CVG	2024-03-01 05:10	KCVG 010510Z AUTO 13007KT 10SM CLR 00/M08 A3038 RMK T00001080 MADISHF
CVG	2024-03-01 05:15	KCVG 010515Z AUTO 13007KT 10SM CLR 00/M08 A3038 RMK T00001080 MADISHF
CVG	2024-03-01 05:20	KCVG 010520Z AUTO 12007KT 10SM CLR 00/M08 A3037 RMK T00001080 MADISHF
CVG	2024-03-01 05:25	KCVG 010525Z AUTO 12007KT 10SM CLR 01/M08 A3037 RMK T00101080 MADISHF
CVG	2024-03-01 05:30	KCVG 010530Z AUTO 12007KT 10SM CLR 01/M08 A3037 RMK T00101080 MADISHF
CVG	2024-03-01 05:35	KCVG 010535Z AUTO 12007KT 10SM CLR 00/M08 A3037 RMK T00001080 MADISHF
CVG	2024-03-01 05:40	KCVG 010540Z AUTO 12007KT 10SM CLR 01/M08 A3036 RMK T00101080 MADISHF
CVG	2024-03-01 05:45	KCVG 010545Z AUTO 12008KT 10SM CLR 01/M08 A3036 RMK T00101080 MADISHF
CVG	2024-03-01 05:50	KCVG 010550Z AUTO 12008KT 10SM 01/M08 A3036 RMK T00101080 MADISHF
CVG	2024-03-01 05:52	KCVG 010552Z 12008KT 10SM SCT250 01/M08 A3036 RMK AO2 SLP286 T00061083 10033 21006 58020 $
CVG	2024-03-01 05:55	KCVG 010555Z AUTO 12008KT 10SM CLR 01/M08 A3036 RMK T00101080 MADISHF
CVG	2024-03-01 06:00	KCVG 010600Z AUTO 13008KT 10SM CLR 01/M08 A3036 RMK T00101080 MADISHF
CVG	2024-03-01 06:05	KCVG 010605Z AUTO 12007KT 10SM CLR 01/M08 A3036 RMK T00101080 MADISHF
CVG	2024-03-01 06:10	KCVG 010610Z AUTO 12008KT 10SM CLR 01/M08 A3036 RMK T00101080 MADISHF
CVG	2024-03-01 06:15	KCVG 010615Z AUTO 12005KT 10SM CLR 01/M08 A3036 RMK T00101080 MADISHF
CVG	2024-03-01 06:20	KCVG 010620Z AUTO 12007KT 10SM CLR 01/M08 A3036 RMK T00101080 MADISHF
CVG	2024-03-01 06:25	KCVG 010625Z AUTO 12007KT 10SM CLR 01/M08 A3036 RMK T00101080 MADISHF
CVG	2024-03-01 06:30	KCVG 010630Z AUTO 12008KT 10SM CLR 01/M08 A3035 RMK T00101080 MADISHF
CVG	2024-03-01 06:35	KCVG 010635Z AUTO 12007KT 10SM CLR 01/M08 A3035 RMK T00101080 MADISHF
CVG	2024-03-01 06:40	KCVG 010640Z AUTO 11007KT 10SM CLR 01/M09 A3035 RMK T00101090 MADISHF
CVG	2024-03-01 06:45	KCVG 010645Z AUTO 11005KT 10SM CLR 00/M08 A3035 RMK T00001080 MADISHF
CVG	2024-03-01 06:50	KCVG 010650Z AUTO 11007KT 10SM CLR 00/M08 A3034 RMK T00001080 MADISHF
CVG	2024-03-01 06:52	KCVG 010652Z 11007KT 10SM CLR 00/M08 A3034 RMK AO2 SLP281 T00001083 $
CVG	2024-03-01 06:55	KCVG 010655Z AUTO 11007KT 10SM CLR 01/M08 A3034 RMK T00101080 MADISHF
CVG	2024-03-01 07:00	KCVG 010700Z AUTO 11007KT 10SM CLR 00/M08 A3034 RMK T00001080 MADISHF
CVG	2024-03-01 07:05	KCVG 010705Z AUTO 11007KT 10SM CLR 00/M08 A3034 RMK T00001080 MADISHF
CVG	2024-03-01 07:10	KCVG 010710Z AUTO 12008KT 10SM CLR 00/M08 A3034 RMK T00001080 MADISHF
CVG	2024-03-01 07:15	KCVG 010715Z AUTO 12007KT 10SM CLR 01/M08 A3033 RMK T00101080 MADISHF
CVG	2024-03-01 07:20	KCVG 010720Z AUTO 11007KT 10SM CLR 00/M08 A3033 RMK T00001080 MADISHF
CVG	2024-03-01 07:25	KCVG 010725Z AUTO 11007KT 10SM CLR 00/M08 A3033 RMK T00001080 MADISHF
CVG	2024-03-01 07:30	KCVG 010730Z AUTO 12008KT 10SM CLR 00/M08 A3033 RMK T00001080 MADISHF
CVG	2024-03-01 07:35	KCVG 010735Z AUTO 12009KT 10SM CLR 01/M08 A3033 RMK T00101080 MADISHF
CVG	2024-03-01 07:40	KCVG 010740Z AUTO 12008KT 10SM CLR 01/M08 A3033 RMK T00101080 MADISHF
CVG	2024-03-01 07:45	KCVG 010745Z AUTO 12008KT 10SM CLR 00/M08 A3032 RMK T00001080 MADISHF
CVG	2024-03-01 07:50	KCVG 010750Z AUTO 12008KT 10SM CLR 00/M08 A3032 RMK T00001080 MADISHF
CVG	2024-03-01 07:52	KCVG 010752Z 13008KT 10SM CLR 00/M08 A3032 RMK AO2 SLP271 T00001083 $
CVG	2024-03-01 07:55	KCVG 010755Z AUTO 13009KT 10SM CLR 00/M08 A3032 RMK T00001080 MADISHF
CVG	2024-03-01 08:00	KCVG 010800Z AUTO 13009KT 10SM CLR 00/M08 A3032 RMK T00001080 MADISHF
CVG	2024-03-01 08:05	KCVG 010805Z AUTO 13010KT 10SM CLR 00/M08 A3031 RMK T00001080 MADISHF
CVG	2024-03-01 08:10	KCVG 010810Z AUTO 13010KT 10SM CLR 01/M08 A3031 RMK T00101080 MADISHF
CVG	2024-03-01 08:15	KCVG 010815Z AUTO 13010KT 10SM CLR 00/M08 A3031 RMK T00001080 MADISHF
CVG	2024-03-01 08:20	KCVG 010820Z AUTO 13010KT 10SM CLR 00/M08 A3031 RMK T00001080 MADISHF
CVG	2024-03-01 08:25	KCVG 010825Z AUTO 13010KT 10SM CLR 00/M08 A3031 RMK T00001080 MADISHF
CVG	2024-03-01 08:30	KCVG 010830Z AUTO 13009KT 10SM CLR 00/M08 A3031 RMK T00001080 MADISHF
CVG	2024-03-01 08:35	KCVG 010835Z AUTO 13010KT 10SM CLR 00/M08 A3030 RMK T00001080 MADISHF
CVG	2024-03-01 08:40	KCVG 010840Z AUTO 12011KT 10SM CLR 00/M08 A3030 RMK T00001080 MADISHF
CVG	2024-03-01 08:45	KCVG 010845Z AUTO 12011KT 10SM CLR 00/M08 A3030 RMK T00001080 MADISHF
CVG	2024-03-01 08:50	KCVG 010850Z AUTO 13011KT 10SM CLR 00/M08 A3030 RMK T00001080 MADISHF
CVG	2024-03-01 08:52	KCVG 010852Z 13009KT 10SM CLR 00/M08 A3030 RMK AO2 SLP264 T00001083 58020 $
CVG	2024-03-01 08:55	KCVG 010855Z AUTO 13010KT 10SM CLR 00/M08 A3030 RMK T00001080 MADISHF
CVG	2024-03-01 09:00	KCVG 010900Z AUTO 13011KT 10SM CLR 00/M08 A3030 RMK T00001080 MADISHF
CVG	2024-03-01 09:05	KCVG 010905Z AUTO 13009KT 10SM CLR 00/M08 A3030 RMK T00001080 MADISHF
CVG	2024-03-01 09:10	KCVG 010910Z AUTO 13008KT 10SM CLR M01/M08 A3030 RMK T10101080 MADISHF
CVG	2024-03-01 09:15	KCVG 010915Z AUTO 13008KT 10SM CLR M01/M08 A3030 RMK T10101080 MADISHF
CVG	2024-03-01 09:20	KCVG 010920Z AUTO 13009KT 10SM CLR M01/M08 A3030 RMK T10101080 MADISHF
CVG	2024-03-01 09:25	KCVG 010925Z AUTO 14009KT 10SM CLR M01/M08 A3031 RMK T10101080 MADISHF
CVG	2024-03-01 09:30	KCVG 010930Z AUTO 15009KT 10SM CLR M01/M08 A3031 RMK T10101080 MADISHF
CVG	2024-03-01 09:35	KCVG 010935Z AUTO 16009KT 10SM CLR M01/M08 A3032 RMK T10101080 MADISHF
CVG	2024-03-01 09:40	KCVG 010940Z AUTO 15008KT 10SM CLR M01/M08 A3031 RMK T10101080 MADISHF
CVG	2024-03-01 09:45	KCVG 010945Z AUTO 15009KT 10SM CLR M01/M08 A3031 RMK T10101080 MADISHF
CVG	2024-03-01 09:50	KCVG 010950Z AUTO 15011KT 10SM M01/M08 A3031 RMK T10101080 MADISHF
CVG	2024-03-01 09:52	KCVG 010952Z 14009KT 10SM BKN250 M01/M08 A3031 RMK AO2 SLP268 T10061083 $
CVG	2024-03-01 09:55	KCVG 010955Z AUTO 13011KT 10SM CLR 00/M08 A3031 RMK T00001080 MADISHF
CVG	2024-03-01 10:00	KCVG 011000Z AUTO 13011KT 10SM CLR 00/M08 A3030 RMK T00001080 MADISHF
CVG	2024-03-01 10:05	KCVG 011005Z AUTO 13011KT 10SM CLR 00/M08 A3030 RMK T00001080 MADISHF
CVG	2024-03-01 10:10	KCVG 011010Z AUTO 13010KT 10SM CLR 00/M08 A3030 RMK T00001080 MADISHF
CVG	2024-03-01 10:15	KCVG 011015Z AUTO 13009KT 10SM CLR 00/M08 A3030 RMK T00001080 MADISHF
CVG	2024-03-01 10:20	KCVG 011020Z AUTO 13010KT 10SM CLR 00/M08 A3030 RMK T00001080 MADISHF
CVG	2024-03-01 10:25	KCVG 011025Z AUTO 13010KT 10SM CLR 00/M08 A3031 RMK T00001080 MADISHF
CVG	2024-03-01 10:30	KCVG 011030Z AUTO 13009KT 10SM CLR M01/M08 A3030 RMK T10101080 MADISHF
CVG	2024-03-01 10:35	KCVG 011035Z AUTO 13009KT 10SM CLR M01/M08 A3031 RMK T10101080 MADISHF
CVG	2024-03-01 10:40	KCVG 011040Z AUTO 13010KT 10SM CLR 00/M08 A3031 RMK T00001080 MADISHF
CVG	2024-03-01 10:45	KCVG 011045Z AUTO 13009KT 10SM CLR M01/M08 A3031 RMK T10101080 MADISHF
CVG	2024-03-01 10:50	KCVG 011050Z AUTO 13009KT 10SM 00/M08 A3031 RMK T00001080 MADISHF
CVG	2024-03-01 10:52	KCVG 011052Z 13009KT 10SM BKN250 00/M08 A3031 RMK AO2 SLP270 T00001083 $
CVG	2024-03-01 10:55	KCVG 011055Z AUTO 13009KT 10SM CLR M01/M08 A3031 RMK T10101080 MADISHF
CVG	2024-03-01 11:00	KCVG 011100Z AUTO 13009KT 10SM CLR M01/M08 A3031 RMK T10101080 MADISHF
CVG	2024-03-01 11:05	KCVG 011105Z AUTO 12009KT 10SM CLR M01/M08 A3030 RMK T10101080 MADISHF
CVG	2024-03-01 11:10	KCVG 011110Z AUTO 11005KT 10SM CLR M01/M08 A3031 RMK T10101080 MADISHF
CVG	2024-03-01 11:15	KCVG 011115Z AUTO 12009KT 10SM CLR M01/M08 A3030 RMK T10101080 MADISHF
CVG	2024-03-01 11:20	KCVG 011120Z AUTO 12005KT 10SM CLR M01/M08 A3031 RMK T10101080 MADISHF
CVG	2024-03-01 11:25	KCVG 011125Z AUTO 11005KT 10SM CLR M01/M08 A3030 RMK T10101080 MADISHF
CVG	2024-03-01 11:30	KCVG 011130Z AUTO 11005KT 10SM CLR M01/M08 A3030 RMK T10101080 MADISHF
CVG	2024-03-01 11:35	KCVG 011135Z AUTO 11005KT 10SM CLR M01/M08 A3030 RMK T10101080 MADISHF
CVG	2024-03-01 11:40	KCVG 011140Z AUTO 12005KT 10SM M01/M08 A3031 RMK T10101080 VRB06KT  MADISHF
CVG	2024-03-01 11:45	KCVG 011145Z AUTO 12005KT 10SM M01/M08 A3031 RMK T10101080 MADISHF
CVG	2024-03-01 11:50	KCVG 011150Z AUTO 10004KT 10SM M01/M08 A3030 RMK T10101080 MADISHF
CVG	2024-03-01 11:52	KCVG 011152Z 10004KT 10SM FEW170 BKN200 M01/M08 A3030 RMK AO2 SLP267 T10061083 10011 21011 50002 $
CVG	2024-03-01 11:55	KCVG 011155Z AUTO 10004KT 10SM CLR M01/M08 A3030 RMK T10101080 MADISHF
CVG	2024-03-01 12:00	KCVG 011200Z AUTO 13004KT 10SM CLR M01/M08 A3030 RMK T10101080 MADISHF
CVG	2024-03-01 12:05	KCVG 011205Z AUTO 13005KT 10SM CLR M01/M08 A3031 RMK T10101080 MADISHF
CVG	2024-03-01 12:10	KCVG 011210Z AUTO 13007KT 10SM CLR M01/M08 A3031 RMK T10101080 MADISHF
CVG	2024-03-01 12:15	KCVG 011215Z AUTO 14005KT 10SM CLR M01/M08 A3031 RMK T10101080 MADISHF
CVG	2024-03-01 12:20	KCVG 011220Z AUTO 14007KT 10SM CLR M01/M08 A3031 RMK T10101080 MADISHF
CVG	2024-03-01 12:25	KCVG 011225Z AUTO 12004KT 10SM CLR M01/M08 A3031 RMK T10101080 MADISHF
CVG	2024-03-01 12:30	KCVG 011230Z AUTO 13004KT 10SM CLR M01/M08 A3031 RMK T10101080 MADISHF
CVG	2024-03-01 12:35	KCVG 011235Z AUTO 14005KT 10SM CLR M01/M08 A3031 RMK T10101080 MADISHF
CVG	2024-03-01 12:40	KCVG 011240Z AUTO 14008KT 10SM CLR M01/M08 A3031 RMK T10101080 MADISHF
CVG	2024-03-01 12:45	KCVG 011245Z AUTO 13007KT 10SM CLR 00/M08 A3031 RMK T00001080 MADISHF
CVG	2024-03-01 12:50	KCVG 011250Z AUTO 13007KT 10SM 00/M08 A3030 RMK T00001080 MADISHF
CVG	2024-03-01 12:52	KCVG 011252Z 13007KT 10SM OVC230 00/M08 A3030 RMK AO2 SLP265 T00001078 $
CVG	2024-03-01 12:55	KCVG 011255Z AUTO 14005KT 10SM CLR 00/M08 A3030 RMK T00001080 MADISHF
CVG	2024-03-01 13:00	KCVG 011300Z AUTO 13008KT 10SM CLR 01/M08 A3030 RMK T00101080 MADISHF
CVG	2024-03-01 13:05	KCVG 011305Z AUTO 13008KT 10SM CLR 01/M08 A3030 RMK T00101080 MADISHF
CVG	2024-03-01 13:10	KCVG 011310Z AUTO 13008KT 10SM CLR 01/M08 A3030 RMK T00101080 MADISHF
CVG	2024-03-01 13:15	KCVG 011315Z AUTO 13008KT 10SM CLR 01/M08 A3029 RMK T00101080 MADISHF
CVG	2024-03-01 13:20	KCVG 011320Z AUTO 14009KT 10SM CLR 01/M08 A3029 RMK T00101080 MADISHF
CVG	2024-03-01 13:25	KCVG 011325Z AUTO 14008KT 10SM CLR 01/M08 A3030 RMK T00101080 VISNO 36R  MADISHF
CVG	2024-03-01 13:30	KCVG 011330Z AUTO 13007KT 10SM CLR 01/M08 A3029 RMK T00101080 VISNO 36R  MADISHF
CVG	2024-03-01 13:35	KCVG 011335Z AUTO 13008KT 10SM CLR 01/M08 A3029 RMK T00101080 MADISHF
CVG	2024-03-01 13:40	KCVG 011340Z AUTO 14008KT 10SM 01/M08 A3029 RMK T00101080 MADISHF
CVG	2024-03-01 13:45	KCVG 011345Z AUTO 13007KT 10SM 01/M08 A3029 RMK T00101080 MADISHF
CVG	2024-03-01 13:50	KCVG 011350Z AUTO 13008KT 10SM 01/M08 A3029 RMK T00101080 MADISHF
CVG	2024-03-01 13:52	KCVG 011352Z 13008KT 10SM OVC180 01/M08 A3029 RMK AO2 SLP263 T00111078 $
CVG	2024-03-01 13:55	KCVG 011355Z AUTO 13007KT 10SM CLR 01/M08 A3029 RMK T00101080 MADISHF
CVG	2024-03-01 14:00	KCVG 011400Z AUTO 14007KT 10SM CLR 01/M08 A3029 RMK T00101080 MADISHF
CVG	2024-03-01 14:05	KCVG 011405Z AUTO 13008KT 10SM CLR 01/M08 A3029 RMK T00101080 MADISHF
CVG	2024-03-01 14:10	KCVG 011410Z AUTO 14007KT 10SM CLR 01/M08 A3029 RMK T00101080 MADISHF
CVG	2024-03-01 14:15	KCVG 011415Z AUTO 14007KT 10SM CLR 01/M07 A3029 RMK T00101070 MADISHF
CVG	2024-03-01 14:20	KCVG 011420Z AUTO 14008KT 10SM CLR 01/M08 A3029 RMK T00101080 MADISHF
CVG	2024-03-01 14:25	KCVG 011425Z AUTO 15008KT 10SM CLR 02/M08 A3029 RMK T00201080 MADISHF
CVG	2024-03-01 14:30	KCVG 011430Z AUTO 13008KT 10SM FEW120 02/M08 A3028 RMK T00201080 MADISHF
CVG	2024-03-01 14:35	KCVG 011435Z AUTO 13008KT 10SM FEW120 02/M07 A3028 RMK T00201070 MADISHF
CVG	2024-03-01 14:40	KCVG 011440Z AUTO 14008KT 10SM FEW120 02/M08 A3028 RMK T00201080 MADISHF
CVG	2024-03-01 14:45	KCVG 011445Z AUTO 15008KT 10SM FEW100 02/M07 A3028 RMK T00201070  VIRGA ALQDS MADISHF
CVG	2024-03-01 14:50	KCVG 011450Z AUTO 15007KT 10SM FEW090 OVC120 02/M07 A3028 RMK T00201070  VIRGA ALQDS MADISHF
CVG	2024-03-01 14:52	KCVG 011452Z 14008KT 10SM FEW090 OVC120 02/M07 A3028 RMK AO2 SLP258 VIRGA ALQDS T00221072 58009 $
CVG	2024-03-01 14:55	KCVG 011455Z AUTO 14008KT 10SM BKN120 02/M07 A3028 RMK T00201070 MADISHF
CVG	2024-03-01 15:00	KCVG 011500Z AUTO 15009KT 10SM BKN120 02/M07 A3028 RMK T00201070 MADISHF
CVG	2024-03-01 15:05	KCVG 011505Z AUTO 15010KT 10SM BKN120 02/M08 A3028 RMK T00201080 MADISHF
CVG	2024-03-01 15:10	KCVG 011510Z AUTO 15010KT 10SM OVC110 02/M07 A3028 RMK T00201070 MADISHF
CVG	2024-03-01 15:15	KCVG 011515Z AUTO 15009KT 10SM OVC110 02/M07 A3028 RMK T00201070 MADISHF
CVG	2024-03-01 15:20	KCVG 011520Z AUTO 15008KT 10SM OVC110 03/M07 A3028 RMK T00301070 MADISHF
CVG	2024-03-01 15:25	KCVG 011525Z AUTO 16008KT 10SM OVC110 03/M07 A3028 RMK T00301070 MADISHF
CVG	2024-03-01 15:30	KCVG 011530Z AUTO 15007KT 10SM OVC110 03/M07 A3027 RMK T00301070 MADISHF
CVG	2024-03-01 15:35	KCVG 011535Z AUTO 14007KT 10SM OVC110 03/M07 A3027 RMK T00301070 MADISHF
CVG	2024-03-01 15:40	KCVG 011540Z AUTO 15007KT 10SM OVC110 03/M07 A3027 RMK T00301070  VIRGA ALQDS MADISHF
CVG	2024-03-01 15:45	KCVG 011545Z AUTO 15007KT 10SM OVC110 03/M07 A3027 RMK T00301070  VIRGA ALQDS MADISHF
CVG	2024-03-01 15:50	KCVG 011550Z AUTO 14007KT 10SM OVC100 03/M07 A3027 RMK T00301070  VIRGA ALQDS MADISHF
CVG	2024-03-01 15:52	KCVG 011552Z 14007KT 10SM OVC100 03/M07 A3027 RMK AO2 SLP254 VIRGA ALQDS T00331067 $
CVG	2024-03-01 15:55	KCVG 011555Z AUTO 14007KT 10SM OVC100 03/M07 A3027 RMK T00301070 MADISHF
CVG	2024-03-01 16:00	KCVG 011600Z AUTO 15007KT 10SM OVC100 03/M07 A3026 RMK T00301070 MADISHF
CVG	2024-03-01 16:05	KCVG 011605Z AUTO 14007KT 10SM OVC100 03/M07 A3026 RMK T00301070 MADISHF
CVG	2024-03-01 16:10	KCVG 011610Z AUTO 16005KT 10SM BKN090 OVC110 03/M07 A3026 RMK T00301070 MADISHF
CVG	2024-03-01 16:15	KCVG 011615Z AUTO 15007KT 10SM OVC095 03/M07 A3026 RMK T00301070 MADISHF
CVG	2024-03-01 16:20	KCVG 011620Z AUTO 16007KT 10SM OVC090 04/M06 A3026 RMK T00401060 MADISHF
CVG	2024-03-01 16:25	KCVG 011625Z AUTO 15007KT 10SM OVC090 04/M06 A3026 RMK T00401060 MADISHF
CVG	2024-03-01 16:30	KCVG 011630Z AUTO 15005KT 10SM OVC085 04/M07 A3026 RMK T00401070 MADISHF
CVG	2024-03-01 16:35	KCVG 011635Z AUTO 15007KT 10SM OVC085 04/M06 A3026 RMK T00401060 MADISHF
CVG	2024-03-01 16:40	KCVG 011640Z AUTO 15005KT 10SM OVC080 04/M06 A3026 RMK T00401060 MADISHF
CVG	2024-03-01 16:45	KCVG 011645Z AUTO 15007KT 10SM BKN075 OVC090 04/M06 A3026 RMK T00401060 MADISHF
CVG	2024-03-01 16:50	KCVG 011650Z AUTO 15005KT 10SM BKN070 OVC085 04/M06 A3026 RMK T00401060 MADISHF
CVG	2024-03-01 16:52	KCVG 011652Z 17005KT 10SM -RA BKN070 OVC085 04/M06 A3026 RMK AO2 RAB52 SLP251 P0000 T00441056
CVG	2024-03-01 16:55	KCVG 011655Z AUTO 18005KT 10SM -RA BKN070 OVC090 04/M06 A3026 RMK T00401060 MADISHF
CVG	2024-03-01 17:00	KCVG 011700Z AUTO 16005KT 9SM -RA OVC070 04/M04 A3026 RMK T00401040 MADISHF
CVG	2024-03-01 17:05	KCVG 011705Z AUTO 17005KT 8SM -RA OVC070 04/M03 A3026 RMK T00401030 MADISHF
CVG	2024-03-01 17:10	KCVG 011710Z AUTO 18005KT 10SM -RA -PL OVC070 04/M03 A3025 RMK T00401030 MADISHF
CVG	2024-03-01 17:15	KCVG 011715Z AUTO 16005KT 10SM -RA -PL OVC070 04/M03 A3025 RMK T00401030 MADISHF
CVG	2024-03-01 17:20	KCVG 011720Z AUTO 16005KT 10SM -RA OVC065 04/M03 A3025 RMK T00401030 MADISHF
CVG	2024-03-01 17:25	KCVG 011725Z AUTO 16005KT 10SM -RA OVC065 04/M03 A3025 RMK T00401030 MADISHF
CVG	2024-03-01 17:30	KCVG 011730Z AUTO 17004KT 10SM OVC065 04/M03 A3025 RMK T00401030 MADISHF
CVG	2024-03-01 17:35	KCVG 011735Z AUTO 16002KT 10SM BKN065 OVC080 04/M03 A3024 RMK T00401030 MADISHF
CVG	2024-03-01 17:40	KCVG 011740Z AUTO 15005KT 10SM BKN065 OVC080 05/M02 A3024 RMK T00501020 MADISHF
CVG	2024-03-01 17:45	KCVG 011745Z AUTO 16005KT 10SM OVC060 05/M03 A3024 RMK T00501030 MADISHF
CVG	2024-03-01 17:50	KCVG 011750Z AUTO 15005KT 10SM OVC060 06/M02 A3025 RMK T00601020 MADISHF
CVG	2024-03-01 17:52	KCVG 011752Z 15005KT 10SM OVC060 06/M02 A3024 RMK AO2 RAE27PLB06E20 SLP246 P0000 60000 T00561022 10056 21011 57010
CVG	2024-03-01 17:55	KCVG 011755Z AUTO 15007KT 10SM -RA OVC060 06/M02 A3025 RMK T00601020 MADISHF
CVG	2024-03-01 18:00	KCVG 011800Z AUTO 16010KT 10SM -RA BKN060 OVC075 06/M01 A3024 RMK T00601010 MADISHF
CVG	2024-03-01 18:05	KCVG 011805Z AUTO 16008KT 10SM -RA BKN060 OVC075 06/M02 A3024 RMK T00601020 MADISHF
CVG	2024-03-01 18:10	KCVG 011810Z AUTO 15008KT 10SM OVC060 05/M02 A3024 RMK T00501020 MADISHF
CVG	2024-03-01 18:15	KCVG 011815Z AUTO 15007KT 10SM OVC060 05/M02 A3023 RMK T00501020 MADISHF
CVG	2024-03-01 18:20	KCVG 011820Z AUTO 15005KT 10SM OVC060 06/M02 A3023 RMK T00601020 MADISHF
CVG	2024-03-01 18:25	KCVG 011825Z AUTO 15007KT 10SM OVC060 06/M02 A3023 RMK T00601020 MADISHF
CVG	2024-03-01 18:30	KCVG 011830Z AUTO 16005KT 10SM OVC060 06/M02 A3023 RMK T00601020 MADISHF
CVG	2024-03-01 18:35	KCVG 011835Z AUTO 14005KT 10SM OVC055 06/M02 A3022 RMK T00601020 MADISHF
CVG	2024-03-01 18:40	KCVG 011840Z AUTO 14007KT 10SM OVC055 06/M02 A3022 RMK T00601020 MADISHF
CVG	2024-03-01 18:45	KCVG 011845Z AUTO 15005KT 10SM OVC050 06/M02 A3022 RMK T00601020 MADISHF
CVG	2024-03-01 18:50	KCVG 011850Z AUTO 14007KT 10SM OVC050 06/M01 A3022 RMK T00601010 MADISHF
CVG	2024-03-01 18:52	KCVG 011852Z 15007KT 10SM OVC050 06/M01 A3022 RMK AO2 RAB1753E10 SLP237 P0000 T00611011
CVG	2024-03-01 18:55	KCVG 011855Z AUTO 15005KT 10SM OVC050 06/M02 A3022 RMK T00601020 MADISHF
CVG	2024-03-01 19:00	KCVG 011900Z AUTO 12005KT 10SM OVC050 06/M02 A3021 RMK T00601020 MADISHF
CVG	2024-03-01 19:05	KCVG 011905Z AUTO 14005KT 10SM OVC050 06/M02 A3021 RMK T00601020 MADISHF
CVG	2024-03-01 19:10	KCVG 011910Z AUTO 12005KT 10SM OVC050 06/M02 A3021 RMK T00601020 MADISHF
CVG	2024-03-01 19:15	KCVG 011915Z AUTO 11004KT 10SM OVC050 06/M01 A3021 RMK T00601010 MADISHF
CVG	2024-03-01 19:20	KCVG 011920Z AUTO 12005KT 10SM OVC049 06/M02 A3020 RMK T00601020 MADISHF
CVG	2024-03-01 19:25	KCVG 011925Z AUTO 10005KT 10SM OVC049 06/M02 A3020 RMK T00601020 MADISHF
CVG	2024-03-01 19:30	KCVG 011930Z AUTO 11005KT 10SM OVC047 06/M01 A3020 RMK T00601010 MADISHF
CVG	2024-03-01 19:35	KCVG 011935Z AUTO 12005KT 10SM BKN042 OVC050 06/M02 A3021 RMK T00601020 MADISHF
CVG	2024-03-01 19:40	KCVG 011940Z AUTO 11005KT 10SM BKN042 OVC049 06/M02 A3021 RMK T00601020 MADISHF
CVG	2024-03-01 19:45	KCVG 011945Z AUTO 12005KT 10SM OVC043 06/M01 A3021 RMK T00601010 MADISHF
CVG	2024-03-01 19:50	KCVG 011950Z AUTO 13007KT 10SM OVC043 06/M01 A3020 RMK T00601010 MADISHF
CVG	2024-03-01 19:52	KCVG 011952Z 13006KT 10SM OVC042 06/M01 A3020 RMK AO2 SLP232 T00611011
CVG	2024-03-01 19:55	KCVG 011955Z AUTO 13005KT 10SM OVC042 06/M01 A3020 RMK T00601010 MADISHF
CVG	2024-03-01 20:00	KCVG 012000Z AUTO 11004KT 10SM BKN041 OVC055 06/M01 A3020 RMK T00601010 MADISHF
CVG	2024-03-01 20:05	KCVG 012005Z AUTO 12005KT 10SM BKN042 OVC060 07/M01 A3020 RMK T00701010 MADISHF
CVG	2024-03-01 20:10	KCVG 012010Z AUTO 10005KT 10SM SCT042 OVC060 07/M01 A3019 RMK T00701010 CIG 039 36R  MADISHF
CVG	2024-03-01 20:15	KCVG 012015Z AUTO 11007KT 10SM SCT042 OVC065 07/M01 A3019 RMK T00701010 MADISHF
CVG	2024-03-01 20:20	KCVG 012020Z AUTO 12007KT 10SM FEW042 OVC065 07/M01 A3019 RMK T00701010 MADISHF
CVG	2024-03-01 20:25	KCVG 012025Z AUTO 12009KT 10SM FEW043 OVC060 07/00 A3018 RMK T00700000 MADISHF
CVG	2024-03-01 20:30	KCVG 012030Z AUTO 12008KT 10SM OVC060 07/00 A3018 RMK T00700000 MADISHF
CVG	2024-03-01 20:35	KCVG 012035Z AUTO 13009KT 10SM FEW034 SCT048 OVC060 07/00 A3018 RMK T00700000 MADISHF
CVG	2024-03-01 20:40	KCVG 012040Z AUTO 13010KT 10SM FEW024 BKN032 OVC065 07/01 A3018 RMK T00700010 MADISHF
CVG	2024-03-01 20:45	KCVG 012045Z AUTO 15011KT 10SM BKN023 BKN033 OVC060 07/01 A3018 RMK T00700010 MADISHF
CVG	2024-03-01 20:50	KCVG 012050Z AUTO 15013KT 10SM BKN022 OVC033 07/02 A3018 RMK T00700020 MADISHF
CVG	2024-03-01 20:52	KCVG 012052Z 14010KT 10SM BKN022 OVC033 06/02 A3017 RMK AO2 SLP221 60000 T00610017 58024
CVG	2024-03-01 20:55	KCVG 012055Z AUTO 14010KT 10SM BKN022 OVC033 06/02 A3017 RMK T00600020 MADISHF
CVG	2024-03-01 21:00	KCVG 012100Z AUTO 13011KT 10SM -RA BKN022 OVC033 06/02 A3017 RMK T00600020 MADISHF
CVG	2024-03-01 21:05	KCVG 012105Z AUTO 15011KT 7SM -RA BKN022 OVC033 06/03 A3017 RMK T00600030 MADISHF
CVG	2024-03-01 21:10	KCVG 012110Z AUTO 14009KT 6SM -RA BR OVC021 06/03 A3017 RMK T00600030 MADISHF
CVG	2024-03-01 21:15	KCVG 012115Z AUTO 13011KT 7SM -RA OVC020 06/03 A3017 RMK T00600030 MADISHF
CVG	2024-03-01 21:20	KCVG 012120Z AUTO 14011KT 8SM -RA BKN017 OVC023 06/03 A3016 RMK T00600030 MADISHF
CVG	2024-03-01 21:25	KCVG 012125Z AUTO 14009KT 8SM -RA BKN017 OVC023 05/03 A3016 RMK T00500030 MADISHF
CVG	2024-03-01 21:30	KCVG 012130Z AUTO 14010KT 3SM -RA BR OVC017 05/04 A3016 RMK T00500040 MADISHF
CVG	2024-03-01 21:35	KCVG 012135Z AUTO 15010KT 3SM -RA BR OVC017 05/04 A3017 RMK P0001 T00500040 MADISHF
CVG	2024-03-01 21:40	KCVG 012140Z AUTO 14010KT 3SM RA BR OVC015 04/04 A3016 RMK P0001 T00400040 MADISHF
CVG	2024-03-01 21:45	KCVG 012145Z AUTO 13010KT 4SM -RA BR SCT013 OVC018 04/04 A3016 RMK P0003 T00400040 MADISHF
CVG	2024-03-01 21:50	KCVG 012150Z AUTO 14010KT 4SM -RA BR SCT010 OVC016 04/04 A3016 RMK P0003 T00400040  SCT V BKN MADISHF
CVG	2024-03-01 21:52	KCVG 012152Z 14010KT 4SM -RA BR SCT010 OVC016 04/04 A3016 RMK AO2 RAB00 SLP218 SCT V BKN P0003 T00440039
CVG	2024-03-01 21:55	KCVG 012155Z AUTO 14009KT 4SM -RA BR SCT010 OVC016 04/04 A3016 RMK P0001 T00400040 MADISHF
CVG	2024-03-01 22:00	KCVG 012200Z AUTO 14008KT 4SM -RA BR SCT010 OVC016 04/04 A3016 RMK P0001 T00400040 MADISHF
CVG	2024-03-01 22:05	KCVG 012205Z AUTO 12008KT 3SM -RA BR SCT009 OVC014 04/04 A3016 RMK P0001 T00400040 MADISHF
CVG	2024-03-01 22:10	KCVG 012210Z AUTO 14008KT 3SM -RA BR SCT009 OVC014 04/04 A3016 RMK P0002 T00400040 MADISHF
CVG	2024-03-01 22:15	KCVG 012215Z AUTO 13009KT 5SM -RA BR SCT008 OVC013 04/04 A3016 RMK P0002 T00400040 MADISHF
CVG	2024-03-01 22:20	KCVG 012220Z AUTO 13009KT 5SM -RA BR SCT008 OVC013 04/04 A3016 RMK P0003 T00400040 MADISHF
CVG	2024-03-01 22:25	KCVG 012225Z AUTO 13008KT 4SM -DZ BR BKN007 OVC012 04/04 A3015 RMK P0003 T00400040  RAE21DZB21 MADISHF
CVG	2024-03-01 22:30	KCVG 012230Z AUTO 14009KT 5SM -DZ BR BKN007 OVC012 04/04 A3015 RMK P0003 T00400040  RAE21DZB21 MADISHF
CVG	2024-03-01 22:35	KCVG 012235Z AUTO 13010KT 6SM -DZ BR BKN007 OVC012 04/04 A3015 RMK P0003 T00400040  RAE21DZB21 MADISHF
CVG	2024-03-01 22:40	KCVG 012240Z AUTO 12008KT 4SM -DZ BR OVC007 04/04 A3015 RMK P0003 T00400040  RAE21DZB21 MADISHF
CVG	2024-03-01 22:45	KCVG 012245Z AUTO 14005KT 4SM -RA BR OVC007 04/04 A3015 RMK P0003 T00400040  RAE21B42DZB21E42 MADISHF
CVG	2024-03-01 22:50	KCVG 012250Z AUTO 12007KT 4SM -RA BR OVC006 04/04 A3015 RMK P0003 T00400040  RAE21B42DZB21E42 MADISHF
CVG	2024-03-01 22:52	KCVG 012252Z 13008KT 4SM -RA BR OVC006 04/04 A3015 RMK AO2 SLP213 RAE21B42DZB21E42 P0003 T00390039 $
CVG	2024-03-01 22:55	KCVG 012255Z AUTO 13007KT 4SM -RA BR OVC006 04/04 A3015 RMK T00400040 MADISHF
CVG	2024-03-01 23:00	KCVG 012300Z AUTO 14010KT 4SM -RA BR OVC006 04/04 A3014 RMK T00400040 MADISHF
CVG	2024-03-01 23:05	KCVG 012305Z AUTO 13009KT 4SM RA BR OVC006 04/04 A3015 RMK P0001 T00400040 MADISHF
CVG	2024-03-01 23:10	KCVG 012310Z AUTO 15010KT 3SM -RA BR OVC006 04/04 A3015 RMK P0002 T00400040 MADISHF
CVG	2024-03-01 23:15	KCVG 012315Z AUTO 14008KT 3SM -RA BR OVC006 04/04 A3015 RMK P0002 T00400040 MADISHF
CVG	2024-03-01 23:20	KCVG 012320Z AUTO 15011KT 3SM -RA BR OVC006 04/04 A3015 RMK P0002 T00400040 MADISHF
CVG	2024-03-01 23:25	KCVG 012325Z AUTO 14011KT 3SM -RA BR OVC006 04/04 A3015 RMK P0002 T00400040 MADISHF
CVG	2024-03-01 23:30	KCVG 012330Z AUTO 14009KT 3SM -RA BR OVC006 04/04 A3014 RMK P0002 T00400040 MADISHF
CVG	2024-03-01 23:35	KCVG 012335Z AUTO 14010KT 3SM -RA BR OVC006 04/04 A3014 RMK P0003 T00400040 MADISHF
CVG	2024-03-01 23:40	KCVG 012340Z AUTO 14011KT 5SM -RA BR OVC006 04/04 A3014 RMK P0003 T00400040 MADISHF
CVG	2024-03-01 23:45	KCVG 012345Z AUTO 15011KT 5SM -RA BR OVC006 04/04 A3014 RMK P0004 T00400040 MADISHF
CVG	2024-03-01 23:50	KCVG 012350Z AUTO 14011KT 3SM RA BR OVC006 04/04 A3015 RMK P0005 T00400040  CIG 005V008 MADISHF
CVG	2024-03-01 23:52	KCVG 012352Z 14011KT 3SM RA BR OVC006 04/04 A3014 RMK AO2 SLP212 CIG 005V008 P0005 60011 T00390039 10072 20039 56009 $
CVG	2024-03-01 23:55	KCVG 012355Z AUTO 14011KT 3SM -RA BR OVC006 04/04 A3015 RMK P0001 T00400040 MADISHF
