#DEBUG: Format Typ    -> tdf
#DEBUG: Time Period   -> 2024-03-01 00:00:00+00:00 2024-03-02 00:00:00+00:00
#DEBUG: Time Zone     -> UTC
#DEBUG: Data Contact   -> daryl herzmann akrherz@iastate.edu 515-294-5978
#DEBUG: Entries Found -> -1
station	valid	metar
CVG	2024-03-01 17:07	KCVG 011707Z 18006KT 9SM -PLRA OVC070 04/M03 A3025 RMK AO2 PLB06 P0000 T00441028
CVG	2024-03-01 17:20	KCVG 011720Z 16005KT 10SM -RA OVC065 04/M03 A3025 RMK AO2 PLB06E20 P0000 T00441028
CVG	2024-03-01 20:45	KCVG 012045Z 15011KT 10SM BKN023 BKN033 OVC060 07/01 A3018 RMK AO2 T00670006
CVG	2024-03-01 21:29	KCVG 012129Z 14012KT 3SM -RA BR OVC017 05/04 A3016 RMK AO2 RAB00 P0000 T00500039
CVG	2024-03-01 22:02	KCVG 012202Z 12008KT 3SM -RA BR SCT009 OVC014 04/04 A3016 RMK AO2 TWR VIS 4 P0001 T00440039
CVG	2024-03-01 22:21	KCVG 012221Z 13009KT 4SM -DZ BR BKN007 OVC012 04/04 A3016 RMK AO2 RAE21DZB21 P0003 T00390039 $
