http_interactions:
- request:
    method: get
    uri: https://mesonet.agron.iastate.edu/cgi-bin/request/asos.py/?station=VOHY&data=all&year1=2014&month1=3&day1=1&year2=2014&month2=4&day2=5&format=tdf&latlon=yes
    body:
      encoding: ''
      string: ''
    headers:
      Accept: application/json, text/xml, application/xml, */*
  response:
    status:
      status_code: 200
      category: Success
      reason: OK
      message: 'Success: (200) OK'
    headers:
      date: Sun, 28 Feb 2021 13:41:58 GMT
      server: Apache/2.4.37 (Red Hat Enterprise Linux) OpenSSL/1.1.1g mod_fcgid/2.3.9
        mod_wsgi/4.7.1 Python/3.8
      x-iem-serverid: iemvs101.local
      access-control-allow-origin: '*'
      transfer-encoding: chunked
      content-type: text/plain; charset=UTF-8
    body:
      encoding: UTF-8
      file: no
      string: "#DEBUG: Format Typ    -> tdf\n#DEBUG: Time Period   -> 2014-03-01 00:00:00+00:00
        2014-04-05 00:00:00+00:00\n#DEBUG: Time Zone     -> Etc/UTC\n#DEBUG: Data
        Contact   -> daryl herzmann akrherz@iastate.edu 515-294-5978\n#DEBUG: Entries
        Found -> -1\nstation\tvalid\tlon\tlat\ttmpf\tdwpf\trelh\tdrct\tsknt\tp01i\talti\tmslp\tvsby\tgust\tskyc1\tskyc2\tskyc3\tskyc4\tskyl1\tskyl2\tskyl3\tskyl4\twxcodes\tice_accretion_1hr\tice_accretion_3hr\tice_accretion_6hr\tpeak_wind_gust\tpeak_wind_drct\tpeak_wind_time\tfeel\tmetar\nVOHY\t2014-03-01
        00:40\t78.4676\t17.4531\t69.80\t60.80\t73.09\t130.00\t4.00\t0.00\t29.97\tM\t1.86\tM\tBKN\tSCT\tM\tM\t1000.00\t1500.00\tM\tM\tHZ\tM\tM\tM\tM\tM\tM\t69.80\tVOHY
        010040Z 13004KT 3000 HZ BKN010 SCT015 21/16 Q1015 NOSIG\nVOHY\t2014-03-01
        01:40\t78.4676\t17.4531\t69.80\t60.80\t73.09\t190.00\t4.00\t0.00\t29.97\tM\t1.86\tM\tSCT\tSCT\tM\tM\t2000.00\t1500.00\tM\tM\tHZ\tM\tM\tM\tM\tM\tM\t69.80\tVOHY
        010140Z 19004KT 3000 HZ SCT020 SCT015 21/16 Q1015 NOSIG\nVOHY\t2014-03-01
        03:40\t78.4676\t17.4531\t77.00\t62.60\t61.13\t120.00\t6.00\t0.00\t30.03\tM\t2.49\tM\tSCT\tSCT\tM\tM\t1500.00\t2000.00\tM\tM\tHZ\tM\tM\tM\tM\tM\tM\t77.00\tVOHY
        010340Z 12006KT 4000 HZ SCT015 SCT020 25/17 Q1017 NOSIG\nVOHY\t2014-03-01
        05:40\t78.4676\t17.4531\t82.40\t64.40\t54.55\t180.00\t5.00\t0.00\t30.03\tM\t3.11\tM\tSCT\tSCT\tBKN\tM\t1500.00\t2000.00\t8000.00\tM\tHZ\tM\tM\tM\tM\tM\tM\t83.98\tVOHY
        010540Z 18005KT 5000 HZ SCT015 SCT020 BKN080 28/18 Q1017 NOSIG\nVOHY\t2014-03-01
        07:40\t78.4676\t17.4531\t84.20\t64.40\t51.47\t120.00\t6.00\t0.00\t29.97\tM\t3.73\tM\tSCT\tSCT\tM\tM\t2000.00\t2500.00\tM\tM\tM\tM\tM\tM\tM\tM\tM\t85.71\tVOHY
        010740Z 12006KT 6000 SCT020 SCT025 29/18 Q1015 NOSIG\nVOHY\t2014-03-01 08:40\t78.4676\t17.4531\t87.80\t64.40\t45.88\t210.00\t5.00\t0.00\t29.94\tM\t3.73\tM\tSCT\tSCT\tBKN\tM\t2000.00\t2500.00\t20000.00\tM\tM\tM\tM\tM\tM\tM\tM\t89.33\tVOHY
        010840Z 21005KT 6000 SCT020 SCT025 BKN200 31/18 Q1014 NOSIG\nVOHY\t2014-03-01
        10:40\t78.4676\t17.4531\t86.00\t60.80\t42.80\t120.00\t4.00\t0.00\t29.88\tM\t3.73\tM\tSCT\tSCT\tBKN\tM\t2000.00\t2500.00\t20000.00\tM\tM\tM\tM\tM\tM\tM\tM\t86.05\tVOHY
        011040Z 12004KT 6000 SCT020 SCT025 BKN200 30/16 Q1012 NOSIG\nVOHY\t2014-03-01
        12:40\t78.4676\t17.4531\t80.60\t62.60\t54.30\t60.00\t3.00\t0.00\t29.91\tM\t2.49\tM\tFEW\tSCT\tM\tM\t2000.00\t2500.00\tM\tM\tM\tM\tM\tM\tM\tM\tM\t81.84\tVOHY
        011240Z 06003KT 4000 FEW020 SCT025 27/17 Q1013 NOSIG\nVOHY\t2014-03-01 13:40\t78.4676\t17.4531\t75.20\t62.60\t64.91\tM\t1.00\t0.00\t29.94\tM\t2.49\tM\tFEW\tSCT\tM\tM\t2000.00\t10000.00\tM\tM\tM\tM\tM\tM\tM\tM\tM\t75.20\tVOHY
        011340Z VRB01KT 4000 FEW020 SCT100 24/17 Q1014 NOSIG\nVOHY\t2014-03-01 14:40\t78.4676\t17.4531\t73.40\t62.60\t68.94\t80.00\t8.00\t0.00\t29.97\tM\t2.49\tM\tFEW\tSCT\tM\tM\t2000.00\t10000.00\tM\tM\tM\tM\tM\tM\tM\tM\tM\t73.40\tVOHY
        011440Z 08008KT 4000 FEW020 SCT100 23/17 Q1015 NOSIG\nVOHY\t2014-03-02 00:40\t78.4676\t17.4531\t66.20\t62.60\t88.18\tM\t2.00\t0.00\t29.97\tM\t1.24\tM\tNSC\tM\tM\tM\tM\tM\tM\tM\tBR\tM\tM\tM\tM\tM\tM\t66.20\tVOHY
        020040Z VRB02KT 2000 BR NSC 19/17 Q1015 NOSIG\nVOHY\t2014-03-02 01:40\t78.4676\t17.4531\t66.20\t62.60\t88.18\t0.00\t0.00\t0.00\t30.00\tM\t1.24\tM\tNSC\tM\tM\tM\tM\tM\tM\tM\tBR\tM\tM\tM\tM\tM\tM\t66.20\tVOHY
        020140Z 00000KT 2000 BR NSC 19/17 Q1016 NOSIG\nVOHY\t2014-03-02 04:40\t78.4676\t17.4531\t71.60\t64.40\t78.04\t130.00\t3.00\t0.00\t30.06\tM\t2.49\tM\tFEW\tSCT\tM\tM\t1000.00\t2000.00\tM\tM\tHZ\tM\tM\tM\tM\tM\tM\t71.60\tVOHY
        020440Z 13003KT 4000 HZ FEW010 SCT020 22/18 Q1018 NOSIG\nVOHY\t2014-03-02
        06:40\t78.4676\t17.4531\t84.20\t66.20\t54.80\t100.00\t4.00\t0.00\t30.03\tM\t3.11\tM\tFEW\tSCT\tM\tM\t1000.00\t2000.00\tM\tM\tHZ\tM\tM\tM\tM\tM\tM\t86.50\tVOHY
        020640Z 10004KT 5000 HZ FEW010 SCT020 29/19 Q1017 NOSIG\nVOHY\t2014-03-02
        07:40\t78.4676\t17.4531\t86.00\t66.20\t51.72\t130.00\t4.00\t0.00\t29.97\tM\t3.11\tM\tSCT\tBKN\tM\tM\t2000.00\t20000.00\tM\tM\tHZ\tM\tM\tM\tM\tM\tM\t88.39\tVOHY
        020740Z 13004KT 5000 HZ SCT020 BKN200 30/19 Q1015 NOSIG\nVOHY\t2014-03-02
        09:40\t78.4676\t17.4531\t78.80\t69.80\t73.95\t130.00\t3.00\t0.00\t29.91\tM\t1.86\tM\tSCT\tSCT\tFEW\tOVC\t1500.00\t2000.00\t2500.00\t8000.00\tTSRA\tM\tM\tM\tM\tM\tM\t81.39\tVOHY
        020940Z 13003KT 3000 TSRA SCT015 SCT020 FEW025CB OVC080 26/21 Q1013 NOSIG\nVOHY\t2014-03-02
        12:40\t78.4676\t17.4531\t71.60\t66.20\t83.09\t150.00\t3.00\t0.00\t29.94\tM\t1.86\tM\tSCT\tSCT\tFEW\tBKN\t1500.00\t2000.00\t2500.00\t8000.00\t-TSRA\tM\tM\tM\tM\tM\tM\t71.60\tVOHY
        021240Z 15003KT 3000 -TSRA SCT015 SCT020 FEW025CB BKN080 22/19 Q1014 NOSIG\nVOHY\t2014-03-02
        13:40\t78.4676\t17.4531\t69.80\t64.40\t82.98\t0.00\t0.00\t0.00\t29.94\tM\t1.86\tM\tSCT\tSCT\tFEW\tM\t1500.00\t2000.00\t2500.00\tM\t-DZ\tM\tM\tM\tM\tM\tM\t69.80\tVOHY
        021340Z 00000KT 3000 -DZ SCT015 SCT020 FEW025CB 21/18 Q1014 NOSIG\nVOHY\t2014-03-02
        14:40\t78.4676\t17.4531\t69.80\t64.40\t82.98\t0.00\t0.00\t0.00\t29.97\tM\t1.86\tM\tSCT\tM\tM\tM\t2000.00\tM\tM\tM\tHZ\tM\tM\tM\tM\tM\tM\t69.80\tVOHY
        021440Z 00000KT 3000 HZ SCT020 21/18 Q1015 NOSIG\nVOHY\t2014-03-02 15:40\t78.4676\t17.4531\t69.80\t64.40\t82.98\t0.00\t0.00\t0.00\t30.00\tM\t1.86\tM\tSCT\tM\tM\tM\t2000.00\tM\tM\tM\tHZ\tM\tM\tM\tM\tM\tM\t69.80\tVOHY
        021540Z 00000KT 3000 HZ SCT020 21/18 Q1016 NOSIG\nVOHY\t2014-03-03 00:40\t78.4676\t17.4531\t69.80\t62.60\t77.90\t80.00\t3.00\t0.00\t30.00\tM\t1.86\tM\tBKN\tSCT\tOVC\tM\t1000.00\t1500.00\t8000.00\tM\tHZ\tM\tM\tM\tM\tM\tM\t69.80\tVOHY
        030040Z 08003KT 3000 HZ BKN010 SCT015 OVC080 21/17 Q1016 NOSIG\nVOHY\t2014-03-03
        01:40\t78.4676\t17.4531\t69.80\t62.60\t77.90\t110.00\t5.00\t0.00\t30.03\tM\t1.86\tM\tBKN\tSCT\tOVC\tM\t1000.00\t1500.00\t8000.00\tM\tHZ\tM\tM\tM\tM\tM\tM\t69.80\tVOHY
        030140Z 11005KT 3000 HZ BKN010 SCT015 OVC080 21/17 Q1017 NOSIG\nVOHY\t2014-03-03
        09:40\t78.4676\t17.4531\t82.40\t62.60\t51.21\t140.00\t5.00\t0.00\t29.94\tM\t3.11\tM\tSCT\tSCT\tFEW\tM\t1500.00\t2500.00\t3000.00\tM\tHZ\tM\tM\tM\tM\tM\tM\t83.41\tVOHY
        030940Z 14005KT 5000 HZ SCT015 SCT025 FEW030CB 28/17 Q1014 TEMPO 3000 TSRA\nVOHY\t2014-03-03
        12:40\t78.4676\t17.4531\t71.60\t59.00\t64.48\t60.00\t5.00\t0.00\t29.94\tM\t3.11\tM\tFEW\tSCT\tFEW\tM\t2000.00\t2500.00\t3000.00\tM\tHZ\tM\tM\tM\tM\tM\tM\t71.60\tVOHY
        031240Z 06005KT 5000 HZ FEW020 SCT025 FEW030CB 22/15 Q1014 TEMPO 3000 HZ\nVOHY\t2014-03-03
        14:40\t78.4676\t17.4531\t69.80\t59.00\t68.55\t90.00\t6.00\t0.00\t29.97\tM\t2.49\tM\tFEW\tFEW\tM\tM\t2000.00\t3000.00\tM\tM\tHZ\tM\tM\tM\tM\tM\tM\t69.80\tVOHY
        031440Z 09006KT 4000 HZ FEW020 FEW030CB 21/15 Q1015 TEMPO 3000 TSRA\nVOHY\t2014-03-03
        15:40\t78.4676\t17.4531\t69.80\t59.00\t68.55\tM\t2.00\t0.00\t29.97\tM\t2.49\tM\tFEW\tFEW\tM\tM\t2000.00\t3000.00\tM\tM\tHZ\tM\tM\tM\tM\tM\tM\t69.80\tVOHY
        031540Z VRB02KT 4000 HZ FEW020 FEW030CB 21/15 Q1015 TEMPO 3000 TSRA\nVOHY\t2014-03-04
        00:40\t78.4676\t17.4531\t68.00\t62.60\t82.86\tM\t2.00\t0.00\t30.00\tM\t1.24\tM\tSCT\tBKN\tM\tM\t1500.00\t10000.00\tM\tM\tBR\tM\tM\tM\tM\tM\tM\t68.00\tVOHY
        040040Z VRB02KT 2000 BR SCT015 BKN100 20/17 Q1016 NOSIG\nVOHY\t2014-03-04
        01:40\t78.4676\t17.4531\t68.00\t62.60\t82.86\t90.00\t3.00\t0.00\t30.03\tM\t1.24\tM\tSCT\tBKN\tM\tM\t1500.00\t10000.00\tM\tM\tBR\tM\tM\tM\tM\tM\tM\t68.00\tVOHY
        040140Z 09003KT 2000 BR SCT015 BKN100 20/17 Q1017 BECMG 3000 HZ\nVOHY\t2014-03-04
        03:40\t78.4676\t17.4531\t71.60\t64.40\t78.04\t100.00\t3.00\t0.00\t30.09\tM\t1.86\tM\tSCT\tBKN\tM\tM\t1500.00\t10000.00\tM\tM\tHZ\tM\tM\tM\tM\tM\tM\t71.60\tVOHY
        040340Z 10003KT 3000 HZ SCT015 BKN100 22/18 Q1019 NOSIG\nVOHY\t2014-03-04
        07:40\t78.4676\t17.4531\t78.80\t64.40\t61.36\t90.00\t8.00\t0.00\t30.03\tM\t3.11\tM\tSCT\tBKN\tM\tM\t1500.00\t10000.00\tM\tM\tHZ\tM\tM\tM\tM\tM\tM\t80.56\tVOHY
        040740Z 09008KT 5000 HZ SCT015 BKN100 26/18 Q1017 NOSIG\nVOHY\t2014-03-04
        08:40\t78.4676\t17.4531\t82.40\t64.40\t54.55\t120.00\t5.00\t0.00\t30.00\tM\t3.11\tM\tSCT\tFEW\tBKN\tM\t1500.00\t2500.00\t10000.00\tM\tHZ\tM\tM\tM\tM\tM\tM\t83.98\tVOHY
        040840Z 12005KT 5000 HZ SCT015 FEW025CB BKN100 28/18 Q1016 NOSIG\nVOHY\t2014-03-04
        11:40\t78.4676\t17.4531\t66.20\t62.60\t88.18\t40.00\t10.00\t0.00\t30.00\tM\t1.86\tM\tSCT\tFEW\tBKN\tM\t1500.00\t3000.00\t8000.00\tM\tM\tM\tM\tM\tM\tM\tM\t66.20\tVOHY
        041140Z 04010KT 3000 HZ/DZ SCT015 FEW030CB BKN080 19/17 Q1016 NOSIG\nVOHY\t2014-03-04
        12:40\t78.4676\t17.4531\t66.20\t60.80\t82.74\t40.00\t4.00\t0.00\t30.00\tM\t1.86\tM\tSCT\tFEW\tBKN\tM\t1500.00\t3000.00\t8000.00\tM\t-DZ\tM\tM\tM\tM\tM\tM\t66.20\tVOHY
        041240Z 04004KT 3000 -DZ SCT015 FEW030CB BKN080 19/16 Q1016 NOSIG\nVOHY\t2014-03-04
        13:40\t78.4676\t17.4531\t66.20\t60.80\t82.74\t80.00\t5.00\t0.00\t30.03\tM\t1.86\tM\tSCT\tBKN\tM\tM\t1500.00\t8000.00\tM\tM\tHZ\tM\tM\tM\tM\tM\tM\t66.20\tVOHY
        041340Z 08005KT 3000 HZ SCT015 BKN080 19/16 Q1017 NOSIG\nVOHY\t2014-03-04
        14:40\t78.4676\t17.4531\t66.20\t60.80\t82.74\t70.00\t5.00\t0.00\t30.06\tM\t1.86\tM\tSCT\tM\tM\tM\t1500.00\tM\tM\tM\tHZ\tM\tM\tM\tM\tM\tM\t66.20\tVOHY
        041440Z 07005KT 3000 HZ SCT015 19/16 Q1018 NOSIG\nVOHY\t2014-03-04 15:40\t78.4676\t17.4531\t64.40\t59.00\t82.62\t70.00\t5.00\t0.00\t30.06\tM\t1.86\tM\tFEW\tSCT\tM\tM\t2000.00\t10000.00\tM\tM\tHZ\tM\tM\tM\tM\tM\tM\t64.40\tVOHY
        041540Z 07005KT 3000 HZ FEW020 SCT100 18/15 Q1018 NOSIG\nVOHY\t2014-03-05
        00:40\t78.4676\t17.4531\t64.40\t60.80\t88.09\t0.00\t0.00\t0.00\t30.06\tM\t1.86\tM\tSCT\tSCT\tBKN\tM\t1000.00\t1500.00\t8000.00\tM\tHZ\tM\tM\tM\tM\tM\tM\t64.40\tVOHY
        050040Z 00000KT 3000 HZ SCT010 SCT015 BKN080 18/16 Q1018 NOSIG\nVOHY\t2014-03-05
        07:40\t78.4676\t17.4531\t78.80\t62.60\t57.60\t160.00\t4.00\t0.00\t30.03\tM\t3.11\tM\tSCT\tBKN\tM\tM\t1500.00\t8000.00\tM\tM\tHZ\tM\tM\tM\tM\tM\tM\t80.31\tVOHY
        050740Z 16004KT 5000 HZ SCT015 BKN080 26/17 Q1017 NOSIG\nVOHY\t2014-03-05
        08:40\t78.4676\t17.4531\t80.60\t60.80\t50.95\t100.00\t4.00\t0.00\t30.00\tM\t3.11\tM\tSCT\tSCT\tM\tM\t1500.00\t2000.00\tM\tM\tHZ\tM\tM\tM\tM\tM\tM\t81.46\tVOHY
        050840Z 10004KT 5000 HZ SCT015 SCT020 27/16 Q1016 NOSIG\nVOHY\t2014-03-05
        09:40\t78.4676\t17.4531\t80.60\t57.20\t44.80\t80.00\t6.00\t0.00\t29.97\tM\t3.11\tM\tSCT\tBKN\tM\tM\t1500.00\t10000.00\tM\tM\tHZ\tM\tM\tM\tM\tM\tM\t80.81\tVOHY
        050940Z 08006KT 5000 HZ SCT015 BKN100 27/14 Q1015 NOSIG\nVOHY\t2014-03-05
        10:40\t78.4676\t17.4531\t80.60\t59.00\t47.79\t100.00\t9.00\t0.00\t29.97\tM\t3.11\tM\tSCT\tSCT\tM\tM\t1500.00\t10000.00\tM\tM\tHZ\tM\tM\tM\tM\tM\tM\t81.11\tVOHY
        051040Z 10009KT 5000 HZ SCT015 SCT100 27/15 Q1015 NOSIG\nVOHY\t2014-03-05
        12:40\t78.4676\t17.4531\t77.00\t59.00\t53.80\t120.00\t11.00\t0.00\t29.97\tM\t2.49\tM\tSCT\tFEW\tBKN\tM\t1500.00\t3000.00\t10000.00\tM\tHZ\tM\tM\tM\tM\tM\tM\t77.00\tVOHY
        051240Z 12011KT 4000 HZ SCT015 FEW030CB BKN100 25/15 Q1015 NOSIG\nVOHY\t2014-03-05
        13:40\t78.4676\t17.4531\t73.40\t60.80\t64.69\t90.00\t5.00\t0.00\t30.00\tM\t2.49\tM\tSCT\tFEW\tBKN\tM\t1500.00\t3000.00\t10000.00\tM\tHZ\tM\tM\tM\tM\tM\tM\t73.40\tVOHY
        051340Z 09005KT 4000 HZ SCT015 FEW030CB BKN100 23/16 Q1016 NOSIG\nVOHY\t2014-03-05
        14:40\t78.4676\t17.4531\t71.60\t60.80\t68.75\t90.00\t3.00\t0.00\t30.00\tM\t2.49\tM\tSCT\tSCT\tM\tM\t1500.00\t10000.00\tM\tM\tHZ\tM\tM\tM\tM\tM\tM\t71.60\tVOHY
        051440Z 09003KT 4000 HZ SCT015 SCT100 22/16 Q1016 NOSIG\nVOHY\t2014-03-05
        15:40\t78.4676\t17.4531\t71.60\t60.80\t68.75\t100.00\t4.00\t0.00\t30.03\tM\t2.49\tM\tSCT\tSCT\tM\tM\t1500.00\t10000.00\tM\tM\tHZ\tM\tM\tM\tM\tM\tM\t71.60\tVOHY
        051540Z 10004KT 4000 HZ SCT015 SCT100 22/16 Q1017 NOSIG\nVOHY\t2014-03-06
        00:40\t78.4676\t17.4531\t68.00\t62.60\t82.86\t120.00\t5.00\t0.00\t30.03\tM\t1.86\tM\tSCT\tSCT\tBKN\tM\t1000.00\t1500.00\t10000.00\tM\t-DZ\tM\tM\tM\tM\tM\tM\t68.00\tVOHY
        060040Z 12005KT 3000 -DZ SCT010 SCT015 BKN100 20/17 Q1017 NOSIG\nVOHY\t2014-03-06
        01:40\t78.4676\t17.4531\t68.00\t62.60\t82.86\t110.00\t4.00\t0.00\t30.03\tM\t1.86\tM\tSCT\tSCT\tBKN\tM\t1000.00\t1500.00\t10000.00\tM\tHZ\tM\tM\tM\tM\tM\tM\t68.00\tVOHY
        060140Z 11004KT 3000 HZ SCT010 SCT015 BKN100 20/17 Q1017 BECMG 5000 HZ\nVOHY\t2014-03-06
        03:40\t78.4676\t17.4531\t71.60\t64.40\t78.04\t150.00\t5.00\t0.00\t30.09\tM\t2.49\tM\tSCT\tSCT\tBKN\tM\t1000.00\t1500.00\t10000.00\tM\tHZ\tM\tM\tM\tM\tM\tM\t71.60\tVOHY
        060340Z 15005KT 4000 HZ SCT010 SCT015 BKN100 22/18 Q1019 NOSIG\nVOHY\t2014-03-06
        04:40\t78.4676\t17.4531\t73.40\t66.20\t78.19\t130.00\t3.00\t0.00\t30.09\tM\t2.49\tM\tSCT\tSCT\tBKN\tM\t1000.00\t1500.00\t10000.00\tM\tHZ\tM\tM\tM\tM\tM\tM\t73.40\tVOHY
        060440Z 13003KT 4000 HZ SCT010 SCT015 BKN100 23/19 Q1019 NOSIG\nVOHY\t2014-03-06
        05:40\t78.4676\t17.4531\t75.20\t64.40\t69.14\t190.00\t8.00\t0.00\t30.09\tM\t2.49\tM\tSCT\tSCT\tBKN\tM\t1000.00\t1500.00\t10000.00\tM\tHZ\tM\tM\tM\tM\tM\tM\t75.20\tVOHY
        060540Z 19008KT 4000 HZ SCT010 SCT015 BKN100 24/18 Q1019 NOSIG\nVOHY\t2014-03-06
        06:40\t78.4676\t17.4531\t75.20\t62.60\t64.91\t170.00\t6.00\t0.00\t30.06\tM\t2.49\tM\tSCT\tSCT\tBKN\tM\t1000.00\t1500.00\t10000.00\tM\tHZ\tM\tM\tM\tM\tM\tM\t75.20\tVOHY
        060640Z 17006KT 4000 HZ SCT010 SCT015 BKN100 24/17 Q1018 NOSIG\nVOHY\t2014-03-06
        07:40\t78.4676\t17.4531\t75.20\t62.60\t64.91\t170.00\t5.00\t0.00\t30.03\tM\t2.49\tM\tSCT\tSCT\tBKN\tM\t1000.00\t1500.00\t10000.00\tM\tHZ\tM\tM\tM\tM\tM\tM\t75.20\tVOHY
        060740Z 17005KT 4000 HZ SCT010 SCT015 BKN100 24/17 Q1017 NOSIG\nVOHY\t2014-03-06
        09:40\t78.4676\t17.4531\t82.40\t62.60\t51.21\t150.00\t3.00\t0.00\t29.97\tM\t3.11\tM\tFEW\tSCT\tM\tM\t2000.00\t10000.00\tM\tM\tHZ\tM\tM\tM\tM\tM\tM\t83.41\tVOHY
        060940Z 15003KT 5000 HZ FEW020 SCT100 28/17 Q1015 NOSIG\nVOHY\t2014-03-06
        10:40\t78.4676\t17.4531\t80.60\t60.80\t50.95\t80.00\t8.00\t0.00\t29.97\tM\t3.11\tM\tFEW\tSCT\tM\tM\t2000.00\t10000.00\tM\tM\tHZ\tM\tM\tM\tM\tM\tM\t81.46\tVOHY
        061040Z 08008KT 5000 HZ FEW020 SCT100 27/16 Q1015 NOSIG\nVOHY\t2014-03-06
        11:40\t78.4676\t17.4531\t78.80\t62.60\t57.60\t80.00\t6.00\t0.00\t29.97\tM\t3.11\tM\tFEW\tSCT\tM\tM\t2000.00\t10000.00\tM\tM\tHZ\tM\tM\tM\tM\tM\tM\t80.31\tVOHY
        061140Z 08006KT 5000 HZ FEW020 SCT100 26/17 Q1015 NOSIG\nVOHY\t2014-03-06
        12:40\t78.4676\t17.4531\t77.00\t62.60\t61.13\tM\t2.00\t0.00\t29.97\tM\t3.11\tM\tFEW\tM\tM\tM\t10000.00\tM\tM\tM\tHZ\tM\tM\tM\tM\tM\tM\t77.00\tVOHY
        061240Z VRB02KT 5000 HZ FEW100 25/17 Q1015 NOSIG\nVOHY\t2014-03-06 13:40\t78.4676\t17.4531\t73.40\t60.80\t64.69\t100.00\t4.00\t0.00\t30.00\tM\t3.11\tM\tFEW\tM\tM\tM\t10000.00\tM\tM\tM\tHZ\tM\tM\tM\tM\tM\tM\t73.40\tVOHY
        061340Z 10004KT 5000 HZ FEW100 23/16 Q1016 NOSIG\nVOHY\t2014-03-06 14:40\t78.4676\t17.4531\t73.40\t62.60\t68.94\t100.00\t3.00\t0.00\t30.03\tM\t3.11\tM\tFEW\tSCT\tM\tM\t2000.00\t10000.00\tM\tM\tHZ\tM\tM\tM\tM\tM\tM\t73.40\tVOHY
        061440Z 10003KT 5000 HZ FEW020 SCT100 23/17 Q1017 NOSIG\nVOHY\t2014-03-06
        15:40\t78.4676\t17.4531\t71.60\t62.60\t73.27\t120.00\t5.00\t0.00\t30.06\tM\t3.11\tM\tFEW\tSCT\tM\tM\t2000.00\t10000.00\tM\tM\tHZ\tM\tM\tM\tM\tM\tM\t71.60\tVOHY
        061540Z 12005KT 5000 HZ FEW020 SCT100 22/17 Q1018 NOSIG\nVOHY\t2014-03-07
        00:40\t78.4676\t17.4531\t68.00\t62.60\t82.86\t110.00\t5.00\t0.00\t30.03\tM\t1.24\tM\tSCT\tSCT\tBKN\tM\t1000.00\t2000.00\t300000.00\tM\tBR\tM\tM\tM\tM\tM\tM\t68.00\tVOHY
        070040Z 11005KT 2000 BR SCT010 SCT020 BKN3000 20/17 Q1017 NOSIG\nVOHY\t2014-03-07
        01:40\t78.4676\t17.4531\t68.00\t62.60\t82.86\t110.00\t4.00\t0.00\t30.06\tM\t1.24\tM\tSCT\tSCT\tBKN\tM\t1000.00\t2000.00\t10000.00\tM\tBR\tM\tM\tM\tM\tM\tM\t68.00\tVOHY
        070140Z 11004KT 2000 BR SCT010 SCT020 BKN100 20/17 Q1018 NOSIG\nVOHY\t2014-03-07
        03:40\t78.4676\t17.4531\t73.40\t64.40\t73.44\tM\t2.00\t0.00\t30.09\tM\t1.86\tM\tSCT\tBKN\tM\tM\t1500.00\t10000.00\tM\tM\tHZ\tM\tM\tM\tM\tM\tM\t73.40\tVOHY
        070340Z VRB02KT 3000 HZ SCT015 BKN100 23/18 Q1019 BECMG 5000 HZ\nVOHY\t2014-03-07
        06:40\t78.4676\t17.4531\t80.60\t60.80\t50.95\t60.00\t12.00\t0.00\t30.09\tM\t3.11\tM\tSCT\tBKN\tM\tM\t1500.00\t20000.00\tM\tM\tHZ\tM\tM\tM\tM\tM\tM\t81.46\tVOHY
        070640Z 06012KT 5000 HZ SCT015 BKN200 27/16 Q1019 BECMG 6000\nVOHY\t2014-03-07
        08:40\t78.4676\t17.4531\t82.40\t60.80\t48.05\t40.00\t7.00\t0.00\t30.00\tM\t3.73\tM\tSCT\tSCT\tM\tM\t1500.00\t2000.00\tM\tM\tM\tM\tM\tM\tM\tM\tM\t82.90\tVOHY
        070840Z 04007KT 6000 SCT015 SCT020 28/16 Q1016 NOSIG\nVOHY\t2014-03-07 09:40\t78.4676\t17.4531\t84.20\t60.80\t45.34\t60.00\t9.00\t0.00\t30.00\tM\t3.73\tM\tSCT\tSCT\tFEW\tM\t2000.00\t2500.00\t3000.00\tM\tM\tM\tM\tM\tM\tM\tM\t84.43\tVOHY
        070940Z 06009KT 6000 SCT020 SCT025 FEW030CB 29/16 Q1016 NOSIG\nVOHY\t2014-03-07
        11:40\t78.4676\t17.4531\t75.20\t64.40\t69.14\t150.00\t4.00\t0.00\t29.97\tM\t1.86\tM\tSCT\tFEW\tBKN\tM\t1500.00\t2500.00\t8000.00\tM\t-TSRA\tM\tM\tM\tM\tM\tM\t75.20\tVOHY
        071140Z 15004KT 3000 -TSRA SCT015 ST020 FEW025CB BKN080 24/18 Q1015 NOSIG\nVOHY\t2014-03-07
        14:40\t78.4676\t17.4531\t75.20\t62.60\t64.91\t0.00\t0.00\t0.00\t30.06\tM\t2.49\tM\tSCT\tSCT\tM\tM\t1500.00\t10000.00\tM\tM\tHZ\tM\tM\tM\tM\tM\tM\t75.20\tVOHY
        071440Z 00000KT 4000 HZ SCT015 SCT100 24/17 Q1018 NOSIG\nVOHY\t2014-03-07
        15:40\t78.4676\t17.4531\t73.40\t62.60\t68.94\t0.00\t0.00\t0.00\t30.06\tM\t2.49\tM\tSCT\tSCT\tM\tM\t1500.00\t10000.00\tM\tM\tHZ\tM\tM\tM\tM\tM\tM\t73.40\tVOHY
        071540Z 00000KT 4000 HZ SCT015 SCT100 23/17 Q1018 NOSIG\nVOHY\t2014-03-08
        00:40\t78.4676\t17.4531\t69.80\t60.80\t73.09\t0.00\t0.00\t0.00\t30.06\tM\t1.86\tM\tSCT\tSCT\tOVC\tM\t1500.00\t2000.00\t8000.00\tM\tHZ\tM\tM\tM\tM\tM\tM\t69.80\tVOHY
        080040Z 00000KT 3000 HZ SCT015 SCT020 OVC080 21/16 Q1018 NOSIG\nVOHY\t2014-03-08
        01:40\t78.4676\t17.4531\t69.80\t62.60\t77.90\t0.00\t0.00\t0.00\t30.09\tM\t1.86\tM\tSCT\tSCT\tOVC\tM\t1500.00\t2000.00\t8000.00\tM\t-DZ\tM\tM\tM\tM\tM\tM\t69.80\tVOHY
        080140Z 00000KT 3000 -DZ SCT015 SCT020 OVC080 21/17 Q1019 NOSIG\nVOHY\t2014-03-08
        02:40\t78.4676\t17.4531\t69.80\t62.60\t77.90\t0.00\t0.00\t0.00\t30.12\tM\t1.86\tM\tSCT\tSCT\tOVC\tM\t1000.00\t1500.00\t8000.00\tM\t-DZ\tM\tM\tM\tM\tM\tM\t69.80\tVOHY
        080240Z 00000KT 3000 -DZ SCT010 SCT015 OVC080 21/17 Q1020 NOSIG\nVOHY\t2014-03-08
        03:40\t78.4676\t17.4531\t71.60\t64.40\t78.04\t0.00\t0.00\t0.00\t30.15\tM\t1.86\tM\tSCT\tSCT\tOVC\tM\t1000.00\t1500.00\t8000.00\tM\t-DZ/HZ\tM\tM\tM\tM\tM\tM\t71.60\tVOHY
        080340Z 00000KT 3000 -DZ/HZ SCT010 SCT015 OVC080 22/18 Q1021 NOSIG\nVOHY\t2014-03-08
        06:40\t78.4676\t17.4531\t84.20\t64.40\t51.47\t90.00\t3.00\t0.00\t30.09\tM\t3.73\tM\tSCT\tBKN\tM\tM\t2000.00\t10000.00\tM\tM\tM\tM\tM\tM\tM\tM\tM\t85.71\tVOHY
        080640Z 09003KT 6000 SCT020 BKN100 29/18 Q1019 NOSIG\nVOHY\t2014-03-08 07:40\t78.4676\t17.4531\t84.20\t64.40\t51.47\t140.00\t6.00\t0.00\t30.06\tM\t3.73\tM\tSCT\tBKN\tM\tM\t2000.00\t10000.00\tM\tM\tM\tM\tM\tM\tM\tM\tM\t85.71\tVOHY
        080740Z 14006KT 6000 SCT020 BKN100 29/18 Q1018 NOSIG\nVOHY\t2014-03-08 08:40\t78.4676\t17.4531\t84.20\t62.60\t48.32\t110.00\t6.00\t0.00\t30.03\tM\t3.73\tM\tSCT\tBKN\tM\tM\t2000.00\t10000.00\tM\tM\tM\tM\tM\tM\tM\tM\tM\t85.03\tVOHY
        080840Z 11006KT 6000 SCT020 BKN100 29/17 Q1017 NOSIG\nVOHY\t2014-03-08 09:40\t78.4676\t17.4531\t84.20\t60.80\t45.34\t100.00\t4.00\t0.00\t30.00\tM\t3.73\tM\tSCT\tBKN\tM\tM\t2000.00\t10000.00\tM\tM\tM\tM\tM\tM\tM\tM\tM\t84.43\tVOHY
        080940Z 10004KT 6000 SCT020 BKN100 29/16 Q1016 NOSIG\nVOHY\t2014-03-08 11:40\t78.4676\t17.4531\t82.40\t55.40\t39.58\t70.00\t6.00\t0.00\t29.97\tM\t3.73\tM\tFEW\tSCT\tM\tM\t2000.00\t10000.00\tM\tM\tM\tM\tM\tM\tM\tM\tM\t82.40\tVOHY
        081140Z 07006KT 6000 FEW020 SCT100 28/13 Q1015 TEMPO 5000 HZ\nVOHY\t2014-03-08
        13:40\t78.4676\t17.4531\t78.80\t55.40\t44.52\t120.00\t3.00\t0.00\t30.03\tM\t3.11\tM\tNSC\tM\tM\tM\tM\tM\tM\tM\tHZ\tM\tM\tM\tM\tM\tM\t78.80\tVOHY
        081340Z 12003KT 5000 HZ NSC 26/13 Q1017 NOSIG\nVOHY\t2014-03-08 14:40\t78.4676\t17.4531\t77.00\t57.20\t50.43\t100.00\t4.00\t0.00\t30.06\tM\t3.11\tM\tNSC\tM\tM\tM\tM\tM\tM\tM\tHZ\tM\tM\tM\tM\tM\tM\t77.00\tVOHY
        081440Z 10004KT 5000 HZ NSC 25/14 Q1018 NOSIG\nVOHY\t2014-03-08 15:40\t78.4676\t17.4531\t77.00\t59.00\t53.80\t110.00\t6.00\t0.00\t30.09\tM\t3.11\tM\tNSC\tM\tM\tM\tM\tM\tM\tM\tHZ\tM\tM\tM\tM\tM\tM\t77.00\tVOHY
        081540Z 11006KT 5000 HZ NSC 25/15 Q1019 NOSIG\nVOHY\t2014-03-09 00:40\t78.4676\t17.4531\t66.20\t59.00\t77.60\t60.00\t6.00\t0.00\t30.09\tM\t1.24\tM\tFEW\tBKN\tM\tM\t2000.00\t10000.00\tM\tM\tBR\tM\tM\tM\tM\tM\tM\t66.20\tVOHY
        090040Z 06006KT 2000 BR FEW020 BKN100 19/15 Q1019 NOSIG\nVOHY\t2014-03-09
        03:40\t78.4676\t17.4531\t73.40\t59.00\t60.67\t90.00\t8.00\t0.00\t30.12\tM\t3.11\tM\tFEW\tSCT\tM\tM\t2000.00\t10000.00\tM\tM\tHZ\tM\tM\tM\tM\tM\tM\t73.40\tVOHY
        090340Z 09008KT 5000 HZ FEW020 SCT100 23/15 Q1020\nVOHY\t2014-03-09 04:40\t78.4676\t17.4531\t77.00\t59.00\t53.80\t100.00\t7.00\t0.00\t30.12\tM\t3.11\tM\tFEW\tBKN\tM\tM\t2000.00\t10000.00\tM\tM\tHZ\tM\tM\tM\tM\tM\tM\t77.00\tVOHY
        090440Z 10007KT 5000 HZ FEW020 BKN100 25/15 Q1020 NOSIG\nVOHY\t2014-03-09
        06:40\t78.4676\t17.4531\t80.60\t59.00\t47.79\t160.00\t5.00\t0.00\t30.09\tM\t3.73\tM\tFEW\tBKN\tM\tM\t2000.00\t10000.00\tM\tM\tM\tM\tM\tM\tM\tM\tM\t81.11\tVOHY
        090640Z 16005KT 6000 FEW020 BKN100 27/15 Q1019 NOSIG\nVOHY\t2014-03-09 07:40\t78.4676\t17.4531\t82.40\t59.00\t45.07\t120.00\t7.00\t0.00\t30.06\tM\t3.73\tM\tFEW\tBKN\tM\tM\t2000.00\t10000.00\tM\tM\tM\tM\tM\tM\tM\tM\tM\t82.46\tVOHY
        090740Z 12007KT 6000 FEW020 BKN100 28/15 Q1018 NOSIG\nVOHY\t2014-03-09 08:40\t78.4676\t17.4531\t84.20\t55.40\t37.35\t100.00\t5.00\t0.00\t30.03\tM\t3.73\tM\tSCT\tBKN\tM\tM\t2000.00\t10000.00\tM\tM\tM\tM\tM\tM\tM\tM\tM\t83.09\tVOHY
        090840Z 10005KT 6000 SCT020 BKN100 29/13 Q1017 NOSIG\nVOHY\t2014-03-09 09:40\t78.4676\t17.4531\t86.00\t57.20\t37.62\t120.00\t3.00\t0.00\t30.00\tM\t3.73\tM\tSCT\tSCT\tM\tM\t2000.00\t10000.00\tM\tM\tM\tM\tM\tM\tM\tM\tM\t84.97\tVOHY
        090940Z 12003KT 6000 SCT020 SCT100 30/14 Q1016 NOSIG\nVOHY\t2014-03-09 10:40\t78.4676\t17.4531\t87.80\t55.40\t33.29\t0.00\t0.00\t0.00\t29.97\tM\t3.73\tM\tSCT\tSCT\tM\tM\t2000.00\t10000.00\tM\tM\tM\tM\tM\tM\tM\tM\tM\t86.11\tVOHY
        091040Z 00000KT 6000 SCT020 SCT100 31/13 Q1015 NOSIG\nVOHY\t2014-03-09 11:40\t78.4676\t17.4531\t86.00\t53.60\t33.01\t90.00\t5.00\t0.00\t29.94\tM\t3.73\tM\tFEW\tM\tM\tM\t2000.00\tM\tM\tM\tM\tM\tM\tM\tM\tM\tM\t84.18\tVOHY
        091140Z 09005KT 6000 FEW020 30/12 Q1014 NOSIG\nVOHY\t2014-03-09 13:40\t78.4676\t17.4531\t78.80\t55.40\t44.52\t90.00\t4.00\t0.00\t29.97\tM\t3.11\tM\tSCT\tSCT\tM\tM\t2000.00\t10000.00\tM\tM\tHZ\tM\tM\tM\tM\tM\tM\t78.80\tVOHY
        091340Z 09004KT 5000 HZ SCT020 SCT100 26/13 Q1015 NOSIG\nVOHY\t2014-03-09
        14:40\t78.4676\t17.4531\t77.00\t57.20\t50.43\t70.00\t5.00\t0.00\t30.00\tM\t3.11\tM\tSCT\tSCT\tM\tM\t2000.00\t10000.00\tM\tM\tHZ\tM\tM\tM\tM\tM\tM\t77.00\tVOHY
        091440Z 07005KT 5000 HZ SCT020 SCT100 25/14 Q1016 NOSIG\nVOHY\t2014-03-10
        00:40\t78.4676\t17.4531\t68.00\t62.60\t82.86\t90.00\t4.00\t0.00\t30.06\tM\t1.24\tM\tFEW\tM\tM\tM\t2000.00\tM\tM\tM\tBR\tM\tM\tM\tM\tM\tM\t68.00\tVOHY
        100040Z 09004KT 2000 BR FEW020 20/17 Q1018 NOSIG\nVOHY\t2014-03-10 01:40\t78.4676\t17.4531\t68.00\t62.60\t82.86\t70.00\t10.00\t0.00\t30.09\tM\t1.24\tM\tSCT\tSCT\tM\tM\t1000.00\t1500.00\tM\tM\tBR\tM\tM\tM\tM\tM\tM\t68.00\tVOHY
        100140Z 07010KT 2000 BR SCT010 SCT015 20/17 Q1019 NOSIG\nVOHY\t2014-03-10
        02:40\t78.4676\t17.4531\tM\tM\tM\t90.00\t7.00\t0.00\t30.12\tM\t1.24\tM\tSCT\tSCT\tBKN\tM\t1000.00\t1500.00\t10000.00\tM\tBR\tM\tM\tM\tM\tM\tM\tM\tVOHY
        100240Z 09007KT 2000 BR SCT010 SCT015 BKN100 21 /17 Q1020 BECMG 3000 HZ\nVOHY\t2014-03-10
        06:40\t78.4676\t17.4531\t78.80\t60.80\t54.05\t80.00\t7.00\t0.00\t30.12\tM\t3.11\tM\tSCT\tSCT\tM\tM\t1500.00\t2000.00\tM\tM\tHZ\tM\tM\tM\tM\tM\tM\t78.80\tVOHY
        100640Z 08007KT 5000 HZ SCT015 SCT020 26/16 Q1020 NOSIG\nVOHY\t2014-03-10
        07:40\t78.4676\t17.4531\t80.60\t59.00\t47.79\t90.00\t9.00\t0.00\t30.06\tM\t3.11\tM\tFEW\tSCT\tM\tM\t1500.00\t2000.00\tM\tM\tHZ\tM\tM\tM\tM\tM\tM\t81.11\tVOHY
        100740Z 09009KT 5000 HZ FEW015 SCT020 27/15 Q1018 NOSIG\nVOHY\t2014-03-10
        09:40\t78.4676\t17.4531\t84.20\t57.20\t39.86\t90.00\t6.00\t0.00\t30.00\tM\t3.73\tM\tSCT\tM\tM\tM\t2000.00\tM\tM\tM\tM\tM\tM\tM\tM\tM\tM\t84.20\tVOHY
        100940Z 09006KT 6000 SCT020 29/14 Q1016 NOSIG\nVOHY\t2014-03-10 10:40\t78.4676\t17.4531\t84.20\t53.60\t34.97\t100.00\t9.00\t0.00\t30.00\tM\t3.73\tM\tSCT\tBKN\tM\tM\t2000.00\t10000.00\tM\tM\tM\tM\tM\tM\tM\tM\tM\t82.76\tVOHY
        101040Z 10009KT 6000 SCT020 BKN100 29/12 Q1016 NOSIG\nVOHY\t2014-03-10 11:40\t78.4676\t17.4531\t82.40\t55.40\t39.58\t100.00\t4.00\t0.00\t30.00\tM\t3.73\tM\tSCT\tBKN\tM\tM\t2000.00\t10000.00\tM\tM\tM\tM\tM\tM\tM\tM\tM\t82.40\tVOHY
        101140Z 10004KT 6000 SCT020 BKN100 28/13 Q1016 NOSIG\nVOHY\t2014-03-10 13:40\t78.4676\t17.4531\t78.80\t55.40\t44.52\t80.00\t7.00\t0.00\t30.00\tM\t3.11\tM\tSCT\tM\tM\tM\t10000.00\tM\tM\tM\tHZ\tM\tM\tM\tM\tM\tM\t78.80\tVOHY
        101340Z 08007KT 5000 HZ SCT100 26/13 Q1016 NOSIG\nVOHY\t2014-03-10 14:40\t78.4676\t17.4531\t77.00\t57.20\t50.43\t110.00\t6.00\t0.00\t30.03\tM\t3.11\tM\tSCT\tM\tM\tM\t10000.00\tM\tM\tM\tHZ\tM\tM\tM\tM\tM\tM\t77.00\tVOHY
        101440Z 11006KT 5000 HZ SCT100 25/14 Q1017 NOSIG\nVOHY\t2014-03-10 15:40\t78.4676\t17.4531\t77.00\t59.00\t53.80\t130.00\t5.00\t0.00\t30.06\tM\t3.11\tM\tFEW\tM\tM\tM\t2000.00\tM\tM\tM\tHZ\tM\tM\tM\tM\tM\tM\t77.00\tVOHY
        101540Z 13005KT 5000 HZ FEW020 25/15 Q1018 NOSIG\nVOHY\t2014-03-11 00:40\t78.4676\t17.4531\t69.80\t55.40\t60.21\t0.00\t0.00\t0.00\t30.03\tM\t1.24\tM\tBKN\tM\tM\tM\t20000.00\tM\tM\tM\tBR\tM\tM\tM\tM\tM\tM\t69.80\tVOHY
        110040Z 00000KT 2000 BR BKN200 21/13 Q1017 NOSIG\nVOHY\t2014-03-11 03:40\t78.4676\t17.4531\t80.60\t51.80\t36.79\t140.00\t6.00\t0.00\t30.09\tM\t3.11\tM\tSCT\tM\tM\tM\t20000.00\tM\tM\tM\tHZ\tM\tM\tM\tM\tM\tM\t80.60\tVOHY
        110340Z 14006KT 5000 HZ SCT200 27/11 Q1019 NOSIG\nVOHY\t2014-03-11 05:40\t78.4676\t17.4531\t87.80\t48.20\t25.52\t120.00\t4.00\t0.00\t30.09\tM\t3.73\tM\tFEW\tM\tM\tM\t20000.00\tM\tM\tM\tM\tM\tM\tM\tM\tM\tM\t84.87\tVOHY
        110540Z 12004KT 6000 FEW200 31/09 Q1019 NOSIG\nVOHY\t2014-03-11 06:40\t78.4676\t17.4531\t89.60\t50.00\t25.79\t130.00\t5.00\t0.00\t30.06\tM\t3.73\tM\tFEW\tM\tM\tM\t20000.00\tM\tM\tM\tM\tM\tM\tM\tM\tM\tM\t86.70\tVOHY
        110640Z 13005KT 6000 FEW200 32/10 Q1018 NOSIG\nVOHY\t2014-03-11 07:40\t78.4676\t17.4531\t91.40\t51.80\t26.05\t90.00\t3.00\t0.00\t30.03\tM\t3.73\tM\tNSC\tM\tM\tM\tM\tM\tM\tM\tM\tM\tM\tM\tM\tM\tM\t88.69\tVOHY
        110740Z 09003KT 6000 NSC 33/11 Q1017 NOSIG\nVOHY\t2014-03-11 08:40\t78.4676\t17.4531\t95.00\t53.60\t24.89\t170.00\t5.00\t0.00\t30.00\tM\t3.73\tM\tFEW\tSCT\tM\tM\t2000.00\t20000.00\tM\tM\tM\tM\tM\tM\tM\tM\tM\t92.71\tVOHY
        110840Z 17005KT 6000 FEW020 SCT200 35/12 Q1016 NOSIG\nVOHY\t2014-03-11 09:40\t78.4676\t17.4531\t93.20\t53.60\t26.31\t110.00\t9.00\t0.00\t29.97\tM\t3.73\tM\tFEW\tBKN\tM\tM\t2000.00\t20000.00\tM\tM\tM\tM\tM\tM\tM\tM\tM\t90.86\tVOHY
        110940Z 11009KT 6000 FEW020 BKN200 34/12 Q1015 NOSIG\nVOHY\t2014-03-11 10:40\t78.4676\t17.4531\t91.40\t57.20\t31.72\t60.00\t6.00\t0.00\t29.97\tM\t3.73\tM\tFEW\tSCT\tM\tM\t2000.00\t10000.00\tM\tM\tM\tM\tM\tM\tM\tM\tM\t90.06\tVOHY
        111040Z 06006KT 6000 FEW020 SCT100 33/14 Q1015 NOSIG\nVOHY\t2014-03-11 11:40\t78.4676\t17.4531\t87.80\t59.00\t37.90\t160.00\t6.00\t0.00\t29.97\tM\t3.73\tM\tFEW\tBKN\tM\tM\t2000.00\t10000.00\tM\tM\tM\tM\tM\tM\tM\tM\tM\t87.80\tVOHY
        111140Z 16006KT 6000 FEW020 BKN100 31/15 Q1015 NOSIG\nVOHY\t2014-03-11 13:40\t78.4676\t17.4531\t82.40\t59.00\t45.07\t100.00\t5.00\t0.00\t30.00\tM\t3.11\tM\tFEW\tBKN\tM\tM\t2000.00\t10000.00\tM\tM\tHZ\tM\tM\tM\tM\tM\tM\t82.46\tVOHY
        111340Z 10005KT 5000 HZ FEW020 BKN100 28/15 Q1016 NOSIG\nVOHY\t2014-03-11
        14:40\t78.4676\t17.4531\t80.60\t60.80\t50.95\t120.00\t8.00\t0.00\t30.03\tM\t3.11\tM\tFEW\tBKN\tM\tM\t2000.00\t10000.00\tM\tM\tHZ\tM\tM\tM\tM\tM\tM\t81.46\tVOHY
        111440Z 12008KT 5000 HZ FEW020 BKN100 27/16 Q1017 NOSIG\nVOHY\t2014-03-11
        15:40\t78.4676\t17.4531\t78.80\t59.00\t50.69\t120.00\t8.00\t0.00\t30.06\tM\t3.11\tM\tFEW\tBKN\tM\tM\t2000.00\t10000.00\tM\tM\tHZ\tM\tM\tM\tM\tM\tM\t78.80\tVOHY
        111540Z 12008KT 5000 HZ FEW020 BKN100 26/15 Q1018 NOSIG\nVOHY\t2014-03-12
        00:40\t78.4676\t17.4531\t69.80\t53.60\t56.38\t70.00\t4.00\t0.00\t30.03\tM\t1.86\tM\tSCT\tBKN\tM\tM\t1500.00\t10000.00\tM\tM\tHZ\tM\tM\tM\tM\tM\tM\t69.80\tVOHY
        120040Z 07004KT 3000 HZ SCT015 BKN100 21/12 Q1017 NOSIG\nVOHY\t2014-03-12
        01:40\t78.4676\t17.4531\t69.80\t55.40\t60.21\t0.00\t0.00\t0.00\t30.06\tM\t1.86\tM\tFEW\tBKN\tM\tM\t1500.00\t20000.00\tM\tM\tHZ\tM\tM\tM\tM\tM\tM\t69.80\tVOHY
        120140Z 00000KT 3000 HZ FEW015 BKN200 21/13 Q1018 NOSIG\nVOHY\t2014-03-12
        05:40\t78.4676\t17.4531\t86.00\t55.40\t35.25\t140.00\t5.00\t0.00\t30.12\tM\t3.73\tM\tFEW\tBKN\tM\tM\t2000.00\t20000.00\tM\tM\tM\tM\tM\tM\tM\tM\tM\t84.54\tVOHY
        120540Z 14005KT 6000 FEW020 BKN200 30/13 Q1020 NOSIG\nVOHY\t2014-03-12 06:40\t78.4676\t17.4531\t89.60\t55.40\t31.45\t210.00\t7.00\t0.00\t30.09\tM\t3.73\tM\tFEW\tBKN\tM\tM\t2000.00\t20000.00\tM\tM\tM\tM\tM\tM\tM\tM\tM\t87.78\tVOHY
        120640Z 21007KT 6000 FEW020 BKN200 32/13 Q1019 NOSIG\nVOHY\t2014-03-12 07:40\t78.4676\t17.4531\t89.60\t53.60\t29.45\t130.00\t4.00\t0.00\t30.06\tM\t3.73\tM\tFEW\tBKN\tM\tM\t2000.00\t20000.00\tM\tM\tM\tM\tM\tM\tM\tM\tM\t87.36\tVOHY
        120740Z 13004KT 6000 FEW020 BKN200 32/12 Q1018 NOSIG\nVOHY\t2014-03-12 08:40\t78.4676\t17.4531\t91.40\t55.40\t29.72\t120.00\t4.00\t0.00\t30.00\tM\t3.73\tM\tFEW\tBKN\tM\tM\t2000.00\t20000.00\tM\tM\tM\tM\tM\tM\tM\tM\tM\t89.53\tVOHY
        120840Z 12004KT 6000 FEW020 BKN200 33/13 Q1016 NOSIG\nVOHY\t2014-03-12 09:40\t78.4676\t17.4531\t89.60\t55.40\t31.45\t110.00\t7.00\t0.00\t30.00\tM\t3.73\tM\tSCT\tBKN\tM\tM\t2000.00\t20000.00\tM\tM\tM\tM\tM\tM\tM\tM\tM\t87.78\tVOHY
        120940Z 11007KT 6000 SCT020 BKN200 32/13 Q1016 NOSIG\nVOHY\t2014-03-12 10:40\t78.4676\t17.4531\t89.60\t55.40\t31.45\t120.00\t8.00\t0.00\t29.97\tM\t3.73\tM\tSCT\tBKN\tM\tM\t2000.00\t20000.00\tM\tM\tM\tM\tM\tM\tM\tM\tM\t87.78\tVOHY
        121040Z 12008KT 6000 SCT020 BKN200 32/13 Q1015 NOSIG\nVOHY\t2014-03-12 12:40\t78.4676\t17.4531\t82.40\t59.00\t45.07\t90.00\t7.00\t0.00\t30.00\tM\t3.11\tM\tSCT\tBKN\tM\tM\t2000.00\t20000.00\tM\tM\tHZ\tM\tM\tM\tM\tM\tM\t82.46\tVOHY
        121240Z 09007KT 5000 HZ SCT020 BKN200 28/15 Q1016 NOSIG\nVOHY\t2014-03-12
        13:40\t78.4676\t17.4531\t80.60\t59.00\t47.79\t100.00\t7.00\t0.00\t30.03\tM\t3.11\tM\tSCT\tBKN\tM\tM\t2000.00\t20000.00\tM\tM\tHZ\tM\tM\tM\tM\tM\tM\t81.11\tVOHY
        121340Z 10007KT 5000 HZ SCT020 BKN200 27/15 Q1017 NOSIG\nVOHY\t2014-03-12
        14:40\t78.4676\t17.4531\t78.80\t59.00\t50.69\t100.00\t6.00\t0.00\t30.03\tM\t3.11\tM\tFEW\tBKN\tM\tM\t2000.00\t20000.00\tM\tM\tHZ\tM\tM\tM\tM\tM\tM\t78.80\tVOHY
        121440Z 10006KT 5000 HZ FEW020 BKN200 26/15 Q1017 NOSIG\nVOHY\t2014-03-12
        15:40\t78.4676\t17.4531\t78.80\t59.00\t50.69\t100.00\t8.00\t0.00\t30.06\tM\t3.11\tM\tFEW\tSCT\tM\tM\t2000.00\t20000.00\tM\tM\tHZ\tM\tM\tM\tM\tM\tM\t78.80\tVOHY
        121540Z 10008KT 5000 HZ FEW020 SCT200 26/15 Q1018 NOSIG\nVOHY\t2014-03-13
        00:40\t78.4676\t17.4531\t71.60\t59.00\t64.48\t0.00\t0.00\t0.00\t30.03\tM\t2.49\tM\tSCT\tBKN\tM\tM\t2000.00\t10000.00\tM\tM\tHZ\tM\tM\tM\tM\tM\tM\t71.60\tVOHY
        130040Z 00000KT 4000 HZ SCT020 BKN100 22/15 Q1017 NOSIG\nVOHY\t2014-03-13
        01:40\t78.4676\t17.4531\t69.80\t59.00\t68.55\t0.00\t0.00\t0.00\t30.06\tM\t2.49\tM\tSCT\tBKN\tM\tM\t2000.00\t10000.00\tM\tM\tHZ\tM\tM\tM\tM\tM\tM\t69.80\tVOHY
        130140Z 00000KT 4000 HZ SCT020 BKN100 21/15 Q1018 NOSIG\nVOHY\t2014-03-13
        04:40\t78.4676\t17.4531\t84.20\t53.60\t34.97\t90.00\t4.00\t0.00\t30.12\tM\t3.73\tM\tFEW\tSCT\tM\tM\t2000.00\t20000.00\tM\tM\tM\tM\tM\tM\tM\tM\tM\t82.76\tVOHY
        130440Z 09004KT 6000 FEW020 SCT200 29/12 Q1020 NOSIG\nVOHY\t2014-03-13 05:40\t78.4676\t17.4531\t87.80\t51.80\t29.18\t70.00\t3.00\t0.00\t30.12\tM\t3.73\tM\tFEW\tM\tM\tM\t2000.00\tM\tM\tM\tM\tM\tM\tM\tM\tM\tM\t85.39\tVOHY
        130540Z 07003KT 6000 FEW020 31/11 Q1020 NOSIG\nVOHY\t2014-03-13 06:40\t78.4676\t17.4531\t89.60\t51.80\t27.56\t60.00\t3.00\t0.00\t30.09\tM\t3.73\tM\tFEW\tM\tM\tM\t2000.00\tM\tM\tM\tM\tM\tM\tM\tM\tM\tM\t87.00\tVOHY
        130640Z 06003KT 6000 FEW020 32/11 Q1019 NOSIG\nVOHY\t2014-03-13 07:40\t78.4676\t17.4531\t93.20\t48.20\t21.54\t170.00\t4.00\t0.00\t30.03\tM\t3.73\tM\tFEW\tM\tM\tM\t2000.00\tM\tM\tM\tM\tM\tM\tM\tM\tM\tM\t89.80\tVOHY
        130740Z 17004KT 6000 FEW020 34/09 Q1017 NOSIG\nVOHY\t2014-03-13 08:40\t78.4676\t17.4531\t95.00\t46.40\t19.04\t170.00\t4.00\t0.00\t30.00\tM\t3.73\tM\tFEW\tM\tM\tM\t2000.00\tM\tM\tM\tM\tM\tM\tM\tM\tM\tM\t91.29\tVOHY
        130840Z 17004KT 6000 FEW020 35/08 Q1016 NOSIG\nVOHY\t2014-03-13 09:40\t78.4676\t17.4531\t93.20\t46.40\t20.13\t160.00\t5.00\t0.00\t30.00\tM\t3.73\tM\tFEW\tM\tM\tM\t2000.00\tM\tM\tM\tM\tM\tM\tM\tM\tM\tM\t89.55\tVOHY
        130940Z 16005KT 6000 FEW020 34/08 Q1016 NOSIG\nVOHY\t2014-03-13 10:40\t78.4676\t17.4531\t93.20\t46.40\t20.13\t120.00\t5.00\t0.00\t29.97\tM\t3.73\tM\tFEW\tM\tM\tM\t2000.00\tM\tM\tM\tM\tM\tM\tM\tM\tM\tM\t89.55\tVOHY
        131040Z 12005KT 6000 FEW020 34/08 Q1015 NOSIG\nVOHY\t2014-03-13 11:40\t78.4676\t17.4531\t89.60\t48.20\t24.11\t90.00\t5.00\t0.00\t29.97\tM\t3.73\tM\tFEW\tM\tM\tM\t2000.00\tM\tM\tM\tM\tM\tM\tM\tM\tM\tM\t86.44\tVOHY
        131140Z 09005KT 6000 FEW020 32/09 Q1015 NOSIG\nVOHY\t2014-03-13 12:40\t78.4676\t17.4531\t87.80\t48.20\t25.52\t110.00\t5.00\t0.00\t29.97\tM\t3.73\tM\tFEW\tM\tM\tM\t2000.00\tM\tM\tM\tM\tM\tM\tM\tM\tM\tM\t84.87\tVOHY
        131240Z 11005KT 6000 FEW020 31/09 Q1015 NOSIG\nVOHY\t2014-03-13 14:40\t78.4676\t17.4531\t82.40\t48.20\t30.35\t110.00\t6.00\t0.00\t30.00\tM\t3.11\tM\tM\tM\tM\tM\tM\tM\tM\tM\tHZ\tM\tM\tM\tM\tM\tM\t80.80\tVOHY
        131440Z 11006KT 5000 HZ 28/09 Q1016 NOSIG\nVOHY\t2014-03-13 15:40\t78.4676\t17.4531\t80.60\t48.20\t32.18\t110.00\t2.00\t0.00\t30.06\tM\t3.11\tM\tM\tM\tM\tM\tM\tM\tM\tM\tHZ\tM\tM\tM\tM\tM\tM\t80.60\tVOHY
        131540Z 11002KT 5000 HZ 27/09 Q1018 NOSIG\nVOHY\t2014-03-14 00:40\t78.4676\t17.4531\t64.40\t53.60\t67.95\t0.00\t0.00\t0.00\t30.03\tM\t1.24\tM\tNSC\tM\tM\tM\tM\tM\tM\tM\tBR\tM\tM\tM\tM\tM\tM\t64.40\tVOHY
        140040Z 00000KT 2000 BR NSC 18/12 Q1017 NOSIG\nVOHY\t2014-03-14 04:40\t78.4676\t17.4531\t87.80\t57.20\t35.53\t0.00\t0.00\t0.00\t30.12\tM\t3.73\tM\tNSC\tM\tM\tM\tM\tM\tM\tM\tM\tM\tM\tM\tM\tM\tM\t86.58\tVOHY
        140440Z 00000KT 6000 NSC 31/14 Q1020 NOSIG\nVOHY\t2014-03-14 05:40\t78.4676\t17.4531\t89.60\t57.20\t33.56\t80.00\t7.00\t0.00\t30.09\tM\t3.73\tM\tNSC\tM\tM\tM\tM\tM\tM\tM\tM\tM\tM\tM\tM\tM\tM\t88.28\tVOHY
        140540Z 08007KT 6000 NSC 32/14 Q1019 NOSIG\nVOHY\t2014-03-14 07:40\t78.4676\t17.4531\t93.20\t55.40\t28.10\t80.00\t10.00\t0.00\t30.00\tM\t3.73\tM\tNSC\tM\tM\tM\tM\tM\tM\tM\tM\tM\tM\tM\tM\tM\tM\t91.35\tVOHY
        140740Z 08010KT 6000 NSC 34/13 Q1016 NOSIG\nVOHY\t2014-03-14 08:40\t78.4676\t17.4531\t93.20\t55.40\t28.10\t130.00\t8.00\t0.00\t29.97\tM\t3.73\tM\tFEW\tM\tM\tM\t2500.00\tM\tM\tM\tM\tM\tM\tM\tM\tM\tM\t91.35\tVOHY
        140840Z 13008KT 6000 FEW025 34/13 Q1015 NOSIG\nVOHY\t2014-03-14 09:40\t78.4676\t17.4531\t95.00\t55.40\t26.58\t110.00\t8.00\t0.00\t29.94\tM\t3.73\tM\tFEW\tM\tM\tM\t2500.00\tM\tM\tM\tM\tM\tM\tM\tM\tM\tM\t93.22\tVOHY
        140940Z 11008KT 6000 FEW025 35/13 Q1014 NOSIG\nVOHY\t2014-03-14 10:40\t78.4676\t17.4531\t93.20\t53.60\t26.31\t90.00\t6.00\t0.00\t29.94\tM\t3.73\tM\tFEW\tM\tM\tM\t2500.00\tM\tM\tM\tM\tM\tM\tM\tM\tM\tM\t90.86\tVOHY
        141040Z 09006KT 6000 FEW025 34/12 Q1014 NOSIG\nVOHY\t2014-03-14 11:40\t78.4676\t17.4531\t93.20\t51.80\t24.63\t90.00\t3.00\t0.00\t29.94\tM\t3.73\tM\tFEW\tM\tM\tM\t2500.00\tM\tM\tM\tM\tM\tM\tM\tM\tM\tM\t90.45\tVOHY
        141140Z 09003KT 6000 FEW025 34/11 Q1014 NOSIG\nVOHY\t2014-03-14 13:40\t78.4676\t17.4531\t87.80\t57.20\t35.53\t0.00\t0.00\t0.00\t30.00\tM\t3.11\tM\tFEW\tM\tM\tM\t2000.00\tM\tM\tM\tHZ\tM\tM\tM\tM\tM\tM\t86.58\tVOHY
        141340Z 00000KT 5000 HZ FEW020 31/14 Q1016 NOSIG\nVOHY\t2014-03-14 14:40\t78.4676\t17.4531\t84.20\t55.40\t37.35\t0.00\t0.00\t0.00\t30.03\tM\t3.11\tM\tFEW\tM\tM\tM\t2000.00\tM\tM\tM\tHZ\tM\tM\tM\tM\tM\tM\t83.09\tVOHY
        141440Z 00000KT 5000 HZ FEW020 29/13 Q1017 NOSIG\nVOHY\t2014-03-14 15:40\t78.4676\t17.4531\t82.40\t55.40\t39.58\tM\t4.00\t0.00\t30.06\tM\t3.11\tM\tFEW\tM\tM\tM\t2000.00\tM\tM\tM\tHZ\tM\tM\tM\tM\tM\tM\t82.40\tVOHY
        141540Z VRB04KT 5000 HZ FEW020 28/13 Q1018 NOSIG\nVOHY\t2014-03-15 00:40\t78.4676\t17.4531\t68.00\t55.40\t64.04\t0.00\t0.00\t0.00\t30.03\tM\t1.86\tM\tNSC\tM\tM\tM\tM\tM\tM\tM\tHZ\tM\tM\tM\tM\tM\tM\t68.00\tVOHY
        150040Z 00000KT 3000 HZ NSC 20/13 Q1017 NOSIG\nVOHY\t2014-03-15 01:40\t78.4676\t17.4531\t69.80\t55.40\t60.21\t0.00\t0.00\t0.00\t30.06\tM\t1.86\tM\tNSC\tM\tM\tM\tM\tM\tM\tM\tHZ\tM\tM\tM\tM\tM\tM\t69.80\tVOHY
        150140Z 00000KT 3000 HZ NSC 21/13 Q1018 NOSIG\nVOHY\t2014-03-15 04:40\t78.4676\t17.4531\t93.20\t51.80\t24.63\t130.00\t6.00\t0.00\t30.15\tM\t3.11\tM\tNSC\tM\tM\tM\tM\tM\tM\tM\tHZ\tM\tM\tM\tM\tM\tM\t90.45\tVOHY
        150440Z 13006KT 5000 HZ NSC 34/11 Q1021 NOSIG\nVOHY\t2014-03-15 06:40\t78.4676\t17.4531\t96.80\t53.60\t23.55\t150.00\t3.00\t0.00\t30.09\tM\t3.73\tM\tNSC\tM\tM\tM\tM\tM\tM\tM\tM\tM\tM\tM\tM\tM\tM\t94.59\tVOHY
        150640Z 150003KT 6000 NSC 36/12 Q1019 NOSIG\nVOHY\t2014-03-15 07:40\t78.4676\t17.4531\t98.60\t53.60\t22.29\t80.00\t3.00\t0.00\t30.06\tM\t3.73\tM\tNSC\tM\tM\tM\tM\tM\tM\tM\tM\tM\tM\tM\tM\tM\tM\t96.51\tVOHY
        150740Z 08003KT 6000 NSC 37/12 Q1018 NOSIG\nVOHY\t2014-03-15 08:40\t78.4676\t17.4531\t98.60\t50.00\t19.52\t80.00\t6.00\t0.00\t30.03\tM\t3.73\tM\tNSC\tM\tM\tM\tM\tM\tM\tM\tM\tM\tM\tM\tM\tM\tM\t95.56\tVOHY
        150840Z 08006KT 6000 NSC 37/10 Q1017 NOSIG\nVOHY\t2014-03-15 09:40\t78.4676\t17.4531\t95.00\t50.00\t21.79\t90.00\t6.00\t0.00\t30.00\tM\t3.73\tM\tNSC\tM\tM\tM\tM\tM\tM\tM\tM\tM\tM\tM\tM\tM\tM\t91.89\tVOHY
        150940Z 09006KT 6000 NSC 35/10 Q1016 NOSIG\nVOHY\t2014-03-15 10:40\t78.4676\t17.4531\t95.00\t50.00\t21.79\t70.00\t4.00\t0.00\t30.00\tM\t3.73\tM\tNSC\tM\tM\tM\tM\tM\tM\tM\tM\tM\tM\tM\tM\tM\tM\t91.89\tVOHY
        151040Z 07004KT 6000 NSC 35/10 Q1016 NOSIG\nVOHY\t2014-03-15 11:40\t78.4676\t17.4531\t93.20\t50.00\t23.04\t70.00\t3.00\t0.00\t30.00\tM\t3.73\tM\tNSC\tM\tM\tM\tM\tM\tM\tM\tM\tM\tM\tM\tM\tM\tM\t90.10\tVOHY
        151140Z 07003KT 6000 NSC 34/10 Q1016 NOSIG\nVOHY\t2014-03-15 12:40\t78.4676\t17.4531\t89.60\t50.00\t25.79\t0.00\t0.00\t0.00\t30.03\tM\t3.73\tM\tFEW\tSCT\tM\tM\t2000.00\t2500.00\tM\tM\tM\tM\tM\tM\tM\tM\tM\t86.70\tVOHY
        151240Z 00000KT 6000 FEW020 SCT025 32/10 Q1017 TEMPO 5000 HZ\nVOHY\t2014-03-15
        13:40\t78.4676\t17.4531\t87.80\t51.80\t29.18\t100.00\t4.00\t0.00\t30.06\tM\t3.73\tM\tFEW\tM\tM\tM\t2000.00\tM\tM\tM\tM\tM\tM\tM\tM\tM\tM\t85.39\tVOHY
        151340Z 10004KT 6000 FEW020 31/11 Q1018\nVOHY\t2014-03-15 14:40\t78.4676\t17.4531\t86.00\t51.80\t30.90\t100.00\t6.00\t0.00\t30.09\tM\t3.73\tM\tFEW\tM\tM\tM\t2000.00\tM\tM\tM\tM\tM\tM\tM\tM\tM\tM\t83.87\tVOHY
        151440Z 10006KT 6000 FEW020 30/11 Q1019\nVOHY\t2014-03-15 15:40\t78.4676\t17.4531\t84.20\t51.80\t32.73\t0.00\t0.00\t0.00\t30.09\tM\t3.73\tM\tNSC\tM\tM\tM\tM\tM\tM\tM\tM\tM\tM\tM\tM\tM\tM\t82.48\tVOHY
        151540Z 00000KT 6000 NSC 29/11 Q1019\nVOHY\t2014-03-15 19:40\t78.4676\t17.4531\t73.40\t57.20\t56.88\t0.00\t0.00\t0.00\t30.09\tM\t3.11\tM\tSCT\tM\tM\tM\t2000.00\tM\tM\tM\tHZ\tM\tM\tM\tM\tM\tM\t73.40\tVOHY
        151940Z 00000KT 5000 HZ SCT020 23/14 Q1019 NOSIG\nVOHY\t2014-03-16 00:40\t78.4676\t17.4531\t69.80\t57.20\t64.26\t0.00\t0.00\t0.00\t30.09\tM\t1.24\tM\tNSC\tM\tM\tM\tM\tM\tM\tM\tBR\tM\tM\tM\tM\tM\tM\t69.80\tVOHY
        160040Z 00000KT 2000 BR NSC 21/14 Q1019 NOSIG\nVOHY\t2014-03-16 02:40\t78.4676\t17.4531\t80.60\t59.00\t47.79\t0.00\t0.00\t0.00\t30.15\tM\t1.86\tM\tNSC\tM\tM\tM\tM\tM\tM\tM\tHZ\tM\tM\tM\tM\tM\tM\t81.11\tVOHY
        160240Z 00000KT 3000 HZ NSC 27/15 Q1021 NOSIG\nVOHY\t2014-03-16 04:40\t78.4676\t17.4531\t91.40\t59.00\t33.84\t0.00\t0.00\t0.00\t30.18\tM\t3.11\tM\tNSC\tM\tM\tM\tM\tM\tM\tM\tHZ\tM\tM\tM\tM\tM\tM\t91.40\tVOHY
        160440Z 00000KT 5000 HZ NSC 33/15 Q1022 NOSIG\nVOHY\t2014-03-16 06:40\t78.4676\t17.4531\t95.00\t53.60\t24.89\t80.00\t5.00\t0.00\t30.12\tM\t3.73\tM\tFEW\tM\tM\tM\t2000.00\tM\tM\tM\tM\tM\tM\tM\tM\tM\tM\t92.71\tVOHY
        160640Z 08005KT 6000 FEW020 35/12 Q1020 NOSIG\nVOHY\t2014-03-16 07:40\t78.4676\t17.4531\t96.80\t55.40\t25.15\t180.00\t3.00\t0.00\t30.09\tM\t3.73\tM\tFEW\tM\tM\tM\t2000.00\tM\tM\tM\tM\tM\tM\tM\tM\tM\tM\t95.14\tVOHY
        160740Z 18003KT 6000 FEW020 36/13 Q1019 NOSIG\nVOHY\t2014-03-16 08:40\t78.4676\t17.4531\t96.80\t51.80\t22.04\t130.00\t3.00\t0.00\t30.03\tM\t3.73\tM\tFEW\tSCT\tM\tM\t2000.00\t2500.00\tM\tM\tM\tM\tM\tM\tM\tM\tM\t94.12\tVOHY
        160840Z 13003KT 6000 FEW020 SCT025 36/11 Q1017 NOSIG\nVOHY\t2014-03-16 09:40\t78.4676\t17.4531\t96.80\t53.60\t23.55\t70.00\t6.00\t0.00\t30.03\tM\t3.73\tM\tFEW\tSCT\tM\tM\t2000.00\t2500.00\tM\tM\tM\tM\tM\tM\tM\tM\tM\t94.59\tVOHY
        160940Z 07006KT 6000 FEW020 SCT025 36/12 Q1017 NOSIG\nVOHY\t2014-03-16 11:40\t78.4676\t17.4531\t95.00\t51.80\t23.30\t100.00\t7.00\t0.00\t30.00\tM\t3.73\tM\tFEW\tSCT\tM\tM\t2000.00\t2500.00\tM\tM\tM\tM\tM\tM\tM\tM\tM\t92.26\tVOHY
        161140Z 10007KT 6000 FEW020 SCT025 35/11 Q1016 NOSIG\nVOHY\t2014-03-16 12:40\t78.4676\t17.4531\t91.40\t51.80\t26.05\t90.00\t4.00\t0.00\t30.03\tM\t3.73\tM\tFEW\tSCT\tM\tM\t2000.00\t2500.00\tM\tM\tM\tM\tM\tM\tM\tM\tM\t88.69\tVOHY
        161240Z 09004KT 6000 FEW020 SCT025 33/11 Q1017 NOSIG\nVOHY\t2014-03-16 14:40\t78.4676\t17.4531\t86.00\t51.80\t30.90\t0.00\t0.00\t0.00\t30.06\tM\t3.11\tM\tFEW\tM\tM\tM\t2000.00\tM\tM\tM\tM\tM\tM\tM\tM\tM\tM\t83.87\tVOHY
        161440Z 00000KT 5000 FEW020 30/11 Q1018 NOSIG\nVOHY\t2014-03-16 15:40\t78.4676\t17.4531\t84.20\t53.60\t34.97\t80.00\t3.00\t0.00\t30.09\tM\t3.11\tM\tNSC\tM\tM\tM\tM\tM\tM\tM\tM\tM\tM\tM\tM\tM\tM\t82.76\tVOHY
        161540Z 08003KT 5000 NSC 29/12 Q1019 NOSIG\nVOHY\t2014-03-16 16:40\t78.4676\t17.4531\t80.60\t55.40\t41.97\t0.00\t0.00\t0.00\t30.09\tM\t3.11\tM\tNSC\tM\tM\tM\tM\tM\tM\tM\tHZ\tM\tM\tM\tM\tM\tM\t80.53\tVOHY
        161640Z 00000KT 5000 HZ NSC 27/13 Q1019 NOSIG\nVOHY\t2014-03-16 17:40\t78.4676\t17.4531\t78.80\t55.40\t44.52\t0.00\t0.00\t0.00\t30.09\tM\t3.11\tM\tNSC\tM\tM\tM\tM\tM\tM\tM\tHZ\tM\tM\tM\tM\tM\tM\t78.80\tVOHY
        161740Z 00000KT 5000 HZ NSC 26/13 Q1019 NOSIG\nVOHY\t2014-03-16 18:40\t78.4676\t17.4531\t75.20\t57.20\t53.55\t0.00\t0.00\t0.00\t30.06\tM\t3.11\tM\tNSC\tM\tM\tM\tM\tM\tM\tM\tHZ\tM\tM\tM\tM\tM\tM\t75.20\tVOHY
        161840Z 00000KT 5000 HZ NSC 24/14 Q1018 NOSIG\nVOHY\t2014-03-16 19:40\t78.4676\t17.4531\t73.40\t57.20\t56.88\t0.00\t0.00\t0.00\t30.06\tM\t3.11\tM\tNSC\tM\tM\tM\tM\tM\tM\tM\tHZ\tM\tM\tM\tM\tM\tM\t73.40\tVOHY
        161940Z 00000KT 5000 HZ NSC 23/14 Q1018 NOSIG\nVOHY\t2014-03-16 20:40\t78.4676\t17.4531\t71.60\t57.20\t60.44\t0.00\t0.00\t0.00\t30.03\tM\t3.11\tM\tNSC\tM\tM\tM\tM\tM\tM\tM\tHZ\tM\tM\tM\tM\tM\tM\t71.60\tVOHY
        162040Z 00000KT 5000 HZ NSC 22/14 Q1017 NOSIG\nVOHY\t2014-03-16 23:40\t78.4676\t17.4531\t68.00\t59.00\t72.92\t0.00\t0.00\t0.00\t30.03\tM\t3.11\tM\tNSC\tM\tM\tM\tM\tM\tM\tM\tHZ\tM\tM\tM\tM\tM\tM\t68.00\tVOHY
        162340Z 00000KT 5000 HZ NSC 20/15 Q1017 NOSIG\nVOHY\t2014-03-17 01:40\t78.4676\t17.4531\t69.80\t59.00\t68.55\t0.00\t0.00\t0.00\t30.06\tM\t1.86\tM\tNSC\tM\tM\tM\tM\tM\tM\tM\tHZ\tM\tM\tM\tM\tM\tM\t69.80\tVOHY
        170140Z 00000KT 3000 HZ NSC 21/15 Q1018 NOSIG\nVOHY\t2014-03-17 02:40\t78.4676\t17.4531\t82.40\t60.80\t48.05\t0.00\t0.00\t0.00\t30.09\tM\t1.86\tM\tNSC\tM\tM\tM\tM\tM\tM\tM\tHZ\tM\tM\tM\tM\tM\tM\t82.90\tVOHY
        170240Z 00000KT 3000 HZ NSC 28/16 Q1019 BECMG 4000\nVOHY\t2014-03-17 06:40\t78.4676\t17.4531\t98.60\t50.00\t19.52\t140.00\t3.00\t0.00\t30.06\tM\t3.73\tM\tFEW\tFEW\tM\tM\t2000.00\t20000.00\tM\tM\tM\tM\tM\tM\tM\tM\tM\t95.56\tVOHY
        170640Z 14003KT 6000 FEW020 FEW200 37/10 Q1018 NOSIG\nVOHY\t2014-03-17 07:40\t78.4676\t17.4531\t98.60\t51.80\t20.87\t0.00\t0.00\t0.00\t30.03\tM\t3.73\tM\tFEW\tFEW\tFEW\tM\t2000.00\t2500.00\t20000.00\tM\tM\tM\tM\tM\tM\tM\tM\t96.00\tVOHY
        170740Z 00000KT 6000 FEW020 FEW025 FEW200 37/11 Q1017 NOSIG\nVOHY\t2014-03-17
        08:40\t78.4676\t17.4531\t98.60\t50.00\t19.52\t120.00\t3.00\t0.00\t30.00\tM\t3.73\tM\tSCT\tM\tM\tM\t2000.00\tM\tM\tM\tM\tM\tM\tM\tM\tM\tM\t95.56\tVOHY
        170840Z 12003KT 6000 SCT020 37/10 Q1016 NOSIG\nVOHY\t2014-03-17 10:40\t78.4676\t17.4531\t98.60\t48.20\t18.25\t260.00\t3.00\t0.00\t29.97\tM\t3.73\tM\tSCT\tM\tM\tM\t2000.00\tM\tM\tM\tM\tM\tM\tM\tM\tM\tM\t95.17\tVOHY
        171040Z 26003KT 6000 SCT020 37/09 Q1015 NOSIG\nVOHY\t2014-03-17 11:40\t78.4676\t17.4531\t95.00\t50.00\t21.79\t140.00\t3.00\t0.00\t29.97\tM\t3.73\tM\tSCT\tM\tM\tM\t2000.00\tM\tM\tM\tM\tM\tM\tM\tM\tM\tM\t91.89\tVOHY
        171140Z 14003KT 6000 SCT020 35/10 Q1015 NOSIG\nVOHY\t2014-03-17 12:40\t78.4676\t17.4531\t91.40\t50.00\t24.37\t120.00\t2.00\t0.00\t29.97\tM\t3.73\tM\tFEW\tM\tM\tM\t2000.00\tM\tM\tM\tM\tM\tM\tM\tM\tM\tM\t88.36\tVOHY
        171240Z 12002KT 6000 FEW020 33/10 Q1015 NOSIG\nVOHY\t2014-03-17 13:40\t78.4676\t17.4531\t87.80\t51.80\t29.18\t120.00\t2.00\t0.00\t30.00\tM\t3.73\tM\tFEW\tM\tM\tM\t2000.00\tM\tM\tM\tM\tM\tM\tM\tM\tM\tM\t85.39\tVOHY
        171340Z 12002KT 6000 FEW020 31/11 Q1016 TEMPO 5000 HZ\nVOHY\t2014-03-17 15:40\t78.4676\t17.4531\t86.00\t51.80\t30.90\t0.00\t0.00\t0.00\t30.06\tM\t3.11\tM\tFEW\tM\tM\tM\t2000.00\tM\tM\tM\tHZ\tM\tM\tM\tM\tM\tM\t83.87\tVOHY
        171540Z 00000KT 5000 HZ FEW020 30/11 Q1018 NOSIG\nVOHY\t2014-03-18 00:40\t78.4676\t17.4531\t71.60\t57.20\t60.44\t0.00\t0.00\t0.00\t30.03\tM\t1.86\tM\tNSC\tM\tM\tM\tM\tM\tM\tM\tHZ\tM\tM\tM\tM\tM\tM\t71.60\tVOHY
        180040Z 00000KT 3000 HZ NSC 22/14 Q1017 NOSIG\nVOHY\t2014-03-18 05:40\t78.4676\t17.4531\t98.60\t53.60\t22.29\t170.00\t4.00\t0.00\t30.09\tM\t3.73\tM\tNSC\tM\tM\tM\tM\tM\tM\tM\tM\tM\tM\tM\tM\tM\tM\t96.51\tVOHY
        180540Z 17004KT 6000 NSC 37/12 Q1019 NOSIG\nVOHY\t2014-03-18 06:40\t78.4676\t17.4531\t100.40\t48.20\t17.28\t90.00\t6.00\t0.00\t30.06\tM\t3.73\tM\tNSC\tM\tM\tM\tM\tM\tM\tM\tM\tM\tM\tM\tM\tM\tM\t97.00\tVOHY
        180640Z 09006KT 6000 NSC 38/09 Q1018 NOSIG\nVOHY\t2014-03-18 07:40\t78.4676\t17.4531\t100.40\t46.40\t16.15\t0.00\t0.00\t0.00\t30.03\tM\t3.73\tM\tNSC\tM\tM\tM\tM\tM\tM\tM\tM\tM\tM\tM\tM\tM\tM\t96.63\tVOHY
        180740Z 00000KT 6000 NSC 38/08 Q1017 NOSIG\nVOHY\t2014-03-18 08:40\t78.4676\t17.4531\t98.60\t42.80\t14.87\t0.00\t0.00\t0.00\t30.00\tM\t3.73\tM\tFEW\tM\tM\tM\t2000.00\tM\tM\tM\tM\tM\tM\tM\tM\tM\tM\t94.30\tVOHY
        180840Z 00000KT 6000 FEW020 37/06 Q1016 NOSIG\nVOHY\t2014-03-18 09:40\t78.4676\t17.4531\t100.40\t44.60\t15.08\t0.00\t0.00\t0.00\t29.97\tM\t3.73\tM\tFEW\tM\tM\tM\t2000.00\tM\tM\tM\tM\tM\tM\tM\tM\tM\tM\t96.31\tVOHY
        180940Z 00000KT 6000 FEW020 38/07 Q1015 NOSIG\nVOHY\t2014-03-18 10:40\t78.4676\t17.4531\t98.60\t42.80\t14.87\t90.00\t6.00\t0.00\t29.94\tM\t3.73\tM\tFEW\tM\tM\tM\t2000.00\tM\tM\tM\tM\tM\tM\tM\tM\tM\tM\t94.30\tVOHY
        181040Z 09006KT 6000 FEW020 37/06 Q1014 NOSIG\nVOHY\t2014-03-18 11:40\t78.4676\t17.4531\t96.80\t42.80\t15.71\t70.00\t6.00\t0.00\t29.94\tM\t3.73\tM\tNSC\tM\tM\tM\tM\tM\tM\tM\tM\tM\tM\tM\tM\tM\tM\t92.57\tVOHY
        181140Z 07006KT 6000 NSC 36/06 Q1014 NOSIG\nVOHY\t2014-03-18 12:40\t78.4676\t17.4531\t93.20\t42.80\t17.55\t90.00\t3.00\t0.00\t29.97\tM\t3.73\tM\tFEW\tM\tM\tM\t2000.00\tM\tM\tM\tM\tM\tM\tM\tM\tM\tM\t89.17\tVOHY
        181240Z 09003KT 6000 FEW020 34/06 Q1015 NOSIG\nVOHY\t2014-03-18 13:40\t78.4676\t17.4531\t89.60\t48.20\t24.11\t110.00\t3.00\t0.00\t29.97\tM\t3.73\tM\tNSC\tM\tM\tM\tM\tM\tM\tM\tM\tM\tM\tM\tM\tM\tM\t86.44\tVOHY
        181340Z 11003KT 6000 NSC 32/09 Q1015 NOSIG\nVOHY\t2014-03-18 14:40\t78.4676\t17.4531\t87.80\t50.00\t27.29\t100.00\t3.00\t0.00\t30.00\tM\t3.73\tM\tNSC\tM\tM\tM\tM\tM\tM\tM\tM\tM\tM\tM\tM\tM\tM\t85.11\tVOHY
        181440Z 10003KT 6000 NSC 31/10 Q1016 NOSIG\nVOHY\t2014-03-18 15:40\t78.4676\t17.4531\t86.00\t50.00\t28.90\t90.00\t4.00\t0.00\t30.03\tM\t3.73\tM\tNSC\tM\tM\tM\tM\tM\tM\tM\tM\tM\tM\tM\tM\tM\tM\t83.62\tVOHY
        181540Z 09004KT 6000 NSC 30/10 Q1017 NOSIG\nVOHY\t2014-03-19 00:40\t78.4676\t17.4531\t68.00\t53.60\t59.97\t0.00\t0.00\t0.00\t30.00\tM\t1.86\tM\tFEW\tSCT\tM\tM\t2000.00\t10000.00\tM\tM\tHZ\tM\tM\tM\tM\tM\tM\t68.00\tVOHY
        190040Z 00000KT 3000 HZ FEW020 SCT100 20/12 Q1016 NOSIG\nVOHY\t2014-03-19
        01:40\t78.4676\t17.4531\t73.40\t50.00\t43.69\t0.00\t0.00\t0.00\t30.00\tM\t1.86\tM\tFEW\tSCT\tM\tM\t2000.00\t10000.00\tM\tM\tHZ\tM\tM\tM\tM\tM\tM\t73.40\tVOHY
        190140Z 00000KT 3000 HZ FEW020 SCT100 23/10 Q1016 NOSIG\nVOHY\t2014-03-19
        03:40\t78.4676\t17.4531\t89.60\t50.00\t25.79\t0.00\t0.00\t0.00\t30.06\tM\t2.49\tM\tFEW\tM\tM\tM\t2000.00\tM\tM\tM\tHZ\tM\tM\tM\tM\tM\tM\t86.70\tVOHY
        190340Z 00000KT 4000 HZ FEW020 32/10 Q1018 NOSIG\nVOHY\t2014-03-19 05:40\t78.4676\t17.4531\t98.60\t53.60\t22.29\t0.00\t0.00\t0.00\t30.06\tM\t3.11\tM\tNSC\tM\tM\tM\tM\tM\tM\tM\tHZ\tM\tM\tM\tM\tM\tM\t96.51\tVOHY
        190540Z 00000KT 5000 HZ NSC 37/12 Q1018 NOSIG\nVOHY\t2014-03-19 07:40\t78.4676\t17.4531\t100.40\t50.00\t18.48\t130.00\t7.00\t0.00\t30.00\tM\t3.73\tM\tNSC\tM\tM\tM\tM\tM\tM\tM\tM\tM\tM\tM\tM\tM\tM\t97.42\tVOHY
        190740Z 13007KT 6000 NSC 38/10 Q1016 NOSIG\nVOHY\t2014-03-19 08:40\t78.4676\t17.4531\t100.40\t50.00\t18.48\t140.00\t5.00\t0.00\t29.97\tM\t3.73\tM\tFEW\tSCT\tM\tM\t2000.00\t2500.00\tM\tM\tM\tM\tM\tM\tM\tM\tM\t97.42\tVOHY
        190840Z 14005KT 6000 FEW020 SCT025 38/10 Q1015 NOSIG\nVOHY\t2014-03-19 09:40\t78.4676\t17.4531\t98.60\t48.20\t18.25\t70.00\t3.00\t0.00\t29.94\tM\t3.73\tM\tSCT\tSCT\tM\tM\t2000.00\t2500.00\tM\tM\tM\tM\tM\tM\tM\tM\tM\t95.17\tVOHY
        190940Z 07003KT 6000 SCT020 SCT025 37/09 Q1014 NOSIG\nVOHY\t2014-03-19 10:40\t78.4676\t17.4531\t98.60\t48.20\t18.25\t110.00\t4.00\t0.00\t29.94\tM\t3.73\tM\tSCT\tSCT\tM\tM\t2000.00\t2500.00\tM\tM\tM\tM\tM\tM\tM\tM\tM\t95.17\tVOHY
        191040Z 11004KT 6000 SCT020 SCT025 37/09 Q1014 NOSIG\nVOHY\t2014-03-19 11:40\t78.4676\t17.4531\t96.80\t48.20\t19.28\t100.00\t5.00\t0.00\t29.91\tM\t3.73\tM\tSCT\tSCT\tM\tM\t2000.00\t2500.00\tM\tM\tM\tM\tM\tM\tM\tM\tM\t93.36\tVOHY
        191140Z 10005KT 6000 SCT020 SCT025 36/09 Q1013 NOSIG\nVOHY\t2014-03-19 12:40\t78.4676\t17.4531\t93.20\t48.20\t21.54\t100.00\t4.00\t0.00\t29.94\tM\t3.73\tM\tFEW\tSCT\tM\tM\t2000.00\t2500.00\tM\tM\tM\tM\tM\tM\tM\tM\tM\t89.80\tVOHY
        191240Z 10004KT 6000 FEW020 SCT025 34/09 Q1014 NOSIG\nVOHY\t2014-03-19 13:40\t78.4676\t17.4531\t91.40\t44.60\t19.89\t90.00\t3.00\t0.00\t29.94\tM\t3.73\tM\tSCT\tM\tM\tM\t2000.00\tM\tM\tM\tM\tM\tM\tM\tM\tM\tM\t87.68\tVOHY
        191340Z 09003KT 6000 SCT020 33/07 Q1014 NOSIG\nVOHY\t2014-03-19 14:40\t78.4676\t17.4531\t89.60\t48.20\t24.11\t100.00\t3.00\t0.00\t29.97\tM\t3.73\tM\tSCT\tM\tM\tM\t2000.00\tM\tM\tM\tM\tM\tM\tM\tM\tM\tM\t86.44\tVOHY
        191440Z 100003KT 6000 SCT020 32/09 Q1015 NOSIG\nVOHY\t2014-03-19 15:40\t78.4676\t17.4531\t86.00\t50.00\t28.90\t0.00\t0.00\t0.00\t29.97\tM\t3.73\tM\tFEW\tM\tM\tM\t2000.00\tM\tM\tM\tM\tM\tM\tM\tM\tM\tM\t83.62\tVOHY
        191540Z 00000KT 6000 FEW020 30/10 Q1015 NOSIG\nVOHY\t2014-03-20 00:40\t78.4676\t17.4531\t69.80\t55.40\t60.21\t0.00\t0.00\t0.00\t29.94\tM\t2.49\tM\tFEW\tSCT\tM\tM\t2000.00\t10000.00\tM\tM\tHZ\tM\tM\tM\tM\tM\tM\t69.80\tVOHY
        200040Z 00000KT 4000 HZ FEW020 SCT100 21/13 Q1014 NOSIG\nVOHY\t2014-03-20
        01:40\t78.4676\t17.4531\t71.60\t57.20\t60.44\t0.00\t0.00\t0.00\t29.97\tM\t2.49\tM\tFEW\tSCT\tM\tM\t2000.00\t10000.00\tM\tM\tHZ\tM\tM\tM\tM\tM\tM\t71.60\tVOHY
        200140Z 00000KT 4000 HZ FEW020 SCT100 22/14 Q1015 NOSIG\nVOHY\t2014-03-20
        04:40\t78.4676\t17.4531\t95.00\t53.60\t24.89\t210.00\t3.00\t0.00\t30.03\tM\t3.11\tM\tFEW\tM\tM\tM\t2000.00\tM\tM\tM\tHZ\tM\tM\tM\tM\tM\tM\t92.71\tVOHY
        200440Z 21003KT 5000 HZ FEW020 35/12 Q1017 NOSIG\nVOHY\t2014-03-20 06:40\t78.4676\t17.4531\t102.20\t50.00\t17.51\t190.00\t3.00\t0.00\t29.97\tM\t3.73\tM\tFEW\tM\tM\tM\t2000.00\tM\tM\tM\tM\tM\tM\tM\tM\tM\tM\t99.28\tVOHY
        200640Z 19003KT 6000 FEW020 39/10 Q1015 NOSIG\nVOHY\t2014-03-20 07:40\t78.4676\t17.4531\t100.40\t46.40\t16.15\t230.00\t6.00\t0.00\t29.94\tM\t3.73\tM\tSCT\tM\tM\tM\t2000.00\tM\tM\tM\tM\tM\tM\tM\tM\tM\tM\t96.63\tVOHY
        200740Z 23006KT 6000 SCT020 38/08 Q1014 NOSIG\nVOHY\t2014-03-20 08:40\t78.4676\t17.4531\t104.00\t44.60\t13.54\t300.00\t4.00\t0.00\t29.91\tM\t3.73\tM\tSCT\tM\tM\tM\t2000.00\tM\tM\tM\tM\tM\tM\tM\tM\tM\tM\t99.82\tVOHY
        200840Z 30004KT 6000 SCT020 40/07 Q1013 NOSIG\nVOHY\t2014-03-20 09:40\t78.4676\t17.4531\t100.40\t46.40\t16.15\t360.00\t3.00\t0.00\t29.88\tM\t3.73\tM\tSCT\tBKN\tM\tM\t2000.00\t20000.00\tM\tM\tM\tM\tM\tM\tM\tM\tM\t96.63\tVOHY
        200940Z 36003KT 6000 SCT020 BKN200 38/08 Q1012 NOSIG\nVOHY\t2014-03-20 10:40\t78.4676\t17.4531\t100.40\t46.40\t16.15\t300.00\t6.00\t0.00\t29.88\tM\t3.73\tM\tSCT\tBKN\tM\tM\t2000.00\t20000.00\tM\tM\tM\tM\tM\tM\tM\tM\tM\t96.63\tVOHY
        201040Z 30006KT 6000 SCT020 BKN200 38/08 Q1012 NOSIG\nVOHY\t2014-03-20 11:40\t78.4676\t17.4531\t98.60\t46.40\t17.05\t40.00\t3.00\t0.00\t29.88\tM\t3.73\tM\tSCT\tBKN\tM\tM\t2000.00\t20000.00\tM\tM\tM\tM\tM\tM\tM\tM\tM\t94.84\tVOHY
        201140Z 04003KT 6000 SCT020 BKN200 37/08 Q1012 NOSIG\nVOHY\t2014-03-20 12:40\t78.4676\t17.4531\t95.00\t44.60\t17.78\t340.00\t4.00\t0.00\t29.88\tM\t3.73\tM\tFEW\tM\tM\tM\t2000.00\tM\tM\tM\tM\tM\tM\tM\tM\tM\tM\t91.06\tVOHY
        201240Z 34004KT 6000 FEW020 35/07 Q1012 NOSIG\nVOHY\t2014-03-20 13:40\t78.4676\t17.4531\t91.40\t48.20\t22.78\t0.00\t0.00\t0.00\t29.91\tM\t3.73\tM\tFEW\tM\tM\tM\t2000.00\tM\tM\tM\tM\tM\tM\tM\tM\tM\tM\t88.09\tVOHY
        201340Z 00000KT 6000 FEW020 33/09 Q1013 NOSIG\nVOHY\t2014-03-20 14:40\t78.4676\t17.4531\t89.60\t51.80\t27.56\t110.00\t3.00\t0.00\t29.94\tM\t3.73\tM\tNSC\tM\tM\tM\tM\tM\tM\tM\tM\tM\tM\tM\tM\tM\tM\t87.00\tVOHY
        201440Z 11003KT 6000 NSC 32/11 Q1014 NOSIG\nVOHY\t2014-03-21 00:40\t78.4676\t17.4531\t69.80\t57.20\t64.26\t0.00\t0.00\t0.00\t29.91\tM\t1.86\tM\tNSC\tM\tM\tM\tM\tM\tM\tM\tHZ\tM\tM\tM\tM\tM\tM\t69.80\tVOHY
        210040Z 00000KT 3000 HZ NSC 21/14 Q1013 NOSIG\nVOHY\t2014-03-21 01:40\t78.4676\t17.4531\t71.60\t59.00\t64.48\t0.00\t0.00\t0.00\t29.94\tM\t1.86\tM\tSCT\tM\tM\tM\t10000.00\tM\tM\tM\tHZ\tM\tM\tM\tM\tM\tM\t71.60\tVOHY
        210140Z 00000KT 3000 HZ SCT100 22/15 Q1014 NOSIG\nVOHY\t2014-03-21 04:40\t78.4676\t17.4531\t95.00\t50.00\t21.79\t270.00\t10.00\t0.00\t29.97\tM\t3.73\tM\tNSC\tM\tM\tM\tM\tM\tM\tM\tM\tM\tM\tM\tM\tM\tM\t91.89\tVOHY
        210440Z 27010KT 6000 NSC 35/10 Q1015 NOSIG\nVOHY\t2014-03-21 05:40\t78.4676\t17.4531\t95.00\t50.00\t21.79\t280.00\t10.00\t0.00\t29.97\tM\t3.73\tM\tNSC\tM\tM\tM\tM\tM\tM\tM\tM\tM\tM\tM\tM\tM\tM\t91.89\tVOHY
        210540Z 28010KT 6000 NSC 35/10 Q1015 NOSIG\nVOHY\t2014-03-21 06:40\t78.4676\t17.4531\t98.60\t46.40\t17.05\t270.00\t6.00\t0.00\t29.94\tM\t3.73\tM\tNSC\tM\tM\tM\tM\tM\tM\tM\tM\tM\tM\tM\tM\tM\tM\t94.84\tVOHY
        210640Z 27006KT 6000 NSC 37/08 Q1014 NOSIG\nVOHY\t2014-03-21 07:40\t78.4676\t17.4531\t102.20\t46.40\t15.30\t250.00\t4.00\t0.00\t29.91\tM\t3.73\tM\tNSC\tM\tM\tM\tM\tM\tM\tM\tM\tM\tM\tM\tM\tM\tM\t98.43\tVOHY
        210740Z 25004KT 6000 NSC 39/08 Q1013 NOSIG\nVOHY\t2014-03-21 08:40\t78.4676\t17.4531\t102.20\t46.40\t15.30\t170.00\t3.00\t0.00\t29.85\tM\t3.73\tM\tFEW\tM\tM\tM\t2000.00\tM\tM\tM\tM\tM\tM\tM\tM\tM\tM\t98.43\tVOHY
        210840Z 17003KT 6000 FEW020 39/08 Q1011 NOSIG\nVOHY\t2014-03-21 09:40\t78.4676\t17.4531\t102.20\t46.40\t15.30\t0.00\t0.00\t0.00\t29.83\tM\t3.73\tM\tSCT\tM\tM\tM\t2000.00\tM\tM\tM\tM\tM\tM\tM\tM\tM\tM\t98.43\tVOHY
        210940Z 00000KT 6000 SCT020 39/08 Q1010 NOSIG\nVOHY\t2014-03-21 10:40\t78.4676\t17.4531\t102.20\t48.20\t16.37\t120.00\t3.00\t0.00\t29.83\tM\t3.73\tM\tSCT\tM\tM\tM\t2000.00\tM\tM\tM\tM\tM\tM\tM\tM\tM\tM\t98.83\tVOHY
        211040Z 12003KT 6000 SCT020 39/09 Q1010 NOSIG\nVOHY\t2014-03-21 11:40\t78.4676\t17.4531\t100.40\t46.40\t16.15\t0.00\t0.00\t0.00\t29.83\tM\t3.73\tM\tSCT\tSCT\tM\tM\t2000.00\t2500.00\tM\tM\tM\tM\tM\tM\tM\tM\tM\t96.63\tVOHY
        211140Z 00000KT 6000 SCT020 SCT025 38/08 Q1010 NOSIG\nVOHY\t2014-03-21 13:40\t78.4676\t17.4531\t93.20\t48.20\t21.54\t60.00\t3.00\t0.00\t29.85\tM\t3.11\tM\tSCT\tSCT\tM\tM\t2000.00\t2500.00\tM\tM\tHZ\tM\tM\tM\tM\tM\tM\t89.80\tVOHY
        211340Z 06003KT 5000 HZ SCT020 SCT025 34/09 Q1011 NOSIG\nVOHY\t2014-03-21
        14:40\t78.4676\t17.4531\t89.60\t53.60\t29.45\t110.00\t6.00\t0.00\t29.85\tM\t3.11\tM\tFEW\tSCT\tM\tM\t2000.00\t2500.00\tM\tM\tHZ\tM\tM\tM\tM\tM\tM\t87.36\tVOHY
        211440Z 11006KT 5000 HZ FEW020 SCT025 32/12 Q1011 NOSIG\nVOHY\t2014-03-21
        15:40\t78.4676\t17.4531\t89.60\t55.40\t31.45\t160.00\t5.00\t0.00\t29.88\tM\t3.11\tM\tFEW\tSCT\tM\tM\t2000.00\t2500.00\tM\tM\tHZ\tM\tM\tM\tM\tM\tM\t87.78\tVOHY
        211540Z 16005KT 5000 HZ FEW020 SCT025 32/13 Q1012 NOSIG\nVOHY\t2014-03-22
        00:40\t78.4676\t17.4531\t75.20\t59.00\t57.12\t0.00\t0.00\t0.00\t29.85\tM\t2.49\tM\tFEW\tSCT\tM\tM\t2000.00\t10000.00\tM\tM\tHZ\tM\tM\tM\tM\tM\tM\t75.20\tVOHY
        220040Z 00000KT 4000 HZ FEW020 SCT100 24/15 Q1011 NOSIG\nVOHY\t2014-03-22
        01:40\t78.4676\t17.4531\t78.80\t57.20\t47.52\t0.00\t0.00\t0.00\t29.88\tM\t2.49\tM\tFEW\tSCT\tM\tM\t2000.00\t10000.00\tM\tM\tHZ\tM\tM\tM\tM\tM\tM\t78.80\tVOHY
        220140Z 00000KT 4000 HZ FEW020 SCT100 26/14 Q1012 NOSIG\nVOHY\t2014-03-22
        02:40\t78.4676\t17.4531\t80.60\t59.00\t47.79\t0.00\t0.00\t0.00\t29.91\tM\t2.49\tM\tFEW\tSCT\tM\tM\t2000.00\t10000.00\tM\tM\tHZ\tM\tM\tM\tM\tM\tM\t81.11\tVOHY
        220240Z 00000KT 4000 HZ FEW020 SCT100 27/15 Q1013 NOSIG\nVOHY\t2014-03-22
        03:40\t78.4676\t17.4531\t87.80\t55.40\t33.29\t330.00\t3.00\t0.00\t29.94\tM\t2.49\tM\tFEW\tM\tM\tM\t2000.00\tM\tM\tM\tHZ\tM\tM\tM\tM\tM\tM\t86.11\tVOHY
        220340Z 33003KT 4000 HZ FEW020 31/13 Q1014 NOSIG\nVOHY\t2014-03-22 07:40\t78.4676\t17.4531\t100.40\t48.20\t17.28\t290.00\t4.00\t0.00\t29.85\tM\t3.73\tM\tNSC\tM\tM\tM\tM\tM\tM\tM\tM\tM\tM\tM\tM\tM\tM\t97.00\tVOHY
        220740Z 29004KT 6000 NSC 38/09 Q1011 NOSIG\nVOHY\t2014-03-22 08:40\t78.4676\t17.4531\t102.20\t48.20\t16.37\t50.00\t2.00\t0.00\t29.83\tM\t3.73\tM\tFEW\tM\tM\tM\t2000.00\tM\tM\tM\tM\tM\tM\tM\tM\tM\tM\t98.83\tVOHY
        220840Z 05002KT 6000 FEW020 39/09 Q1010 NOSIG\nVOHY\t2014-03-22 09:40\t78.4676\t17.4531\t100.40\t46.40\t16.15\t300.00\t2.00\t0.00\t30.09\tM\t3.73\tM\tFEW\tM\tM\tM\t2000.00\tM\tM\tM\tM\tM\tM\tM\tM\tM\tM\t96.63\tVOHY
        220940Z 30002KT 6000 FEW020 38/08 Q1019 NOSIG\nVOHY\t2014-03-22 10:40\t78.4676\t17.4531\t100.40\t44.60\t15.08\t300.00\t5.00\t0.00\t29.80\tM\t3.73\tM\tFEW\tM\tM\tM\t2000.00\tM\tM\tM\tM\tM\tM\tM\tM\tM\tM\t96.31\tVOHY
        221040Z 30005KT 6000 FEW020 38/07 Q1009 NOSIG\nVOHY\t2014-03-22 11:40\t78.4676\t17.4531\t98.60\t48.20\t18.25\t320.00\t6.00\t0.00\t29.80\tM\t3.73\tM\tFEW\tM\tM\tM\t2000.00\tM\tM\tM\tM\tM\tM\tM\tM\tM\tM\t95.17\tVOHY
        221140Z 32006KT 6000 FEW020 37/09 Q1009 NOSIG\nVOHY\t2014-03-22 13:40\t78.4676\t17.4531\t89.60\t50.00\t25.79\t0.00\t0.00\t0.00\t29.83\tM\t3.73\tM\tFEW\tM\tM\tM\t2000.00\tM\tM\tM\tM\tM\tM\tM\tM\tM\tM\t86.70\tVOHY
        221340Z 00000KT 6000 FEW020 32/10 Q1010 NOSIG\nVOHY\t2014-03-22 14:40\t78.4676\t17.4531\t87.80\t51.80\t29.18\t90.00\t4.00\t0.00\t29.85\tM\t3.73\tM\tFEW\tSCT\tM\tM\t2000.00\t10000.00\tM\tM\tM\tM\tM\tM\tM\tM\tM\t85.39\tVOHY
        221440Z 09004KT 6000 FEW020 SCT100 31/11 Q1011 NOSIG\nVOHY\t2014-03-22 15:40\t78.4676\t17.4531\t87.80\t55.40\t33.29\t110.00\t6.00\t0.00\t29.88\tM\t3.73\tM\tFEW\tSCT\tM\tM\t2000.00\t10000.00\tM\tM\tM\tM\tM\tM\tM\tM\tM\t86.11\tVOHY
        221540Z 11006KT 6000 FEW020 SCT100 31/13 Q1012 NOSIG\nVOHY\t2014-03-23 00:40\t78.4676\t17.4531\t71.60\t60.80\t68.75\t0.00\t0.00\t0.00\t29.88\tM\t1.86\tM\tNSC\tM\tM\tM\tM\tM\tM\tM\tHZ\tM\tM\tM\tM\tM\tM\t71.60\tVOHY
        230040Z 00000KT 3000 HZ NSC 22/16 Q1012 NOSIG\nVOHY\t2014-03-23 01:40\t78.4676\t17.4531\t73.40\t60.80\t64.69\t0.00\t0.00\t0.00\t29.91\tM\t1.86\tM\tNSC\tM\tM\tM\tM\tM\tM\tM\tHZ\tM\tM\tM\tM\tM\tM\t73.40\tVOHY
        230140Z 00000KT 3000 HZ NSC 23/16 Q1013 BECMG 5000 HZ\nVOHY\t2014-03-23 04:40\t78.4676\t17.4531\t93.20\t60.80\t34.11\t0.00\t0.00\t0.00\t29.97\tM\t3.73\tM\tNSC\tM\tM\tM\tM\tM\tM\tM\tM\tM\tM\tM\tM\tM\tM\t93.20\tVOHY
        230440Z 00000KT 6000 NSC 34/16 Q1015 NOSIG\nVOHY\t2014-03-23 05:40\t78.4676\t17.4531\t95.00\t59.00\t30.26\t220.00\t6.00\t0.00\t29.94\tM\t3.73\tM\tNSC\tM\tM\tM\tM\tM\tM\tM\tM\tM\tM\tM\tM\tM\tM\t95.00\tVOHY
        230540Z 22006KT 6000 NSC 35/15 Q1014 NOSIG\nVOHY\t2014-03-23 06:40\t78.4676\t17.4531\t98.60\t55.40\t23.81\t160.00\t4.00\t0.00\t29.94\tM\t3.73\tM\tNSC\tM\tM\tM\tM\tM\tM\tM\tM\tM\tM\tM\tM\tM\tM\t97.09\tVOHY
        230640Z 16004KT 6000 NSC 37/13 Q1014 NOSIG\nVOHY\t2014-03-23 07:40\t78.4676\t17.4531\t100.40\t50.00\t18.48\t180.00\t4.00\t0.00\t29.88\tM\t3.73\tM\tSCT\tM\tM\tM\t2000.00\tM\tM\tM\tM\tM\tM\tM\tM\tM\tM\t97.42\tVOHY
        230740Z 18004KT 6000 SCT020 38/10 Q1012 NOSIG\nVOHY\t2014-03-23 08:40\t78.4676\t17.4531\t104.00\t46.40\t14.50\tM\t2.00\t0.00\t29.85\tM\t3.73\tM\tSCT\tM\tM\tM\t2000.00\tM\tM\tM\tM\tM\tM\tM\tM\tM\tM\t100.21\tVOHY
        230840Z VRB02KT 6000 SCT020 40/08 Q1011 NOSIG\nVOHY\t2014-03-23 09:40\t78.4676\t17.4531\t104.00\t48.20\t15.52\t190.00\t4.00\t0.00\t29.85\tM\t3.73\tM\tSCT\tFEW\tM\tM\t2000.00\t2500.00\tM\tM\tM\tM\tM\tM\tM\tM\tM\t100.65\tVOHY
        230940Z 19004KT 6000 SCT020 FEW025 40/09 Q1011 NOSIG\nVOHY\t2014-03-23 10:40\t78.4676\t17.4531\t102.20\t53.60\t20.00\t80.00\t6.00\t0.00\t29.83\tM\t3.73\tM\tSCT\tFEW\tM\tM\t2000.00\t2500.00\tM\tM\tM\tM\tM\tM\tM\tM\tM\t100.38\tVOHY
        231040Z 08006KT 6000 SCT020 FEW025 39/12 Q1010 NOSIG\nVOHY\t2014-03-23 11:40\t78.4676\t17.4531\t96.80\t53.60\t23.55\t110.00\t9.00\t0.00\t29.85\tM\t3.73\tM\tFEW\tFEW\tM\tM\t2000.00\t2500.00\tM\tM\tM\tM\tM\tM\tM\tM\tM\t94.59\tVOHY
        231140Z 11009KT 6000 FEW020 FEW025 36/12 Q1011 NOSIG\nVOHY\t2014-03-23 12:40\t78.4676\t17.4531\t93.20\t53.60\t26.31\t100.00\t6.00\t0.00\t29.85\tM\t3.73\tM\tFEW\tM\tM\tM\t2000.00\tM\tM\tM\tM\tM\tM\tM\tM\tM\tM\t90.86\tVOHY
        231240Z 10006KT 6000 FEW020 34/12 Q1011 NOSIG\nVOHY\t2014-03-23 13:40\t78.4676\t17.4531\t89.60\t57.20\t33.56\t110.00\t8.00\t0.00\t29.88\tM\t3.73\tM\tFEW\tM\tM\tM\t2000.00\tM\tM\tM\tM\tM\tM\tM\tM\tM\tM\t88.28\tVOHY
        231340Z 11008KT 6000 FEW020 32/14 Q1012 NOSIG\nVOHY\t2014-03-23 14:40\t78.4676\t17.4531\t87.80\t60.80\t40.41\t120.00\t7.00\t0.00\t29.91\tM\t3.73\tM\tFEW\tM\tM\tM\t2000.00\tM\tM\tM\tM\tM\tM\tM\tM\tM\tM\t87.75\tVOHY
        231440Z 12007KT 6000 FEW020 31/16 Q1013 NOSIG\nVOHY\t2014-03-23 15:40\t78.4676\t17.4531\t86.00\t64.40\t48.58\t120.00\t6.00\t0.00\t29.94\tM\t3.73\tM\tSCT\tFEW\tM\tM\t2000.00\t20000.00\tM\tM\tM\tM\tM\tM\tM\tM\tM\t87.49\tVOHY
        231540Z 12006KT 6000 SCT020 FEW200 30/18 Q1014 NOSIG\nVOHY\t2014-03-24 00:40\t78.4676\t17.4531\t73.40\t62.60\t68.94\t90.00\t8.00\t0.00\t29.91\tM\t1.86\tM\tSCT\tBKN\tM\tM\t2000.00\t10000.00\tM\tM\tHZ\tM\tM\tM\tM\tM\tM\t73.40\tVOHY
        240040Z 09008KT 3000 HZ SCT020 BKN100 23/17 Q1013 NOSIG\nVOHY\t2014-03-24
        01:40\t78.4676\t17.4531\t75.20\t64.40\t69.14\t140.00\t4.00\t0.00\t29.94\tM\t1.86\tM\tSCT\tBKN\tM\tM\t2000.00\t10000.00\tM\tM\tHZ\tM\tM\tM\tM\tM\tM\t75.20\tVOHY
        240140Z 14004KT 3000 HZ SCT020 BKN100 24/18 Q1014 NOSIG\nVOHY\t2014-03-24
        03:40\t78.4676\t17.4531\t86.00\t66.20\t51.72\t0.00\t0.00\t0.00\t30.00\tM\t2.49\tM\tSCT\tSCT\tM\tM\t2000.00\t20000.00\tM\tM\tHZ\tM\tM\tM\tM\tM\tM\t88.39\tVOHY
        240340Z 00000KT 4000 HZ SCT020 SCT200 30/19 Q1016 BECMG 5000\nVOHY\t2014-03-24
        05:40\t78.4676\t17.4531\t95.00\t60.80\t32.27\t0.00\t0.00\t0.00\t30.00\tM\t3.11\tM\tNSC\tM\tM\tM\tM\tM\tM\tM\tHZ\tM\tM\tM\tM\tM\tM\t95.00\tVOHY
        240540Z 00000KT 5000 HZ NSC 35/16 Q1016 NOSIG\nVOHY\t2014-03-24 07:40\t78.4676\t17.4531\t100.40\t51.80\t19.76\t230.00\t3.00\t0.00\t29.94\tM\t3.73\tM\tNSC\tM\tM\tM\tM\tM\tM\tM\tM\tM\tM\tM\tM\tM\tM\t97.90\tVOHY
        240740Z 23003KT 6000 NSC 38/11 Q1014 NOSIG\nVOHY\t2014-03-24 08:40\t78.4676\t17.4531\t102.20\t50.00\t17.51\t0.00\t0.00\t0.00\t29.91\tM\t3.73\tM\tNSC\tM\tM\tM\tM\tM\tM\tM\tM\tM\tM\tM\tM\tM\tM\t99.28\tVOHY
        240840Z 00000KT 6000 NSC 39/10 Q1013 NOSIG\nVOHY\t2014-03-24 09:40\t78.4676\t17.4531\t102.20\t55.40\t21.36\t150.00\t5.00\t0.00\t29.88\tM\t3.73\tM\tSCT\tM\tM\tM\t2000.00\tM\tM\tM\tM\tM\tM\tM\tM\tM\tM\t101.04\tVOHY
        240940Z 15005KT 6000 SCT020 39/13 Q1012 NOSIG\nVOHY\t2014-03-24 10:40\t78.4676\t17.4531\t98.60\t53.60\t22.29\t100.00\t8.00\t0.00\t29.88\tM\t3.73\tM\tSCT\tM\tM\tM\t2000.00\tM\tM\tM\tM\tM\tM\tM\tM\tM\tM\t96.51\tVOHY
        241040Z 10008KT 6000 SCT020 37/12 Q1012 NOSIG\nVOHY\t2014-03-24 11:40\t78.4676\t17.4531\t95.00\t50.00\t21.79\t80.00\t8.00\t0.00\t29.88\tM\t3.73\tM\tSCT\tM\tM\tM\t2000.00\tM\tM\tM\tM\tM\tM\tM\tM\tM\tM\t91.89\tVOHY
        241140Z 08008KT 6000 SCT020 35/10 Q1012 NOSIG\nVOHY\t2014-03-24 13:40\t78.4676\t17.4531\t87.80\t59.00\t37.90\t110.00\t4.00\t0.00\t29.94\tM\t3.73\tM\tFEW\tM\tM\tM\t2000.00\tM\tM\tM\tM\tM\tM\tM\tM\tM\tM\t87.80\tVOHY
        241340Z 11004KT 6000 FEW020 31/15 Q1014 NOSIG\nVOHY\t2014-03-24 15:40\t78.4676\t17.4531\t84.20\t62.60\t48.32\t120.00\t4.00\t0.00\t29.97\tM\t3.73\tM\tFEW\tM\tM\tM\t2000.00\tM\tM\tM\tM\tM\tM\tM\tM\tM\tM\t85.03\tVOHY
        241540Z 12004KT 6000 FEW020 29/17 Q1015 NOSIG\nVOHY\t2014-03-25 00:40\t78.4676\t17.4531\t75.20\t62.60\t64.91\t0.00\t0.00\t0.00\t29.94\tM\t1.86\tM\tNSC\tM\tM\tM\tM\tM\tM\tM\tHZ\tM\tM\tM\tM\tM\tM\t75.20\tVOHY
        250040Z 00000KT 3000 HZ NSC 24/17 Q1014 NOSIG\nVOHY\t2014-03-25 01:40\t78.4676\t17.4531\t77.00\t62.60\t61.13\t0.00\t0.00\t0.00\t29.97\tM\t1.86\tM\tNSC\tM\tM\tM\tM\tM\tM\tM\tHZ\tM\tM\tM\tM\tM\tM\t77.00\tVOHY
        250140Z 00000KT 3000 HZ NSC 25/17 Q1015 NOSIG\nVOHY\t2014-03-25 05:40\t78.4676\t17.4531\t98.60\t50.00\t19.52\t160.00\t5.00\t0.00\t29.97\tM\t3.73\tM\tNSC\tM\tM\tM\tM\tM\tM\tM\tM\tM\tM\tM\tM\tM\tM\t95.56\tVOHY
        250540Z 16005KT 6000 NSC 37/10 Q1015 NOSIG\nVOHY\t2014-03-25 06:40\t78.4676\t17.4531\t100.40\t48.20\t17.28\t230.00\t6.00\t0.00\t29.94\tM\t3.73\tM\tNSC\tM\tM\tM\tM\tM\tM\tM\tM\tM\tM\tM\tM\tM\tM\t97.00\tVOHY
        250640Z 23006KT 6000 NSC 38/09 Q1014 NOSIG\nVOHY\t2014-03-25 07:40\t78.4676\t17.4531\t102.20\t48.20\t16.37\t210.00\t3.00\t0.00\t29.91\tM\t3.73\tM\tNSC\tM\tM\tM\tM\tM\tM\tM\tM\tM\tM\tM\tM\tM\tM\t98.83\tVOHY
        250740Z 21003KT 6000 NSC 39/09 Q1013 NOSIG\nVOHY\t2014-03-25 08:40\t78.4676\t17.4531\t104.00\t48.20\t15.52\t190.00\t3.00\t0.00\t29.88\tM\t3.73\tM\tFEW\tFEW\tM\tM\t2000.00\t10000.00\tM\tM\tM\tM\tM\tM\tM\tM\tM\t100.65\tVOHY
        250840Z 19003KT 6000 FEW020 FEW100 40/09 Q1012 NOSIG\nVOHY\t2014-03-25 09:40\t78.4676\t17.4531\t104.00\t44.60\t13.54\t200.00\t3.00\t0.00\t29.85\tM\t3.73\tM\tSCT\tM\tM\tM\t2000.00\tM\tM\tM\tM\tM\tM\tM\tM\tM\tM\t99.82\tVOHY
        250940Z 20003KT 6000 SCT020 40/07 Q1011 NOSIG\nVOHY\t2014-03-25 10:40\t78.4676\t17.4531\t102.20\t46.40\t15.30\t130.00\t3.00\t0.00\t29.83\tM\t3.73\tM\tSCT\tFEW\tM\tM\t2000.00\t2500.00\tM\tM\tM\tM\tM\tM\tM\tM\tM\t98.43\tVOHY
        251040Z 13003KT 6000 SCT020 FEW025 39/08 Q1010 NOSIG\nVOHY\t2014-03-25 11:40\t78.4676\t17.4531\t96.80\t55.40\t25.15\t100.00\t6.00\t0.00\t29.83\tM\t3.73\tM\tSCT\tSCT\tM\tM\t2000.00\t2500.00\tM\tM\tM\tM\tM\tM\tM\tM\tM\t95.14\tVOHY
        251140Z 10006KT 6000 SCT020 SCT025 36/13 Q1010 NOSIG\nVOHY\t2014-03-25 12:40\t78.4676\t17.4531\t93.20\t55.40\t28.10\t100.00\t5.00\t0.00\t29.85\tM\t3.73\tM\tSCT\tFEW\tFEW\tM\t2000.00\t2500.00\t10000.00\tM\tM\tM\tM\tM\tM\tM\tM\t91.35\tVOHY
        251240Z 10005KT 6000 SCT020 FEW025 FEW100 34/13 Q1011 NOSIG\nVOHY\t2014-03-25
        13:40\t78.4676\t17.4531\t89.60\t57.20\t33.56\t110.00\t6.00\t0.00\t29.88\tM\t3.73\tM\tSCT\tM\tM\tM\t2000.00\tM\tM\tM\tM\tM\tM\tM\tM\tM\tM\t88.28\tVOHY
        251340Z 11006KT 6000 SCT020 32/14 Q1012 NOSIG\nVOHY\t2014-03-25 14:40\t78.4676\t17.4531\t87.80\t59.00\t37.90\t130.00\t8.00\t0.00\t29.91\tM\t3.73\tM\tFEW\tM\tM\tM\t2000.00\tM\tM\tM\tM\tM\tM\tM\tM\tM\tM\t87.80\tVOHY
        251440Z 13008KT 6000 FEW020 31/15 Q1013 NOSIG\nVOHY\t2014-03-25 15:40\t78.4676\t17.4531\t86.00\t60.80\t42.80\t120.00\t6.00\t0.00\t29.91\tM\t3.73\tM\tSCT\tM\tM\tM\t2000.00\tM\tM\tM\tM\tM\tM\tM\tM\tM\tM\t86.05\tVOHY
        251540Z 12006KT 6000 SCT020 30/16 Q1013 NOSIG\nVOHY\t2014-03-26 00:40\t78.4676\t17.4531\t73.40\t57.20\t56.88\t130.00\t3.00\t0.00\t29.94\tM\t1.86\tM\tNSC\tM\tM\tM\tM\tM\tM\tM\tHZ\tM\tM\tM\tM\tM\tM\t73.40\tVOHY
        260040Z 13003KT 3000 HZ NSC 23/14 Q1014 NOSIG\nVOHY\t2014-03-26 01:40\t78.4676\t17.4531\t75.20\t59.00\t57.12\t80.00\t3.00\t0.00\t29.94\tM\t1.86\tM\tNSC\tM\tM\tM\tM\tM\tM\tM\tHZ\tM\tM\tM\tM\tM\tM\t75.20\tVOHY
        260140Z 08003KT 3000 HZ NSC 24/15 Q1014 NOSIG\nVOHY\t2014-03-26 04:40\t78.4676\t17.4531\t91.40\t57.20\t31.72\t220.00\t4.00\t0.00\t30.00\tM\t3.11\tM\tNSC\tM\tM\tM\tM\tM\tM\tM\tHZ\tM\tM\tM\tM\tM\tM\t90.06\tVOHY
        260440Z 22004KT 5000 HZ NSC 33/14 Q1016 BECMG 6000\nVOHY\t2014-03-26 06:40\t78.4676\t17.4531\t102.20\t50.00\t17.51\t210.00\t3.00\t0.00\t29.94\tM\t3.73\tM\tNSC\tM\tM\tM\tM\tM\tM\tM\tM\tM\tM\tM\tM\tM\tM\t99.28\tVOHY
        260640Z 21003KT 6000 NSC 39/10 Q1014 NOSIG\nVOHY\t2014-03-26 07:40\t78.4676\t17.4531\t104.00\t46.40\t14.50\t200.00\t5.00\t0.00\t29.91\tM\t3.73\tM\tNSC\tM\tM\tM\tM\tM\tM\tM\tM\tM\tM\tM\tM\tM\tM\t100.21\tVOHY
        260740Z 20005KT 6000 NSC 40/08 Q1013 NOSIG\nVOHY\t2014-03-26 08:40\t78.4676\t17.4531\t102.20\t48.20\t16.37\t110.00\t5.00\t0.00\t29.88\tM\t3.73\tM\tFEW\tFEW\tM\tM\t2000.00\t20000.00\tM\tM\tM\tM\tM\tM\tM\tM\tM\t98.83\tVOHY
        260840Z 110005KT 6000 FEW020 FEW200 39/09 Q1012 NOSIG\nVOHY\t2014-03-26 09:40\t78.4676\t17.4531\t102.20\t44.60\t14.29\t80.00\t4.00\t0.00\t29.85\tM\t3.73\tM\tNSC\tM\tM\tM\tM\tM\tM\tM\tM\tM\tM\tM\tM\tM\tM\t98.07\tVOHY
        260940Z 08004KT 6000 NSC 39/07 Q1011 NOSIG\nVOHY\t2014-03-26 10:40\t78.4676\t17.4531\t100.40\t44.60\t15.08\t80.00\t8.00\t0.00\t29.83\tM\t3.73\tM\tNSC\tM\tM\tM\tM\tM\tM\tM\tM\tM\tM\tM\tM\tM\tM\t96.31\tVOHY
        261040Z 08008KT 6000 NSC 38/07 Q1010 NOSIG\nVOHY\t2014-03-26 11:40\t78.4676\t17.4531\t98.60\t50.00\t19.52\t110.00\t8.00\t0.00\t29.85\tM\t3.73\tM\tNSC\tM\tM\tM\tM\tM\tM\tM\tM\tM\tM\tM\tM\tM\tM\t95.56\tVOHY
        261140Z 11008KT 6000 NSC 37/10 Q1011 NOSIG\nVOHY\t2014-03-26 12:40\t78.4676\t17.4531\t93.20\t48.20\t21.54\t90.00\t10.00\t0.00\t29.85\tM\t3.73\tM\tNSC\tM\tM\tM\tM\tM\tM\tM\tM\tM\tM\tM\tM\tM\tM\t89.80\tVOHY
        261240Z 09010KT 6000 NSC 34/09 Q1011 NOSIG\nVOHY\t2014-03-26 13:40\t78.4676\t17.4531\t91.40\t53.60\t27.83\t110.00\t4.00\t0.00\t29.88\tM\t3.73\tM\tFEW\tM\tM\tM\t2000.00\tM\tM\tM\tM\tM\tM\tM\tM\tM\tM\t89.08\tVOHY
        261340Z 11004KT 6000 FEW020 33/12 Q1012 NOSIG\nVOHY\t2014-03-26 14:40\t78.4676\t17.4531\t87.80\t55.40\t33.29\t110.00\t8.00\t0.00\t29.91\tM\t3.73\tM\tNSC\tM\tM\tM\tM\tM\tM\tM\tM\tM\tM\tM\tM\tM\tM\t86.11\tVOHY
        261440Z 11008KT 6000 NSC 31/13 Q1013 NOSIG\nVOHY\t2014-03-26 15:40\t78.4676\t17.4531\t86.00\t55.40\t35.25\t110.00\t5.00\t0.00\t29.94\tM\t3.73\tM\tNSC\tM\tM\tM\tM\tM\tM\tM\tM\tM\tM\tM\tM\tM\tM\t84.54\tVOHY
        261540Z 11005KT 6000 NSC 30/13 Q1014 NOSIG\nVOHY\t2014-03-27 00:40\t78.4676\t17.4531\t73.40\t59.00\t60.67\t0.00\t0.00\t0.00\t29.94\tM\t2.49\tM\tNSC\tM\tM\tM\tM\tM\tM\tM\tHZ\tM\tM\tM\tM\tM\tM\t73.40\tVOHY
        270040Z 00000KT 4000 HZ NSC 23/15 Q1014 NOSIG\nVOHY\t2014-03-27 01:40\t78.4676\t17.4531\t77.00\t53.60\t44.25\t210.00\t4.00\t0.00\t29.94\tM\t2.49\tM\tNSC\tM\tM\tM\tM\tM\tM\tM\tHZ\tM\tM\tM\tM\tM\tM\t77.00\tVOHY
        270140Z 21004KT 4000 HZ NSC 25/12 Q1014 NOSIG\nVOHY\t2014-03-27 02:40\t78.4676\t17.4531\t84.20\t50.00\t30.62\t200.00\t3.00\t0.00\t30.00\tM\t2.49\tM\tNSC\tM\tM\tM\tM\tM\tM\tM\tHZ\tM\tM\tM\tM\tM\tM\t82.24\tVOHY
        270240Z 20003KT 4000 HZ NSC 29/10 Q1016 BECMG 5000\nVOHY\t2014-03-27 04:40\t78.4676\t17.4531\t95.00\t48.20\t20.38\t200.00\t6.00\t0.00\t30.00\tM\t3.11\tM\tNSC\tM\tM\tM\tM\tM\tM\tM\tHZ\tM\tM\tM\tM\tM\tM\t91.56\tVOHY
        270440Z 20006KT 5000 HZ NSC 35/09 Q1016 NOSIG\nVOHY\t2014-03-27 06:40\t78.4676\t17.4531\t102.20\t44.60\t14.29\t170.00\t5.00\t0.00\t29.97\tM\t3.73\tM\tNSC\tM\tM\tM\tM\tM\tM\tM\tM\tM\tM\tM\tM\tM\tM\t98.07\tVOHY
        270640Z 17005KT 6000 NSC 39/07 Q1015 NOSIG\nVOHY\t2014-03-27 07:40\t78.4676\t17.4531\t104.00\t42.80\t12.64\t190.00\t5.00\t0.00\t29.94\tM\t3.73\tM\tFEW\tSCT\tM\tM\t2000.00\t20000.00\tM\tM\tM\tM\tM\tM\tM\tM\tM\t99.42\tVOHY
        270740Z 19005KT 6000 FEW020 SCT200 40/06 Q1014 NOSIG\nVOHY\t2014-03-27 08:40\t78.4676\t17.4531\t105.80\t44.60\t12.84\t200.00\t4.00\t0.00\t29.91\tM\t3.73\tM\tFEW\tSCT\tM\tM\t2000.00\t20000.00\tM\tM\tM\tM\tM\tM\tM\tM\tM\t101.53\tVOHY
        270840Z 20004KT 6000 FEW020 SCT200 41/07 Q1013 NOSIG\nVOHY\t2014-03-27 09:40\t78.4676\t17.4531\t105.80\t42.80\t11.98\t210.00\t6.00\t0.00\t29.88\tM\t3.73\tM\tFEW\tM\tM\tM\t2000.00\tM\tM\tM\tM\tM\tM\tM\tM\tM\tM\t101.02\tVOHY
        270940Z 21006KT 6000 FEW020 41/06 Q1012 NOSIG\nVOHY\t2014-03-27 10:40\t78.4676\t17.4531\t104.00\t44.60\t13.54\t200.00\t4.00\t0.00\t29.88\tM\t3.73\tM\tFEW\tM\tM\tM\t2000.00\tM\tM\tM\tM\tM\tM\tM\tM\tM\tM\t99.82\tVOHY
        271040Z 20004KT 6000 FEW020 40/07 Q1012 NOSIG\nVOHY\t2014-03-27 11:40\t78.4676\t17.4531\t100.40\t42.80\t14.08\t120.00\t7.00\t0.00\t29.88\tM\t3.73\tM\tFEW\tM\tM\tM\t2000.00\tM\tM\tM\tM\tM\tM\tM\tM\tM\tM\t96.04\tVOHY
        271140Z 12007KT 6000 FEW020 38/06 Q1012 NOSIG\nVOHY\t2014-03-27 12:40\t78.4676\t17.4531\t96.80\t41.00\t14.66\t100.00\t7.00\t0.00\t29.88\tM\t3.73\tM\tFEW\tM\tM\tM\t2000.00\tM\tM\tM\tM\tM\tM\tM\tM\tM\tM\t92.39\tVOHY
        271240Z 10007KT 6000 FEW020 36/05 Q1012 NOSIG\nVOHY\t2014-03-27 13:40\t78.4676\t17.4531\t93.20\t46.40\t20.13\t100.00\t7.00\t0.00\t29.91\tM\t3.73\tM\tNSC\tM\tM\tM\tM\tM\tM\tM\tM\tM\tM\tM\tM\tM\tM\t89.55\tVOHY
        271340Z 10007KT 6000 NSC 34/08 Q1013 NOSIG\nVOHY\t2014-03-27 14:40\t78.4676\t17.4531\t89.60\t46.40\t22.53\t110.00\t7.00\t0.00\t29.94\tM\t3.73\tM\tNSC\tM\tM\tM\tM\tM\tM\tM\tM\tM\tM\tM\tM\tM\tM\t86.24\tVOHY
        271440Z 11007KT 6000 NSC 32/08 Q1014 NOSIG\nVOHY\t2014-03-27 15:40\t78.4676\t17.4531\t87.80\t46.40\t23.85\t110.00\t6.00\t0.00\t29.94\tM\t3.73\tM\tNSC\tM\tM\tM\tM\tM\tM\tM\tM\tM\tM\tM\tM\tM\tM\t84.68\tVOHY
        271540Z 11006KT 6000 NSC 31/08 Q1014 NOSIG\nVOHY\t2014-03-28 01:40\t78.4676\t17.4531\t73.40\t57.20\t56.88\t0.00\t0.00\t0.00\t29.97\tM\t2.49\tM\tNSC\tM\tM\tM\tM\tM\tM\tM\tHZ\tM\tM\tM\tM\tM\tM\t73.40\tVOHY
        280140Z 00000 4000 HZ NSC 23/14 Q1015 NOSIG\nVOHY\t2014-03-28 02:40\t78.4676\t17.4531\t84.20\t48.20\t28.63\t220.00\t9.72\t0.00\t30.00\tM\t2.49\tM\tNSC\tM\tM\tM\tM\tM\tM\tM\tHZ\tM\tM\tM\tM\tM\tM\t82.04\tVOHY
        280240Z 22005 4000 HZ NSC 29/09 Q1016 BECMG 5000\nVOHY\t2014-03-28 05:40\t78.4676\t17.4531\t100.40\t44.60\t15.08\t210.00\t5.00\t0.00\t30.00\tM\t3.73\tM\tNSC\tM\tM\tM\tM\tM\tM\tM\tM\tM\tM\tM\tM\tM\tM\t96.31\tVOHY
        280540Z 21005KT 6000 NSC 38/07 Q1016 NOSIG\nVOHY\t2014-03-28 06:40\t78.4676\t17.4531\t102.20\t44.60\t14.29\t270.00\t4.00\t0.00\t29.97\tM\t3.73\tM\tFEW\tBKN\tM\tM\t2000.00\t20000.00\tM\tM\tM\tM\tM\tM\tM\tM\tM\t98.07\tVOHY
        280640Z 27004KT 6000 FEW020 BKN200 39/07 Q1015 NOSIG\nVOHY\t2014-03-28 07:40\t78.4676\t17.4531\t104.00\t44.60\t13.54\t230.00\t4.00\t0.00\t29.94\tM\t3.73\tM\tFEW\tSCT\tM\tM\t2000.00\t20000.00\tM\tM\tM\tM\tM\tM\tM\tM\tM\t99.82\tVOHY
        280740Z 23004KT 6000 FEW020 SCT200 40/07 Q1014 NOSIG\nVOHY\t2014-03-28 08:40\t78.4676\t17.4531\t104.00\t46.40\t14.50\t0.00\t0.00\t0.00\t29.91\tM\t3.73\tM\tFEW\tBKN\tM\tM\t2000.00\t20000.00\tM\tM\tM\tM\tM\tM\tM\tM\tM\t100.21\tVOHY
        280840Z 00000KT 6000 FEW020 BKN200 40/08 Q1013 NOSIG\nVOHY\t2014-03-28 09:40\t78.4676\t17.4531\t104.00\t44.60\t13.54\t280.00\t3.00\t0.00\t29.88\tM\t3.73\tM\tFEW\tBKN\tM\tM\t2000.00\t20000.00\tM\tM\tM\tM\tM\tM\tM\tM\tM\t99.82\tVOHY
        280940Z 28003KT 6000 FEW020 BKN200 40/07 Q1012 NOSIG\nVOHY\t2014-03-28 10:40\t78.4676\t17.4531\t104.00\t44.60\t13.54\t0.00\t0.00\t0.00\t29.88\tM\t3.73\tM\tSCT\tSCT\tM\tM\t2000.00\t20000.00\tM\tM\tM\tM\tM\tM\tM\tM\tM\t99.82\tVOHY
        281040Z 00000KT 6000 SCT020 SCT200 40/07 Q1012 NOSIG\nVOHY\t2014-03-28 11:40\t78.4676\t17.4531\t100.40\t42.80\t14.08\t120.00\t6.00\t0.00\t29.88\tM\t3.73\tM\tSCT\tSCT\tM\tM\t2000.00\t10000.00\tM\tM\tM\tM\tM\tM\tM\tM\tM\t96.04\tVOHY
        281140Z 12006KT 6000 SCT020 SCT100 38/06 Q1012 NOSIG\nVOHY\t2014-03-28 12:40\t78.4676\t17.4531\t96.80\t44.60\t16.83\t0.00\t0.00\t0.00\t29.88\tM\t3.73\tM\tFEW\tBKN\tM\tM\t2000.00\t20000.00\tM\tM\tM\tM\tM\tM\tM\tM\tM\t92.79\tVOHY
        281240Z 00000KT 6000 FEW020 BKN200 36/07 Q1012 NOSIG\nVOHY\t2014-03-28 14:40\t78.4676\t17.4531\t87.80\t48.20\t25.52\t0.00\t0.00\t0.00\t29.94\tM\t3.11\tM\tFEW\tSCT\tM\tM\t2000.00\t20000.00\tM\tM\tHZ\tM\tM\tM\tM\tM\tM\t84.87\tVOHY
        281440Z 00000KT 5000 HZ FEW020 SCT200 31/09 Q1014 NOSIG\nVOHY\t2014-03-28
        15:40\t78.4676\t17.4531\t82.40\t48.20\t30.35\t0.00\t0.00\t0.00\t29.97\tM\t3.11\tM\tFEW\tSCT\tM\tM\t2000.00\t20000.00\tM\tM\tHZ\tM\tM\tM\tM\tM\tM\t80.80\tVOHY
        281540Z 00000KT 5000 HZ FEW020 SCT200 28/09 Q1015 NOSIG\nVOHY\t2014-03-29
        00:40\t78.4676\t17.4531\t71.60\t57.20\t60.44\t0.00\t0.00\t0.00\t29.91\tM\t1.86\tM\tNSC\tM\tM\tM\tM\tM\tM\tM\tHZ\tM\tM\tM\tM\tM\tM\t71.60\tVOHY
        290040Z 00000KT 3000 HZ NSC 22/14 Q1013 NOSIG\nVOHY\t2014-03-29 01:40\t78.4676\t17.4531\t71.60\t57.20\t60.44\t0.00\t0.00\t0.00\t29.94\tM\t1.86\tM\tNSC\tM\tM\tM\tM\tM\tM\tM\tHZ\tM\tM\tM\tM\tM\tM\t71.60\tVOHY
        290140Z 00000KT 3000 HZ NSC 22/14 Q1014 NOSIG\nVOHY\t2014-03-29 03:40\t78.4676\t17.4531\t95.00\t53.60\t24.89\t0.00\t0.00\t0.00\t30.00\tM\t2.49\tM\tNSC\tM\tM\tM\tM\tM\tM\tM\tHZ\tM\tM\tM\tM\tM\tM\t92.71\tVOHY
        290340Z 00000KT 4000 HZ NSC 35/12 Q1016 NOSIG\nVOHY\t2014-03-29 06:40\t78.4676\t17.4531\t104.00\t44.60\t13.54\t330.00\t5.00\t0.00\t29.94\tM\t3.73\tM\tNSC\tM\tM\tM\tM\tM\tM\tM\tM\tM\tM\tM\tM\tM\tM\t99.82\tVOHY
        290640Z 33005KT 6000 NSC 40/07 Q1014 NOSIG\nVOHY\t2014-03-29 07:40\t78.4676\t17.4531\t104.00\t44.60\t13.54\t340.00\t5.00\t0.00\t29.91\tM\t3.73\tM\tFEW\tSCT\tM\tM\t2000.00\t20000.00\tM\tM\tM\tM\tM\tM\tM\tM\tM\t99.82\tVOHY
        290740Z 34005KT 6000 FEW020 SCT200 40/07 Q1013 NOSIG\nVOHY\t2014-03-29 08:40\t78.4676\t17.4531\t105.80\t46.40\t13.75\t140.00\t3.00\t0.00\t29.88\tM\t3.73\tM\tFEW\tBKN\tM\tM\t2000.00\t20000.00\tM\tM\tM\tM\tM\tM\tM\tM\tM\t101.97\tVOHY
        290840Z 14003KT 6000 FEW020 BKN200 41/08 Q1012 NOSIG\nVOHY\t2014-03-29 09:40\t78.4676\t17.4531\t104.00\t44.60\t13.54\t190.00\t3.00\t0.00\t29.85\tM\t3.73\tM\tFEW\tBKN\tM\tM\t2000.00\t20000.00\tM\tM\tM\tM\tM\tM\tM\tM\tM\t99.82\tVOHY
        290940Z 19003KT 6000 FEW020 BKN200 40/07 Q1011 NOSIG\nVOHY\t2014-03-29 11:40\t78.4676\t17.4531\t102.20\t42.80\t13.34\t130.00\t5.00\t0.00\t29.83\tM\t3.73\tM\tFEW\tSCT\tM\tM\t2000.00\t20000.00\tM\tM\tM\tM\tM\tM\tM\tM\tM\t97.76\tVOHY
        291140Z 13005KT 6000 FEW020 SCT200 39/06 Q1010 NOSIG\nVOHY\t2014-03-29 12:40\t78.4676\t17.4531\t98.60\t46.40\t17.05\t110.00\t4.00\t0.00\t29.85\tM\t3.73\tM\tNSC\tM\tM\tM\tM\tM\tM\tM\tM\tM\tM\tM\tM\tM\tM\t94.84\tVOHY
        291240Z 11004KT 6000 NSC 37/08 Q1011 NOSIG\nVOHY\t2014-03-29 13:40\t78.4676\t17.4531\t93.20\t48.20\t21.54\t0.00\t0.00\t0.00\t29.85\tM\t3.73\tM\tNSC\tM\tM\tM\tM\tM\tM\tM\tM\tM\tM\tM\tM\tM\tM\t89.80\tVOHY
        291340Z 00000KT 6000 NSC 34/09 Q1011 NOSIG\nVOHY\t2014-03-29 14:40\t78.4676\t17.4531\t87.80\t48.20\t25.52\t0.00\t0.00\t0.00\t29.91\tM\t3.73\tM\tNSC\tM\tM\tM\tM\tM\tM\tM\tM\tM\tM\tM\tM\tM\tM\t84.87\tVOHY
        291440Z 00000KT 6000 NSC 31/09 Q1013 NOSIG\nVOHY\t2014-03-29 15:40\t78.4676\t17.4531\t86.00\t50.00\t28.90\t0.00\t0.00\t0.00\t29.94\tM\t3.73\tM\tNSC\tM\tM\tM\tM\tM\tM\tM\tM\tM\tM\tM\tM\tM\tM\t83.62\tVOHY
        291540Z 00000KT 6000 NSC 30/10 Q1014 NOSIG\nVOHY\t2014-03-30 00:40\t78.4676\t17.4531\t73.40\t55.40\t53.29\t0.00\t0.00\t0.00\t29.91\tM\t1.24\tM\tNSC\tM\tM\tM\tM\tM\tM\tM\tBR\tM\tM\tM\tM\tM\tM\t73.40\tVOHY
        300040Z 00000KT 2000 BR NSC 23/13 Q1013 NOSIG\nVOHY\t2014-03-30 01:40\t78.4676\t17.4531\t75.20\t55.40\t50.17\t0.00\t0.00\t0.00\t29.91\tM\t1.24\tM\tNSC\tM\tM\tM\tM\tM\tM\tM\tBR\tM\tM\tM\tM\tM\tM\t75.20\tVOHY
        300140Z 00000KT 2000 BR NSC 24/13 Q1013 BECMG 3000 HZ\nVOHY\t2014-03-30 06:40\t78.4676\t17.4531\t104.00\t50.00\t16.59\tM\t2.00\t0.00\t29.94\tM\t3.11\tM\tNSC\tM\tM\tM\tM\tM\tM\tM\tHZ\tM\tM\tM\tM\tM\tM\t101.14\tVOHY
        300640Z VRB02KT 5000 HZ NSC 40/10 Q1014 NOSIG\nVOHY\t2014-03-30 07:40\t78.4676\t17.4531\t104.00\t46.40\t14.50\t20.00\t4.00\t0.00\t29.88\tM\t3.11\tM\tFEW\tSCT\tM\tM\t2000.00\t20000.00\tM\tM\tHZ\tM\tM\tM\tM\tM\tM\t100.21\tVOHY
        300740Z 02004KT 5000 HZ FEW020 SCT200 40/08 Q1012 NOSIG\nVOHY\t2014-03-30
        08:40\t78.4676\t17.4531\t104.00\t46.40\t14.50\t50.00\t7.00\t0.00\t29.85\tM\t3.11\tM\tSCT\tSCT\tM\tM\t2000.00\t20000.00\tM\tM\tHZ\tM\tM\tM\tM\tM\tM\t100.21\tVOHY
        300840Z 05007KT 5000 HZ SCT020 SCT200 40/08 Q1011 NOSIG\nVOHY\t2014-03-30
        09:40\t78.4676\t17.4531\t105.80\t44.60\t12.84\t270.00\t4.00\t0.00\t29.83\tM\t3.11\tM\tSCT\tSCT\tM\tM\t2000.00\t20000.00\tM\tM\tHZ\tM\tM\tM\tM\tM\tM\t101.53\tVOHY
        300940Z 27004KT 5000 HZ SCT020 SCT200 41/07 Q1010 NOSIG\nVOHY\t2014-03-30
        10:40\t78.4676\t17.4531\t105.80\t42.80\t11.98\t10.00\t4.00\t0.00\t29.83\tM\t3.11\tM\tFEW\tSCT\tM\tM\t2000.00\t20000.00\tM\tM\tHZ\tM\tM\tM\tM\tM\tM\t101.02\tVOHY
        301040Z 01004KT 5000 HZ FEW020 SCT200 41/06 Q1010 NOSIG\nVOHY\t2014-03-30
        11:40\t78.4676\t17.4531\t104.00\t42.80\t12.64\t20.00\t4.00\t0.00\t29.83\tM\t3.11\tM\tNSC\tM\tM\tM\tM\tM\tM\tM\tHZ\tM\tM\tM\tM\tM\tM\t99.42\tVOHY
        301140Z 02004KT 5000 HZ NSC 40/06 Q1010 NOSIG\nVOHY\t2014-03-30 12:40\t78.4676\t17.4531\t98.60\t50.00\t19.52\t120.00\t2.00\t0.00\t29.83\tM\t3.11\tM\tNSC\tM\tM\tM\tM\tM\tM\tM\tHZ\tM\tM\tM\tM\tM\tM\t95.56\tVOHY
        301240Z 12002KT 5000 HZ NSC 37/10 Q1010 NOSIG\nVOHY\t2014-03-30 13:40\t78.4676\t17.4531\t93.20\t51.80\t24.63\t0.00\t0.00\t0.00\t29.85\tM\t3.11\tM\tNSC\tM\tM\tM\tM\tM\tM\tM\tHZ\tM\tM\tM\tM\tM\tM\t90.45\tVOHY
        301340Z 00000KT 5000 HZ NSC 34/11 Q1011 NOSIG\nVOHY\t2014-03-30 14:40\t78.4676\t17.4531\t93.20\t51.80\t24.63\t0.00\t0.00\t0.00\t29.88\tM\t3.11\tM\tNSC\tM\tM\tM\tM\tM\tM\tM\tHZ\tM\tM\tM\tM\tM\tM\t90.45\tVOHY
        301440Z 00000KT 5000 HZ NSC 34/11 Q1012 NOSIG\nVOHY\t2014-03-30 15:40\t78.4676\t17.4531\t87.80\t53.60\t31.17\t0.00\t0.00\t0.00\t29.88\tM\t3.11\tM\tNSC\tM\tM\tM\tM\tM\tM\tM\tHZ\tM\tM\tM\tM\tM\tM\t85.72\tVOHY
        301540Z 00000KT 5000 HZ NSC 31/12 Q1012 NOSIG\nVOHY\t2014-03-31 00:40\t78.4676\t17.4531\t73.40\t59.00\t60.67\t0.00\t0.00\t0.00\t29.88\tM\t1.86\tM\tFEW\tSCT\tM\tM\t2000.00\t20000.00\tM\tM\tHZ\tM\tM\tM\tM\tM\tM\t73.40\tVOHY
        310040Z 00000KT 3000 HZ FEW020 SCT200 23/15 Q1012 NOSIG\nVOHY\t2014-03-31
        01:40\t78.4676\t17.4531\t77.00\t57.20\t50.43\t200.00\t3.00\t0.00\t29.88\tM\t1.86\tM\tFEW\tSCT\tM\tM\t2000.00\t20000.00\tM\tM\tHZ\tM\tM\tM\tM\tM\tM\t77.00\tVOHY
        310140Z 20003KT 3000 HZ FEW020 SCT200 25/14 Q1012 NOSIG\nVOHY\t2014-03-31
        04:40\t78.4676\t17.4531\t96.80\t51.80\t22.04\t230.00\t5.00\t0.00\t29.94\tM\t2.49\tM\tNSC\tFEW\tSCT\tM\tM\t2000.00\t20000.00\tM\tHZ\tM\tM\tM\tM\tM\tM\t94.12\tVOHY
        310440Z 23005KT 4000 HZ NSC FEW020 SCT200 36/11 Q1014 NOSIG\nVOHY\t2014-03-31
        06:40\t78.4676\t17.4531\t102.20\t50.00\t17.51\t230.00\t5.00\t0.00\t29.91\tM\t3.11\tM\tFEW\tSCT\tM\tM\t2000.00\t20000.00\tM\tM\tHZ\tM\tM\tM\tM\tM\tM\t99.28\tVOHY
        310640Z 23005KT 5000 HZ FEW020 SCT200 39/10 Q1013 NOSIG\nVOHY\t2014-03-31
        07:40\t78.4676\t17.4531\t104.00\t48.20\t15.52\t180.00\t5.00\t0.00\t29.88\tM\t3.11\tM\tFEW\tSCT\tM\tM\t2000.00\t20000.00\tM\tM\tHZ\tM\tM\tM\tM\tM\tM\t100.65\tVOHY
        310740Z 18005KT 5000 HZ FEW020 SCT200 40/09 Q1012 NOSIG\nVOHY\t2014-03-31
        08:40\t78.4676\t17.4531\t105.80\t48.20\t14.71\t150.00\t3.00\t0.00\t29.85\tM\t3.11\tM\tFEW\tSCT\tM\tM\t2000.00\t20000.00\tM\tM\tHZ\tM\tM\tM\tM\tM\tM\t102.45\tVOHY
        310840Z 15003KT 5000 HZ FEW020 SCT200 41/09 Q1011 NOSIG\nVOHY\t2014-03-31
        09:40\t78.4676\t17.4531\t105.80\t44.60\t12.84\t0.00\t0.00\t0.00\t29.83\tM\t3.11\tM\tFEW\tSCT\tM\tM\t2000.00\t20000.00\tM\tM\tHZ\tM\tM\tM\tM\tM\tM\t101.53\tVOHY
        310940Z 00000KT 5000 HZ FEW020 SCT200 41/07 Q1010 NOSIG\nVOHY\t2014-03-31
        10:40\t78.4676\t17.4531\t107.60\t46.40\t13.04\t220.00\t6.00\t0.00\t29.80\tM\t3.11\tM\tFEW\tSCT\tM\tM\t2000.00\t20000.00\tM\tM\tHZ\tM\tM\tM\tM\tM\tM\t103.71\tVOHY
        311040Z 22006KT 5000 HZ FEW020 SCT200 42/08 Q1009 NOSIG\nVOHY\t2014-03-31
        11:40\t78.4676\t17.4531\t105.80\t44.60\t12.84\t0.00\t0.00\t0.00\t29.80\tM\t3.11\tM\tSCT\tSCT\tM\tM\t2000.00\t20000.00\tM\tM\tHZ\tM\tM\tM\tM\tM\tM\t101.53\tVOHY
        311140Z 00000KT 5000 HZ SCT020 SCT200 41/07 Q1009 NOSIG\nVOHY\t2014-03-31
        12:40\t78.4676\t17.4531\t102.20\t44.60\t14.29\t200.00\t3.00\t0.00\t29.83\tM\t3.11\tM\tSCT\tSCT\tBKN\tM\t1500.00\t2000.00\t20000.00\tM\tHZ\tM\tM\tM\tM\tM\tM\t98.07\tVOHY
        311240Z 20003KT 5000 HZ SCT015 SCT020 BKN200 39/07 Q1010 NOSIG\nVOHY\t2014-03-31
        13:40\t78.4676\t17.4531\t95.00\t50.00\t21.79\t0.00\t0.00\t0.00\t29.83\tM\t3.11\tM\tSCT\tSCT\tM\tM\t2000.00\t20000.00\tM\tM\tHZ\tM\tM\tM\tM\tM\tM\t91.89\tVOHY
        311340Z 00000KT 5000 HZ SCT020 SCT200 35/10 Q1010 NOSIG\nVOHY\t2014-03-31
        14:40\t78.4676\t17.4531\t95.00\t50.00\t21.79\t130.00\t5.00\t0.00\t29.85\tM\t3.11\tM\tSCT\tSCT\tM\tM\t2000.00\t20000.00\tM\tM\tHZ\tM\tM\tM\tM\tM\tM\t91.89\tVOHY
        311440Z 13005KT 5000 HZ SCT020 SCT200 35/10 Q1011 NOSIG\nVOHY\t2014-03-31
        15:40\t78.4676\t17.4531\t93.20\t51.80\t24.63\t110.00\t5.00\t0.00\t29.85\tM\t3.11\tM\tSCT\tSCT\tM\tM\t2000.00\t20000.00\tM\tM\tHZ\tM\tM\tM\tM\tM\tM\t90.45\tVOHY
        311540Z 11005KT 5000 HZ SCT020 SCT200 34/11 Q1011 NOSIG\nVOHY\t2014-04-01
        00:40\t78.4676\t17.4531\tM\tM\tM\t0.00\t0.00\t0.00\tM\tM\t2.49\tM\tFEW\tM\tM\tM\tM\tM\tM\tM\tHZ\tM\tM\tM\tM\tM\tM\tM\tVOHY
        010040Z 00000KT 4000 HZ FEW 020 SCT 020 26/12 QNH 1011 NOSIG\nVOHY\t2014-04-01
        01:40\t78.4676\t17.4531\tM\tM\tM\t0.00\t0.00\t0.00\tM\tM\t2.49\tM\tSCT\tM\tM\tM\tM\tM\tM\tM\tHZ\tM\tM\tM\tM\tM\tM\tM\tVOHY
        010140Z 00000KT 4000 HZ SCT 020 BKN 100 26/14 QNH 1012 NOSIG\nVOHY\t2014-04-01
        02:40\t78.4676\t17.4531\tM\tM\tM\t300.00\t3.00\t0.00\tM\tM\t2.49\tM\tSCT\tM\tM\tM\tM\tM\tM\tM\tHZ\tM\tM\tM\tM\tM\tM\tM\tVOHY
        010240Z 30003KT 4000 HZ SCT 020 BKN 100 30/12 QNH 1013 NOSIG\nVOHY\t2014-04-01
        03:40\t78.4676\t17.4531\tM\tM\tM\t10.00\t3.00\t0.00\tM\tM\t2.49\tM\tSCT\tM\tM\tM\tM\tM\tM\tM\tHZ\tM\tM\tM\tM\tM\tM\tM\tVOHY
        010340Z 01003KT 4000 HZ SCT 020 BKN 100 31/13 QNH 1013 NOSIG\nVOHY\t2014-04-01
        04:40\t78.4676\t17.4531\t91.40\t55.40\t29.72\t340.00\t3.00\t0.00\t29.91\tM\t2.49\tM\tSCT\tBKN\tM\tM\t2000.00\t10000.00\tM\tM\tHZ\tM\tM\tM\tM\tM\tM\t89.53\tVOHY
        010440Z 34003KT 4000 HZ SCT020 BKN100 33/13 QNH 1013 BECMG 5000\nVOHY\t2014-04-01
        07:40\t78.4676\t17.4531\t102.20\t51.80\t18.72\t290.00\t4.00\t0.00\t29.85\tM\t3.11\tM\tSCT\tBKN\tM\tM\t2000.00\t10000.00\tM\tM\tHZ\tM\tM\tM\tM\tM\tM\t99.80\tVOHY
        010740Z 29004KT 5000 HZ SCT020 BKN100 39/11 Q1011 NOSIG\nVOHY\t2014-04-01
        08:40\t78.4676\t17.4531\t104.00\t51.80\t17.74\t210.00\t4.00\t0.00\t29.80\tM\t3.11\tM\tSCT\tBKN\tM\tM\t2000.00\t10000.00\tM\tM\tHZ\tM\tM\tM\tM\tM\tM\t101.69\tVOHY
        010840Z 21004KT 5000 HZ SCT020 BKN100 40/11 Q1009 NOSIG\nVOHY\t2014-04-01
        09:40\t78.4676\t17.4531\t102.20\t51.80\t18.72\t290.00\t7.00\t0.00\t29.77\tM\t3.11\tM\tSCT\tBKN\tM\tM\t2000.00\t10000.00\tM\tM\tHZ\tM\tM\tM\tM\tM\tM\t99.80\tVOHY
        010940Z 29007KT 5000 HZ SCT020 BKN100 39/11 Q1008 NOSIG\nVOHY\t2014-04-01
        10:40\t78.4676\t17.4531\t104.00\t51.80\t17.74\t150.00\t3.00\t0.00\t29.77\tM\t3.11\tM\tSCT\tBKN\tM\tM\t2000.00\t10000.00\tM\tM\tHZ\tM\tM\tM\tM\tM\tM\t101.69\tVOHY
        011040Z 15003KT 5000 HZ SCT020 BKN100 40/11 Q1008 NOSIG\nVOHY\t2014-04-01
        11:40\t78.4676\t17.4531\t102.20\t50.00\t17.51\t90.00\t3.00\t0.00\t29.77\tM\t3.11\tM\tFEW\tSCT\tM\tM\t2000.00\t10000.00\tM\tM\tHZ\tM\tM\tM\tM\tM\tM\t99.28\tVOHY
        011140Z 09003KT 5000 HZ FEW020 SCT100 39/10 Q1008 NOSIG\nVOHY\t2014-04-01
        13:40\t78.4676\t17.4531\t89.60\t51.80\t27.56\t150.00\t6.00\t0.00\t29.83\tM\t3.11\tM\tSCT\tBKN\tM\tM\t1500.00\t10000.00\tM\tM\tHZ\tM\tM\tM\tM\tM\tM\t87.00\tVOHY
        011340Z 15006KT 5000 HZ SCT015 BKN100 FEW(CB)030 32/11 Q1010 NOSIG\nVOHY\t2014-04-01
        14:40\t78.4676\t17.4531\t87.80\t53.60\t31.17\t150.00\t7.00\t0.00\t29.88\tM\t3.11\tM\tSCT\tBKN\tM\tM\t1500.00\t10000.00\tM\tM\tHZ\tM\tM\tM\tM\tM\tM\t85.72\tVOHY
        011440Z 15007KT 5000 HZ SCT015 BKN100 FEW(CB)030 31/12 Q1012 NOSIG\nVOHY\t2014-04-01
        15:40\t78.4676\t17.4531\t86.00\t51.80\t30.90\t180.00\t3.00\t0.00\t29.88\tM\t3.11\tM\tSCT\tBKN\tM\tM\t1500.00\t10000.00\tM\tM\tHZ\tM\tM\tM\tM\tM\tM\t83.87\tVOHY
        011540Z 18003KT 5000 HZ SCT015 BKN100 FEW(CB)030 30/11 Q1012 NOSIG\nVOHY\t2014-04-02
        00:40\t78.4676\t17.4531\t75.20\t53.60\t46.98\t330.00\t3.00\t0.00\t29.85\tM\t1.86\tM\tFEW\tSCT\tM\tM\t2000.00\t20000.00\tM\tM\tHZ\tM\tM\tM\tM\tM\tM\t75.20\tVOHY
        020040Z 33003KT 3000 HZ FEW020 SCT200 24/12 Q1011 NOSIG\nVOHY\t2014-04-02
        01:40\t78.4676\t17.4531\t77.00\t55.40\t47.25\t0.00\t0.00\t0.00\t29.88\tM\t1.86\tM\tNSC\tM\tM\tM\tM\tM\tM\tM\tHZ\tM\tM\tM\tM\tM\tM\t77.00\tVOHY
        020140Z 00000KT 3000 HZ NSC 25/13 Q1012 NOSIG\nVOHY\t2014-04-02 02:40\t78.4676\t17.4531\t86.00\t55.40\t35.25\t280.00\t6.00\t0.00\t29.91\tM\t1.86\tM\tNSC\tM\tM\tM\tM\tM\tM\tM\tHZ\tM\tM\tM\tM\tM\tM\t84.54\tVOHY
        020240Z 28006KT 3000 HZ NSC 30/13 Q1013 NOSIG\nVOHY\t2014-04-02 04:40\t78.4676\t17.4531\t91.40\t55.40\t29.72\t300.00\t8.00\t0.00\t29.91\tM\t2.49\tM\tNSC\tM\tM\tM\tM\tM\tM\tM\tHZ\tM\tM\tM\tM\tM\tM\t89.53\tVOHY
        020440Z 30008KT 4000 HZ NSC 33/13 Q1013 BECMG 5000\nVOHY\t2014-04-02 06:40\t78.4676\t17.4531\t98.60\t50.00\t19.52\t330.00\t4.00\t0.00\t29.88\tM\t3.11\tM\tNSC\tM\tM\tM\tM\tM\tM\tM\tHZ\tM\tM\tM\tM\tM\tM\t95.56\tVOHY
        020640Z 33004KT 5000 HZ NSC 37/10 Q1012 NOSIG\nVOHY\t2014-04-02 08:40\t78.4676\t17.4531\t102.20\t46.40\t15.30\t0.00\t0.00\t0.00\t29.83\tM\t3.73\tM\tNSC\tM\tM\tM\tM\tM\tM\tM\tM\tM\tM\tM\tM\tM\tM\t98.43\tVOHY
        020840Z 00000KT 6000 NSC 39/08 Q1010 NOSIG\nVOHY\t2014-04-02 09:40\t78.4676\t17.4531\t102.20\t50.00\t17.51\t280.00\t7.00\t0.00\t29.80\tM\t3.73\tM\tFEW\tM\tM\tM\t2000.00\tM\tM\tM\tM\tM\tM\tM\tM\tM\tM\t99.28\tVOHY
        020940Z 28007KT 6000 FEW020 39/10 Q1009 NOSIG\nVOHY\t2014-04-02 10:40\t78.4676\t17.4531\t100.40\t48.20\t17.28\t30.00\t7.00\t0.00\t29.80\tM\t3.73\tM\tFEW\tM\tM\tM\t2000.00\tM\tM\tM\tM\tM\tM\tM\tM\tM\tM\t97.00\tVOHY
        021040Z 03007KT 6000 FEW020 38/09 Q1009 NOSIG\nVOHY\t2014-04-02 12:40\t78.4676\t17.4531\t96.80\t46.40\t18.02\t330.00\t4.00\t0.00\t29.80\tM\t3.73\tM\tFEW\tM\tM\tM\t2000.00\tM\tM\tM\tM\tM\tM\tM\tM\tM\tM\t93.05\tVOHY
        021240Z 33004KT 6000 FEW020 36/08 Q1009 NOSIG\nVOHY\t2014-04-02 13:40\t78.4676\t17.4531\t91.40\t50.00\t24.37\t180.00\t3.00\t0.00\t29.83\tM\t3.73\tM\tFEW\tM\tM\tM\t2000.00\tM\tM\tM\tM\tM\tM\tM\tM\tM\tM\t88.36\tVOHY
        021340Z 18003KT 6000 FEW020 33/10 Q1010 NOSIG\nVOHY\t2014-04-02 14:40\t78.4676\t17.4531\t87.80\t53.60\t31.17\t200.00\t4.00\t0.00\t29.85\tM\t3.73\tM\tFEW\tM\tM\tM\t2000.00\tM\tM\tM\tM\tM\tM\tM\tM\tM\tM\t85.72\tVOHY
        021440Z 20004KT 6000 FEW020 31/12 Q1011 NOSIG\nVOHY\t2014-04-02 15:40\t78.4676\t17.4531\t86.00\t51.80\t30.90\t0.00\t0.00\t0.00\t29.88\tM\t3.73\tM\tNSC\tM\tM\tM\tM\tM\tM\tM\tM\tM\tM\tM\tM\tM\tM\t83.87\tVOHY
        021540Z 00000KT 6000 NSC 30/11 Q1012 NOSIG\nVOHY\t2014-04-03 00:40\t78.4676\t17.4531\t78.80\t60.80\t54.05\t100.00\t3.00\t0.00\t29.88\tM\t1.86\tM\tNSC\tM\tM\tM\tM\tM\tM\tM\tHZ\tM\tM\tM\tM\tM\tM\t78.80\tVOHY
        030040Z 10003KT 3000 HZ NSC 26/16 Q1012 NOSIG\nVOHY\t2014-04-03 01:40\t78.4676\t17.4531\t75.20\t62.60\t64.91\t300.00\t2.00\t0.00\t29.91\tM\t1.86\tM\tNSC\tM\tM\tM\tM\tM\tM\tM\tHZ\tM\tM\tM\tM\tM\tM\t75.20\tVOHY
        030140Z 30002KT 3000 HZ NSC 24/17 Q1013 NOSIG\nVOHY\t2014-04-03 02:40\t78.4676\t17.4531\t82.40\t64.40\t54.55\t350.00\t3.00\t0.00\t29.94\tM\t1.86\tM\tFEW\tSCT\tM\tM\t2000.00\t10000.00\tM\tM\tHZ\tM\tM\tM\tM\tM\tM\t83.98\tVOHY
        030240Z 35003KT 3000 HZ FEW020 SCT100 28/18 Q1014 NOSIG\nVOHY\t2014-04-03
        03:40\t78.4676\t17.4531\t86.00\t62.60\t45.61\t310.00\t4.00\t0.00\t29.97\tM\t1.86\tM\tNSC\tM\tM\tM\tM\tM\tM\tM\tHZ\tM\tM\tM\tM\tM\tM\t86.72\tVOHY
        030340Z 31004KT 3000 HZ NSC 30/17 Q1015 NOSIG\nVOHY\t2014-04-03 05:40\t78.4676\t17.4531\t96.80\t59.00\t28.63\t60.00\t4.00\t0.00\t29.94\tM\t2.49\tM\tNSC\tM\tM\tM\tM\tM\tM\tM\tHZ\tM\tM\tM\tM\tM\tM\t96.80\tVOHY
        030540Z 06004KT 4000 HZ NSC 36/15 Q1014 BECMG 5000\nVOHY\t2014-04-03 08:40\t78.4676\t17.4531\t102.20\t44.60\t14.29\t50.00\t6.00\t0.00\t29.88\tM\t3.73\tM\tNSC\tM\tM\tM\tM\tM\tM\tM\tM\tM\tM\tM\tM\tM\tM\t98.07\tVOHY
        030840Z 05006KT 6000 NSC 39/07 Q1012 NOSIG\nVOHY\t2014-04-03 09:40\t78.4676\t17.4531\t102.20\t46.40\t15.30\t20.00\t4.00\t0.00\t29.85\tM\t3.73\tM\tFEW\tM\tM\tM\t2000.00\tM\tM\tM\tM\tM\tM\tM\tM\tM\tM\t98.43\tVOHY
        030940Z 02004KT 6000 FEW020 39/08 Q1011 NOSIG\nVOHY\t2014-04-03 10:40\t78.4676\t17.4531\t102.20\t48.20\t16.37\t80.00\t4.00\t0.00\t29.83\tM\t3.73\tM\tFEW\tM\tM\tM\t2000.00\tM\tM\tM\tM\tM\tM\tM\tM\tM\tM\t98.83\tVOHY
        031040Z 08004KT 6000 FEW020 39/09 Q1010 NOSIG\nVOHY\t2014-04-03 11:40\t78.4676\t17.4531\t98.60\t55.40\t23.81\t120.00\t8.00\t0.00\t29.83\tM\t3.73\tM\tFEW\tM\tM\tM\t2000.00\tM\tM\tM\tM\tM\tM\tM\tM\tM\tM\t97.09\tVOHY
        031140Z 12008KT 6000 FEW020 37/13 Q1010 NOSIG\nVOHY\t2014-04-03 13:40\t78.4676\t17.4531\t93.20\t55.40\t28.10\t90.00\t6.00\t0.00\t29.85\tM\t3.73\tM\tFEW\tM\tM\tM\t2000.00\tM\tM\tM\tM\tM\tM\tM\tM\tM\tM\t91.35\tVOHY
        031340Z 09006KT 6000 FEW020 34/13 Q1011 NOSIG\nVOHY\t2014-04-03 15:40\t78.4676\t17.4531\t89.60\t55.40\t31.45\t80.00\t3.00\t0.00\t29.91\tM\t3.73\tM\tFEW\tM\tM\tM\t2000.00\tM\tM\tM\tM\tM\tM\tM\tM\tM\tM\t87.78\tVOHY
        031540Z 08003KT 6000 FEW020 32/13 Q1013 NOSIG\nVOHY\t2014-04-04 00:40\t78.4676\t17.4531\t71.60\t59.00\t64.48\t0.00\t0.00\t0.00\t29.91\tM\t1.86\tM\tFEW\tSCT\tM\tM\t2000.00\t10000.00\tM\tM\tHZ\tM\tM\tM\tM\tM\tM\t71.60\tVOHY
        040040Z 00000KT 3000 HZ FEW020 SCT100 22/15 Q1013 NOSIG\nVOHY\t2014-04-04
        03:40\t78.4676\t17.4531\t93.20\t57.20\t29.99\t180.00\t5.00\t0.00\t29.97\tM\t1.86\tM\tNSC\tM\tM\tM\tM\tM\tM\tM\tHZ\tM\tM\tM\tM\tM\tM\t91.91\tVOHY
        040340Z 18005KT 3000 HZ NSC 34/14 Q1015 NOSIG\nVOHY\t2014-04-04 07:40\t78.4676\t17.4531\t102.20\t50.00\t17.51\t140.00\t6.00\t0.00\t29.91\tM\t3.73\tM\tFEW\tSCT\tM\tM\t2000.00\t20000.00\tM\tM\tM\tM\tM\tM\tM\tM\tM\t99.28\tVOHY
        040740Z 14006KT 6000 FEW020 SCT200 39/10 Q1013 NOSIG\nVOHY\t2014-04-04 08:40\t78.4676\t17.4531\t104.00\t50.00\t16.59\t170.00\t7.00\t0.00\t29.88\tM\t3.73\tM\tFEW\tSCT\tM\tM\t2000.00\t20000.00\tM\tM\tM\tM\tM\tM\tM\tM\tM\t101.14\tVOHY
        040840Z 17007KT 6000 FEW020 SCT200 40/10 Q1012 NOSIG\nVOHY\t2014-04-04 09:40\t78.4676\t17.4531\t102.20\t46.40\t15.30\t130.00\t6.00\t0.00\t29.85\tM\t3.73\tM\tFEW\tSCT\tM\tM\t2000.00\t20000.00\tM\tM\tM\tM\tM\tM\tM\tM\tM\t98.43\tVOHY
        040940Z 13006KT 6000 FEW020 SCT200 39/08 Q1011 NOSIG\nVOHY\t2014-04-04 10:40\t78.4676\t17.4531\t102.20\t48.20\t16.37\t120.00\t4.00\t0.00\t29.85\tM\t3.73\tM\tFEW\tSCT\tM\tM\t2000.00\t20000.00\tM\tM\tM\tM\tM\tM\tM\tM\tM\t98.83\tVOHY
        041040Z 12004KT 6000 FEW020 SCT200 39/09 Q1011 NOSIG\nVOHY\t2014-04-04 11:40\t78.4676\t17.4531\t98.60\t48.20\t18.25\t110.00\t4.00\t0.00\t29.85\tM\t3.73\tM\tFEW\tSCT\tM\tM\t2000.00\t20000.00\tM\tM\tM\tM\tM\tM\tM\tM\tM\t95.17\tVOHY
        041140Z 11004KT 6000 FEW020 SCT200 37/09 Q1011 NOSIG\nVOHY\t2014-04-04 12:40\t78.4676\t17.4531\t95.00\t50.00\t21.79\t110.00\t7.00\t0.00\t29.88\tM\t3.73\tM\tSCT\tSCT\tM\tM\t2000.00\t20000.00\tM\tM\tM\tM\tM\tM\tM\tM\tM\t91.89\tVOHY
        041240Z 11007KT 6000 SCT020 SCT200 35/10 Q1012 NOSIG\nVOHY\t2014-04-04 13:40\t78.4676\t17.4531\t91.40\t55.40\t29.72\t90.00\t3.00\t0.00\t29.91\tM\t3.73\tM\tSCT\tSCT\tM\tM\t2000.00\t20000.00\tM\tM\tM\tM\tM\tM\tM\tM\tM\t89.53\tVOHY
        041340Z 09003KT 6000 SCT020 SCT200 33/13 Q1013 NOSIG\nVOHY\t2014-04-04 14:40\t78.4676\t17.4531\t91.40\t55.40\t29.72\t80.00\t4.00\t0.00\t29.91\tM\t3.73\tM\tSCT\tSCT\tM\tM\t2000.00\t20000.00\tM\tM\tM\tM\tM\tM\tM\tM\tM\t89.53\tVOHY
        041440Z 08004KT 6000 SCT020 SCT200 33/13 Q1013 NOSIG\nVOHY\t2014-04-04 15:40\t78.4676\t17.4531\t89.60\t53.60\t29.45\t100.00\t3.00\t0.00\t29.94\tM\t3.73\tM\tFEW\tSCT\tM\tM\t2000.00\t20000.00\tM\tM\tM\tM\tM\tM\tM\tM\tM\t87.36\tVOHY
        041540Z 10003KT 6000 FEW020 SCT200 32/12 Q1014 NOSIG\n"
  recorded_at: 2021-02-28 13:41:58 GMT
  recorded_with: vcr/0.6.0, webmockr/0.7.4
