#DEBUG: Format Typ    -> tdf
#DEBUG: Time Period   -> 2014-03-01 00:00:00+00:00 2014-04-05 00:00:00+00:00
#DEBUG: Time Zone     -> UTC
#DEBUG: Data Contact   -> daryl herzmann akrherz@iastate.edu 515-294-5978
#DEBUG: Entries Found -> -1
station	valid	tmpf	dwpf	relh	drct	sknt	p01i	alti	mslp	vsby	gust	skyc1	skyc2	skyc3	skyc4	skyl1	skyl2	skyl3	skyl4	wxcodes	ice_accretion_1hr	ice_accretion_3hr	ice_accretion_6hr	peak_wind_gust	peak_wind_drct	peak_wind_time	feel	metar	snowdepth
VOHY	2014-03-01 00:40	69.80	60.80	73.09	130.00	4.00	0.00	29.97	M	1.86	M	BKN	SCT	M	M	1000.00	1500.00	M	M	HZ	M	M	M	M	M	M	69.80	VOHY 010040Z 13004KT 3000 HZ BKN010 SCT015 21/16 Q1015 NOSIG	M
VOHY	2014-03-01 01:40	69.80	60.80	73.09	190.00	4.00	0.00	29.97	M	1.86	M	SCT	SCT	M	M	2000.00	1500.00	M	M	HZ	M	M	M	M	M	M	69.80	VOHY 010140Z 19004KT 3000 HZ SCT020 SCT015 21/16 Q1015 NOSIG	M
VOHY	2014-03-01 03:40	77.00	62.60	61.13	120.00	6.00	0.00	30.03	M	2.49	M	SCT	SCT	M	M	1500.00	2000.00	M	M	HZ	M	M	M	M	M	M	77.00	VOHY 010340Z 12006KT 4000 HZ SCT015 SCT020 25/17 Q1017 NOSIG	M
VOHY	2014-03-01 05:40	82.40	64.40	54.55	180.00	5.00	0.00	30.03	M	3.11	M	SCT	SCT	BKN	M	1500.00	2000.00	8000.00	M	HZ	M	M	M	M	M	M	83.98	VOHY 010540Z 18005KT 5000 HZ SCT015 SCT020 BKN080 28/18 Q1017 NOSIG	M
VOHY	2014-03-01 07:40	84.20	64.40	51.47	120.00	6.00	0.00	29.97	M	3.73	M	SCT	SCT	M	M	2000.00	2500.00	M	M	M	M	M	M	M	M	M	85.71	VOHY 010740Z 12006KT 6000 SCT020 SCT025 29/18 Q1015 NOSIG	M
VOHY	2014-03-01 08:40	87.80	64.40	45.88	210.00	5.00	0.00	29.94	M	3.73	M	SCT	SCT	BKN	M	2000.00	2500.00	20000.00	M	M	M	M	M	M	M	M	89.33	VOHY 010840Z 21005KT 6000 SCT020 SCT025 BKN200 31/18 Q1014 NOSIG	M
VOHY	2014-03-01 10:40	86.00	60.80	42.80	120.00	4.00	0.00	29.88	M	3.73	M	SCT	SCT	BKN	M	2000.00	2500.00	20000.00	M	M	M	M	M	M	M	M	86.05	VOHY 011040Z 12004KT 6000 SCT020 SCT025 BKN200 30/16 Q1012 NOSIG	M
VOHY	2014-03-01 12:40	80.60	62.60	54.30	60.00	3.00	0.00	29.91	M	2.49	M	FEW	SCT	M	M	2000.00	2500.00	M	M	M	M	M	M	M	M	M	81.84	VOHY 011240Z 06003KT 4000 FEW020 SCT025 27/17 Q1013 NOSIG	M
VOHY	2014-03-01 13:40	75.20	62.60	64.91	M	1.00	0.00	29.94	M	2.49	M	FEW	SCT	M	M	2000.00	10000.00	M	M	M	M	M	M	M	M	M	75.20	VOHY 011340Z VRB01KT 4000 FEW020 SCT100 24/17 Q1014 NOSIG	M
VOHY	2014-03-01 14:40	73.40	62.60	68.94	80.00	8.00	0.00	29.97	M	2.49	M	FEW	SCT	M	M	2000.00	10000.00	M	M	M	M	M	M	M	M	M	73.40	VOHY 011440Z 08008KT 4000 FEW020 SCT100 23/17 Q1015 NOSIG	M
VOHY	2014-03-02 00:40	66.20	62.60	88.18	M	2.00	0.00	29.97	M	1.24	M	NSC	M	M	M	M	M	M	M	BR	M	M	M	M	M	M	66.20	VOHY 020040Z VRB02KT 2000 BR NSC 19/17 Q1015 NOSIG	M
VOHY	2014-03-02 01:40	66.20	62.60	88.18	0.00	0.00	0.00	30.00	M	1.24	M	NSC	M	M	M	M	M	M	M	BR	M	M	M	M	M	M	66.20	VOHY 020140Z 00000KT 2000 BR NSC 19/17 Q1016 NOSIG	M
VOHY	2014-03-02 04:40	71.60	64.40	78.04	130.00	3.00	0.00	30.06	M	2.49	M	FEW	SCT	M	M	1000.00	2000.00	M	M	HZ	M	M	M	M	M	M	71.60	VOHY 020440Z 13003KT 4000 HZ FEW010 SCT020 22/18 Q1018 NOSIG	M
VOHY	2014-03-02 06:40	84.20	66.20	54.80	100.00	4.00	0.00	30.03	M	3.11	M	FEW	SCT	M	M	1000.00	2000.00	M	M	HZ	M	M	M	M	M	M	86.50	VOHY 020640Z 10004KT 5000 HZ FEW010 SCT020 29/19 Q1017 NOSIG	M
VOHY	2014-03-02 07:40	86.00	66.20	51.72	130.00	4.00	0.00	29.97	M	3.11	M	SCT	BKN	M	M	2000.00	20000.00	M	M	HZ	M	M	M	M	M	M	88.39	VOHY 020740Z 13004KT 5000 HZ SCT020 BKN200 30/19 Q1015 NOSIG	M
VOHY	2014-03-02 09:40	78.80	69.80	73.95	130.00	3.00	0.00	29.91	M	1.86	M	SCT	SCT	FEW	OVC	1500.00	2000.00	2500.00	8000.00	TSRA	M	M	M	M	M	M	81.39	VOHY 020940Z 13003KT 3000 TSRA SCT015 SCT020 FEW025CB OVC080 26/21 Q1013 NOSIG	M
VOHY	2014-03-02 12:40	71.60	66.20	83.09	150.00	3.00	0.00	29.94	M	1.86	M	SCT	SCT	FEW	BKN	1500.00	2000.00	2500.00	8000.00	-TSRA	M	M	M	M	M	M	71.60	VOHY 021240Z 15003KT 3000 -TSRA SCT015 SCT020 FEW025CB BKN080 22/19 Q1014 NOSIG	M
VOHY	2014-03-02 13:40	69.80	64.40	82.98	0.00	0.00	0.00	29.94	M	1.86	M	SCT	SCT	FEW	M	1500.00	2000.00	2500.00	M	-DZ	M	M	M	M	M	M	69.80	VOHY 021340Z 00000KT 3000 -DZ SCT015 SCT020 FEW025CB 21/18 Q1014 NOSIG	M
VOHY	2014-03-02 14:40	69.80	64.40	82.98	0.00	0.00	0.00	29.97	M	1.86	M	SCT	M	M	M	2000.00	M	M	M	HZ	M	M	M	M	M	M	69.80	VOHY 021440Z 00000KT 3000 HZ SCT020 21/18 Q1015 NOSIG	M
VOHY	2014-03-02 15:40	69.80	64.40	82.98	0.00	0.00	0.00	30.00	M	1.86	M	SCT	M	M	M	2000.00	M	M	M	HZ	M	M	M	M	M	M	69.80	VOHY 021540Z 00000KT 3000 HZ SCT020 21/18 Q1016 NOSIG	M
VOHY	2014-03-03 00:40	69.80	62.60	77.90	80.00	3.00	0.00	30.00	M	1.86	M	BKN	SCT	OVC	M	1000.00	1500.00	8000.00	M	HZ	M	M	M	M	M	M	69.80	VOHY 030040Z 08003KT 3000 HZ BKN010 SCT015 OVC080 21/17 Q1016 NOSIG	M
VOHY	2014-03-03 01:40	69.80	62.60	77.90	110.00	5.00	0.00	30.03	M	1.86	M	BKN	SCT	OVC	M	1000.00	1500.00	8000.00	M	HZ	M	M	M	M	M	M	69.80	VOHY 030140Z 11005KT 3000 HZ BKN010 SCT015 OVC080 21/17 Q1017 NOSIG	M
VOHY	2014-03-03 09:40	82.40	62.60	51.21	140.00	5.00	0.00	29.94	M	3.11	M	SCT	SCT	FEW	M	1500.00	2500.00	3000.00	M	HZ	M	M	M	M	M	M	83.41	VOHY 030940Z 14005KT 5000 HZ SCT015 SCT025 FEW030CB 28/17 Q1014 TEMPO 3000 TSRA	M
VOHY	2014-03-03 12:40	71.60	59.00	64.48	60.00	5.00	0.00	29.94	M	3.11	M	FEW	SCT	FEW	M	2000.00	2500.00	3000.00	M	HZ	M	M	M	M	M	M	71.60	VOHY 031240Z 06005KT 5000 HZ FEW020 SCT025 FEW030CB 22/15 Q1014 TEMPO 3000 HZ	M
VOHY	2014-03-03 14:40	69.80	59.00	68.55	90.00	6.00	0.00	29.97	M	2.49	M	FEW	FEW	M	M	2000.00	3000.00	M	M	HZ	M	M	M	M	M	M	69.80	VOHY 031440Z 09006KT 4000 HZ FEW020 FEW030CB 21/15 Q1015 TEMPO 3000 TSRA	M
VOHY	2014-03-03 15:40	69.80	59.00	68.55	M	2.00	0.00	29.97	M	2.49	M	FEW	FEW	M	M	2000.00	3000.00	M	M	HZ	M	M	M	M	M	M	69.80	VOHY 031540Z VRB02KT 4000 HZ FEW020 FEW030CB 21/15 Q1015 TEMPO 3000 TSRA	M
VOHY	2014-03-04 00:40	68.00	62.60	82.86	M	2.00	0.00	30.00	M	1.24	M	SCT	BKN	M	M	1500.00	10000.00	M	M	BR	M	M	M	M	M	M	68.00	VOHY 040040Z VRB02KT 2000 BR SCT015 BKN100 20/17 Q1016 NOSIG	M
VOHY	2014-03-04 01:40	68.00	62.60	82.86	90.00	3.00	0.00	30.03	M	1.24	M	SCT	BKN	M	M	1500.00	10000.00	M	M	BR	M	M	M	M	M	M	68.00	VOHY 040140Z 09003KT 2000 BR SCT015 BKN100 20/17 Q1017 BECMG 3000 HZ	M
VOHY	2014-03-04 03:40	71.60	64.40	78.04	100.00	3.00	0.00	30.09	M	1.86	M	SCT	BKN	M	M	1500.00	10000.00	M	M	HZ	M	M	M	M	M	M	71.60	VOHY 040340Z 10003KT 3000 HZ SCT015 BKN100 22/18 Q1019 NOSIG	M
VOHY	2014-03-04 07:40	78.80	64.40	61.36	90.00	8.00	0.00	30.03	M	3.11	M	SCT	BKN	M	M	1500.00	10000.00	M	M	HZ	M	M	M	M	M	M	80.56	VOHY 040740Z 09008KT 5000 HZ SCT015 BKN100 26/18 Q1017 NOSIG	M
VOHY	2014-03-04 08:40	82.40	64.40	54.55	120.00	5.00	0.00	30.00	M	3.11	M	SCT	FEW	BKN	M	1500.00	2500.00	10000.00	M	HZ	M	M	M	M	M	M	83.98	VOHY 040840Z 12005KT 5000 HZ SCT015 FEW025CB BKN100 28/18 Q1016 NOSIG	M
VOHY	2014-03-04 11:40	66.20	62.60	88.18	40.00	10.00	0.00	30.00	M	1.86	M	SCT	FEW	BKN	M	1500.00	3000.00	8000.00	M	M	M	M	M	M	M	M	66.20	VOHY 041140Z 04010KT 3000 HZ/DZ SCT015 FEW030CB BKN080 19/17 Q1016 NOSIG	M
VOHY	2014-03-04 12:40	66.20	60.80	82.74	40.00	4.00	0.00	30.00	M	1.86	M	SCT	FEW	BKN	M	1500.00	3000.00	8000.00	M	-DZ	M	M	M	M	M	M	66.20	VOHY 041240Z 04004KT 3000 -DZ SCT015 FEW030CB BKN080 19/16 Q1016 NOSIG	M
VOHY	2014-03-04 13:40	66.20	60.80	82.74	80.00	5.00	0.00	30.03	M	1.86	M	SCT	BKN	M	M	1500.00	8000.00	M	M	HZ	M	M	M	M	M	M	66.20	VOHY 041340Z 08005KT 3000 HZ SCT015 BKN080 19/16 Q1017 NOSIG	M
VOHY	2014-03-04 14:40	66.20	60.80	82.74	70.00	5.00	0.00	30.06	M	1.86	M	SCT	M	M	M	1500.00	M	M	M	HZ	M	M	M	M	M	M	66.20	VOHY 041440Z 07005KT 3000 HZ SCT015 19/16 Q1018 NOSIG	M
VOHY	2014-03-04 15:40	64.40	59.00	82.62	70.00	5.00	0.00	30.06	M	1.86	M	FEW	SCT	M	M	2000.00	10000.00	M	M	HZ	M	M	M	M	M	M	64.40	VOHY 041540Z 07005KT 3000 HZ FEW020 SCT100 18/15 Q1018 NOSIG	M
VOHY	2014-03-05 00:40	64.40	60.80	88.09	0.00	0.00	0.00	30.06	M	1.86	M	SCT	SCT	BKN	M	1000.00	1500.00	8000.00	M	HZ	M	M	M	M	M	M	64.40	VOHY 050040Z 00000KT 3000 HZ SCT010 SCT015 BKN080 18/16 Q1018 NOSIG	M
VOHY	2014-03-05 07:40	78.80	62.60	57.60	160.00	4.00	0.00	30.03	M	3.11	M	SCT	BKN	M	M	1500.00	8000.00	M	M	HZ	M	M	M	M	M	M	80.31	VOHY 050740Z 16004KT 5000 HZ SCT015 BKN080 26/17 Q1017 NOSIG	M
VOHY	2014-03-05 08:40	80.60	60.80	50.95	100.00	4.00	0.00	30.00	M	3.11	M	SCT	SCT	M	M	1500.00	2000.00	M	M	HZ	M	M	M	M	M	M	81.46	VOHY 050840Z 10004KT 5000 HZ SCT015 SCT020 27/16 Q1016 NOSIG	M
VOHY	2014-03-05 09:40	80.60	57.20	44.80	80.00	6.00	0.00	29.97	M	3.11	M	SCT	BKN	M	M	1500.00	10000.00	M	M	HZ	M	M	M	M	M	M	80.81	VOHY 050940Z 08006KT 5000 HZ SCT015 BKN100 27/14 Q1015 NOSIG	M
VOHY	2014-03-05 10:40	80.60	59.00	47.79	100.00	9.00	0.00	29.97	M	3.11	M	SCT	SCT	M	M	1500.00	10000.00	M	M	HZ	M	M	M	M	M	M	81.11	VOHY 051040Z 10009KT 5000 HZ SCT015 SCT100 27/15 Q1015 NOSIG	M
VOHY	2014-03-05 12:40	77.00	59.00	53.80	120.00	11.00	0.00	29.97	M	2.49	M	SCT	FEW	BKN	M	1500.00	3000.00	10000.00	M	HZ	M	M	M	M	M	M	77.00	VOHY 051240Z 12011KT 4000 HZ SCT015 FEW030CB BKN100 25/15 Q1015 NOSIG	M
VOHY	2014-03-05 13:40	73.40	60.80	64.69	90.00	5.00	0.00	30.00	M	2.49	M	SCT	FEW	BKN	M	1500.00	3000.00	10000.00	M	HZ	M	M	M	M	M	M	73.40	VOHY 051340Z 09005KT 4000 HZ SCT015 FEW030CB BKN100 23/16 Q1016 NOSIG	M
VOHY	2014-03-05 14:40	71.60	60.80	68.75	90.00	3.00	0.00	30.00	M	2.49	M	SCT	SCT	M	M	1500.00	10000.00	M	M	HZ	M	M	M	M	M	M	71.60	VOHY 051440Z 09003KT 4000 HZ SCT015 SCT100 22/16 Q1016 NOSIG	M
VOHY	2014-03-05 15:40	71.60	60.80	68.75	100.00	4.00	0.00	30.03	M	2.49	M	SCT	SCT	M	M	1500.00	10000.00	M	M	HZ	M	M	M	M	M	M	71.60	VOHY 051540Z 10004KT 4000 HZ SCT015 SCT100 22/16 Q1017 NOSIG	M
VOHY	2014-03-06 00:40	68.00	62.60	82.86	120.00	5.00	0.00	30.03	M	1.86	M	SCT	SCT	BKN	M	1000.00	1500.00	10000.00	M	-DZ	M	M	M	M	M	M	68.00	VOHY 060040Z 12005KT 3000 -DZ SCT010 SCT015 BKN100 20/17 Q1017 NOSIG	M
VOHY	2014-03-06 01:40	68.00	62.60	82.86	110.00	4.00	0.00	30.03	M	1.86	M	SCT	SCT	BKN	M	1000.00	1500.00	10000.00	M	HZ	M	M	M	M	M	M	68.00	VOHY 060140Z 11004KT 3000 HZ SCT010 SCT015 BKN100 20/17 Q1017 BECMG 5000 HZ	M
VOHY	2014-03-06 03:40	71.60	64.40	78.04	150.00	5.00	0.00	30.09	M	2.49	M	SCT	SCT	BKN	M	1000.00	1500.00	10000.00	M	HZ	M	M	M	M	M	M	71.60	VOHY 060340Z 15005KT 4000 HZ SCT010 SCT015 BKN100 22/18 Q1019 NOSIG	M
VOHY	2014-03-06 04:40	73.40	66.20	78.19	130.00	3.00	0.00	30.09	M	2.49	M	SCT	SCT	BKN	M	1000.00	1500.00	10000.00	M	HZ	M	M	M	M	M	M	73.40	VOHY 060440Z 13003KT 4000 HZ SCT010 SCT015 BKN100 23/19 Q1019 NOSIG	M
VOHY	2014-03-06 05:40	75.20	64.40	69.14	190.00	8.00	0.00	30.09	M	2.49	M	SCT	SCT	BKN	M	1000.00	1500.00	10000.00	M	HZ	M	M	M	M	M	M	75.20	VOHY 060540Z 19008KT 4000 HZ SCT010 SCT015 BKN100 24/18 Q1019 NOSIG	M
VOHY	2014-03-06 06:40	75.20	62.60	64.91	170.00	6.00	0.00	30.06	M	2.49	M	SCT	SCT	BKN	M	1000.00	1500.00	10000.00	M	HZ	M	M	M	M	M	M	75.20	VOHY 060640Z 17006KT 4000 HZ SCT010 SCT015 BKN100 24/17 Q1018 NOSIG	M
VOHY	2014-03-06 07:40	75.20	62.60	64.91	170.00	5.00	0.00	30.03	M	2.49	M	SCT	SCT	BKN	M	1000.00	1500.00	10000.00	M	HZ	M	M	M	M	M	M	75.20	VOHY 060740Z 17005KT 4000 HZ SCT010 SCT015 BKN100 24/17 Q1017 NOSIG	M
VOHY	2014-03-06 09:40	82.40	62.60	51.21	150.00	3.00	0.00	29.97	M	3.11	M	FEW	SCT	M	M	2000.00	10000.00	M	M	HZ	M	M	M	M	M	M	83.41	VOHY 060940Z 15003KT 5000 HZ FEW020 SCT100 28/17 Q1015 NOSIG	M
VOHY	2014-03-06 10:40	80.60	60.80	50.95	80.00	8.00	0.00	29.97	M	3.11	M	FEW	SCT	M	M	2000.00	10000.00	M	M	HZ	M	M	M	M	M	M	81.46	VOHY 061040Z 08008KT 5000 HZ FEW020 SCT100 27/16 Q1015 NOSIG	M
VOHY	2014-03-06 11:40	78.80	62.60	57.60	80.00	6.00	0.00	29.97	M	3.11	M	FEW	SCT	M	M	2000.00	10000.00	M	M	HZ	M	M	M	M	M	M	80.31	VOHY 061140Z 08006KT 5000 HZ FEW020 SCT100 26/17 Q1015 NOSIG	M
VOHY	2014-03-06 12:40	77.00	62.60	61.13	M	2.00	0.00	29.97	M	3.11	M	FEW	M	M	M	10000.00	M	M	M	HZ	M	M	M	M	M	M	77.00	VOHY 061240Z VRB02KT 5000 HZ FEW100 25/17 Q1015 NOSIG	M
VOHY	2014-03-06 13:40	73.40	60.80	64.69	100.00	4.00	0.00	30.00	M	3.11	M	FEW	M	M	M	10000.00	M	M	M	HZ	M	M	M	M	M	M	73.40	VOHY 061340Z 10004KT 5000 HZ FEW100 23/16 Q1016 NOSIG	M
VOHY	2014-03-06 14:40	73.40	62.60	68.94	100.00	3.00	0.00	30.03	M	3.11	M	FEW	SCT	M	M	2000.00	10000.00	M	M	HZ	M	M	M	M	M	M	73.40	VOHY 061440Z 10003KT 5000 HZ FEW020 SCT100 23/17 Q1017 NOSIG	M
VOHY	2014-03-06 15:40	71.60	62.60	73.27	120.00	5.00	0.00	30.06	M	3.11	M	FEW	SCT	M	M	2000.00	10000.00	M	M	HZ	M	M	M	M	M	M	71.60	VOHY 061540Z 12005KT 5000 HZ FEW020 SCT100 22/17 Q1018 NOSIG	M
VOHY	2014-03-07 00:40	68.00	62.60	82.86	110.00	5.00	0.00	30.03	M	1.24	M	SCT	SCT	BKN	M	1000.00	2000.00	300000.00	M	BR	M	M	M	M	M	M	68.00	VOHY 070040Z 11005KT 2000 BR SCT010 SCT020 BKN3000 20/17 Q1017 NOSIG	M
VOHY	2014-03-07 01:40	68.00	62.60	82.86	110.00	4.00	0.00	30.06	M	1.24	M	SCT	SCT	BKN	M	1000.00	2000.00	10000.00	M	BR	M	M	M	M	M	M	68.00	VOHY 070140Z 11004KT 2000 BR SCT010 SCT020 BKN100 20/17 Q1018 NOSIG	M
VOHY	2014-03-07 03:40	73.40	64.40	73.44	M	2.00	0.00	30.09	M	1.86	M	SCT	BKN	M	M	1500.00	10000.00	M	M	HZ	M	M	M	M	M	M	73.40	VOHY 070340Z VRB02KT 3000 HZ SCT015 BKN100 23/18 Q1019 BECMG 5000 HZ	M
VOHY	2014-03-07 06:40	80.60	60.80	50.95	60.00	12.00	0.00	30.09	M	3.11	M	SCT	BKN	M	M	1500.00	20000.00	M	M	HZ	M	M	M	M	M	M	81.46	VOHY 070640Z 06012KT 5000 HZ SCT015 BKN200 27/16 Q1019 BECMG 6000	M
VOHY	2014-03-07 08:40	82.40	60.80	48.05	40.00	7.00	0.00	30.00	M	3.73	M	SCT	SCT	M	M	1500.00	2000.00	M	M	M	M	M	M	M	M	M	82.90	VOHY 070840Z 04007KT 6000 SCT015 SCT020 28/16 Q1016 NOSIG	M
VOHY	2014-03-07 09:40	84.20	60.80	45.34	60.00	9.00	0.00	30.00	M	3.73	M	SCT	SCT	FEW	M	2000.00	2500.00	3000.00	M	M	M	M	M	M	M	M	84.43	VOHY 070940Z 06009KT 6000 SCT020 SCT025 FEW030CB 29/16 Q1016 NOSIG	M
VOHY	2014-03-07 11:40	75.20	64.40	69.14	150.00	4.00	0.00	29.97	M	1.86	M	SCT	FEW	BKN	M	1500.00	2500.00	8000.00	M	-TSRA	M	M	M	M	M	M	75.20	VOHY 071140Z 15004KT 3000 -TSRA SCT015 ST020 FEW025CB BKN080 24/18 Q1015 NOSIG	M
VOHY	2014-03-07 14:40	75.20	62.60	64.91	0.00	0.00	0.00	30.06	M	2.49	M	SCT	SCT	M	M	1500.00	10000.00	M	M	HZ	M	M	M	M	M	M	75.20	VOHY 071440Z 00000KT 4000 HZ SCT015 SCT100 24/17 Q1018 NOSIG	M
VOHY	2014-03-07 15:40	73.40	62.60	68.94	0.00	0.00	0.00	30.06	M	2.49	M	SCT	SCT	M	M	1500.00	10000.00	M	M	HZ	M	M	M	M	M	M	73.40	VOHY 071540Z 00000KT 4000 HZ SCT015 SCT100 23/17 Q1018 NOSIG	M
VOHY	2014-03-08 00:40	69.80	60.80	73.09	0.00	0.00	0.00	30.06	M	1.86	M	SCT	SCT	OVC	M	1500.00	2000.00	8000.00	M	HZ	M	M	M	M	M	M	69.80	VOHY 080040Z 00000KT 3000 HZ SCT015 SCT020 OVC080 21/16 Q1018 NOSIG	M
VOHY	2014-03-08 01:40	69.80	62.60	77.90	0.00	0.00	0.00	30.09	M	1.86	M	SCT	SCT	OVC	M	1500.00	2000.00	8000.00	M	-DZ	M	M	M	M	M	M	69.80	VOHY 080140Z 00000KT 3000 -DZ SCT015 SCT020 OVC080 21/17 Q1019 NOSIG	M
VOHY	2014-03-08 02:40	69.80	62.60	77.90	0.00	0.00	0.00	30.12	M	1.86	M	SCT	SCT	OVC	M	1000.00	1500.00	8000.00	M	-DZ	M	M	M	M	M	M	69.80	VOHY 080240Z 00000KT 3000 -DZ SCT010 SCT015 OVC080 21/17 Q1020 NOSIG	M
VOHY	2014-03-08 03:40	71.60	64.40	78.04	0.00	0.00	0.00	30.15	M	1.86	M	SCT	SCT	OVC	M	1000.00	1500.00	8000.00	M	-DZ/HZ	M	M	M	M	M	M	71.60	VOHY 080340Z 00000KT 3000 -DZ/HZ SCT010 SCT015 OVC080 22/18 Q1021 NOSIG	M
VOHY	2014-03-08 06:40	84.20	64.40	51.47	90.00	3.00	0.00	30.09	M	3.73	M	SCT	BKN	M	M	2000.00	10000.00	M	M	M	M	M	M	M	M	M	85.71	VOHY 080640Z 09003KT 6000 SCT020 BKN100 29/18 Q1019 NOSIG	M
VOHY	2014-03-08 07:40	84.20	64.40	51.47	140.00	6.00	0.00	30.06	M	3.73	M	SCT	BKN	M	M	2000.00	10000.00	M	M	M	M	M	M	M	M	M	85.71	VOHY 080740Z 14006KT 6000 SCT020 BKN100 29/18 Q1018 NOSIG	M
VOHY	2014-03-08 08:40	84.20	62.60	48.32	110.00	6.00	0.00	30.03	M	3.73	M	SCT	BKN	M	M	2000.00	10000.00	M	M	M	M	M	M	M	M	M	85.03	VOHY 080840Z 11006KT 6000 SCT020 BKN100 29/17 Q1017 NOSIG	M
VOHY	2014-03-08 09:40	84.20	60.80	45.34	100.00	4.00	0.00	30.00	M	3.73	M	SCT	BKN	M	M	2000.00	10000.00	M	M	M	M	M	M	M	M	M	84.43	VOHY 080940Z 10004KT 6000 SCT020 BKN100 29/16 Q1016 NOSIG	M
VOHY	2014-03-08 11:40	82.40	55.40	39.58	70.00	6.00	0.00	29.97	M	3.73	M	FEW	SCT	M	M	2000.00	10000.00	M	M	M	M	M	M	M	M	M	82.40	VOHY 081140Z 07006KT 6000 FEW020 SCT100 28/13 Q1015 TEMPO 5000 HZ	M
VOHY	2014-03-08 13:40	78.80	55.40	44.52	120.00	3.00	0.00	30.03	M	3.11	M	NSC	M	M	M	M	M	M	M	HZ	M	M	M	M	M	M	78.80	VOHY 081340Z 12003KT 5000 HZ NSC 26/13 Q1017 NOSIG	M
VOHY	2014-03-08 14:40	77.00	57.20	50.43	100.00	4.00	0.00	30.06	M	3.11	M	NSC	M	M	M	M	M	M	M	HZ	M	M	M	M	M	M	77.00	VOHY 081440Z 10004KT 5000 HZ NSC 25/14 Q1018 NOSIG	M
VOHY	2014-03-08 15:40	77.00	59.00	53.80	110.00	6.00	0.00	30.09	M	3.11	M	NSC	M	M	M	M	M	M	M	HZ	M	M	M	M	M	M	77.00	VOHY 081540Z 11006KT 5000 HZ NSC 25/15 Q1019 NOSIG	M
VOHY	2014-03-09 00:40	66.20	59.00	77.60	60.00	6.00	0.00	30.09	M	1.24	M	FEW	BKN	M	M	2000.00	10000.00	M	M	BR	M	M	M	M	M	M	66.20	VOHY 090040Z 06006KT 2000 BR FEW020 BKN100 19/15 Q1019 NOSIG	M
VOHY	2014-03-09 03:40	73.40	59.00	60.67	90.00	8.00	0.00	30.12	M	3.11	M	FEW	SCT	M	M	2000.00	10000.00	M	M	HZ	M	M	M	M	M	M	73.40	VOHY 090340Z 09008KT 5000 HZ FEW020 SCT100 23/15 Q1020	M
VOHY	2014-03-09 04:40	77.00	59.00	53.80	100.00	7.00	0.00	30.12	M	3.11	M	FEW	BKN	M	M	2000.00	10000.00	M	M	HZ	M	M	M	M	M	M	77.00	VOHY 090440Z 10007KT 5000 HZ FEW020 BKN100 25/15 Q1020 NOSIG	M
VOHY	2014-03-09 06:40	80.60	59.00	47.79	160.00	5.00	0.00	30.09	M	3.73	M	FEW	BKN	M	M	2000.00	10000.00	M	M	M	M	M	M	M	M	M	81.11	VOHY 090640Z 16005KT 6000 FEW020 BKN100 27/15 Q1019 NOSIG	M
VOHY	2014-03-09 07:40	82.40	59.00	45.07	120.00	7.00	0.00	30.06	M	3.73	M	FEW	BKN	M	M	2000.00	10000.00	M	M	M	M	M	M	M	M	M	82.46	VOHY 090740Z 12007KT 6000 FEW020 BKN100 28/15 Q1018 NOSIG	M
VOHY	2014-03-09 08:40	84.20	55.40	37.35	100.00	5.00	0.00	30.03	M	3.73	M	SCT	BKN	M	M	2000.00	10000.00	M	M	M	M	M	M	M	M	M	83.09	VOHY 090840Z 10005KT 6000 SCT020 BKN100 29/13 Q1017 NOSIG	M
VOHY	2014-03-09 09:40	86.00	57.20	37.62	120.00	3.00	0.00	30.00	M	3.73	M	SCT	SCT	M	M	2000.00	10000.00	M	M	M	M	M	M	M	M	M	84.97	VOHY 090940Z 12003KT 6000 SCT020 SCT100 30/14 Q1016 NOSIG	M
VOHY	2014-03-09 10:40	87.80	55.40	33.29	0.00	0.00	0.00	29.97	M	3.73	M	SCT	SCT	M	M	2000.00	10000.00	M	M	M	M	M	M	M	M	M	86.11	VOHY 091040Z 00000KT 6000 SCT020 SCT100 31/13 Q1015 NOSIG	M
VOHY	2014-03-09 11:40	86.00	53.60	33.01	90.00	5.00	0.00	29.94	M	3.73	M	FEW	M	M	M	2000.00	M	M	M	M	M	M	M	M	M	M	84.18	VOHY 091140Z 09005KT 6000 FEW020 30/12 Q1014 NOSIG	M
VOHY	2014-03-09 13:40	78.80	55.40	44.52	90.00	4.00	0.00	29.97	M	3.11	M	SCT	SCT	M	M	2000.00	10000.00	M	M	HZ	M	M	M	M	M	M	78.80	VOHY 091340Z 09004KT 5000 HZ SCT020 SCT100 26/13 Q1015 NOSIG	M
VOHY	2014-03-09 14:40	77.00	57.20	50.43	70.00	5.00	0.00	30.00	M	3.11	M	SCT	SCT	M	M	2000.00	10000.00	M	M	HZ	M	M	M	M	M	M	77.00	VOHY 091440Z 07005KT 5000 HZ SCT020 SCT100 25/14 Q1016 NOSIG	M
VOHY	2014-03-10 00:40	68.00	62.60	82.86	90.00	4.00	0.00	30.06	M	1.24	M	FEW	M	M	M	2000.00	M	M	M	BR	M	M	M	M	M	M	68.00	VOHY 100040Z 09004KT 2000 BR FEW020 20/17 Q1018 NOSIG	M
VOHY	2014-03-10 01:40	68.00	62.60	82.86	70.00	10.00	0.00	30.09	M	1.24	M	SCT	SCT	M	M	1000.00	1500.00	M	M	BR	M	M	M	M	M	M	68.00	VOHY 100140Z 07010KT 2000 BR SCT010 SCT015 20/17 Q1019 NOSIG	M
VOHY	2014-03-10 02:40	M	M	M	90.00	7.00	0.00	30.12	M	1.24	M	SCT	SCT	BKN	M	1000.00	1500.00	10000.00	M	BR	M	M	M	M	M	M	M	VOHY 100240Z 09007KT 2000 BR SCT010 SCT015 BKN100 21 /17 Q1020 BECMG 3000 HZ	M
VOHY	2014-03-10 06:40	78.80	60.80	54.05	80.00	7.00	0.00	30.12	M	3.11	M	SCT	SCT	M	M	1500.00	2000.00	M	M	HZ	M	M	M	M	M	M	78.80	VOHY 100640Z 08007KT 5000 HZ SCT015 SCT020 26/16 Q1020 NOSIG	M
VOHY	2014-03-10 07:40	80.60	59.00	47.79	90.00	9.00	0.00	30.06	M	3.11	M	FEW	SCT	M	M	1500.00	2000.00	M	M	HZ	M	M	M	M	M	M	81.11	VOHY 100740Z 09009KT 5000 HZ FEW015 SCT020 27/15 Q1018 NOSIG	M
VOHY	2014-03-10 09:40	84.20	57.20	39.86	90.00	6.00	0.00	30.00	M	3.73	M	SCT	M	M	M	2000.00	M	M	M	M	M	M	M	M	M	M	84.20	VOHY 100940Z 09006KT 6000 SCT020 29/14 Q1016 NOSIG	M
VOHY	2014-03-10 10:40	84.20	53.60	34.97	100.00	9.00	0.00	30.00	M	3.73	M	SCT	BKN	M	M	2000.00	10000.00	M	M	M	M	M	M	M	M	M	82.76	VOHY 101040Z 10009KT 6000 SCT020 BKN100 29/12 Q1016 NOSIG	M
VOHY	2014-03-10 11:40	82.40	55.40	39.58	100.00	4.00	0.00	30.00	M	3.73	M	SCT	BKN	M	M	2000.00	10000.00	M	M	M	M	M	M	M	M	M	82.40	VOHY 101140Z 10004KT 6000 SCT020 BKN100 28/13 Q1016 NOSIG	M
VOHY	2014-03-10 13:40	78.80	55.40	44.52	80.00	7.00	0.00	30.00	M	3.11	M	SCT	M	M	M	10000.00	M	M	M	HZ	M	M	M	M	M	M	78.80	VOHY 101340Z 08007KT 5000 HZ SCT100 26/13 Q1016 NOSIG	M
VOHY	2014-03-10 14:40	77.00	57.20	50.43	110.00	6.00	0.00	30.03	M	3.11	M	SCT	M	M	M	10000.00	M	M	M	HZ	M	M	M	M	M	M	77.00	VOHY 101440Z 11006KT 5000 HZ SCT100 25/14 Q1017 NOSIG	M
VOHY	2014-03-10 15:40	77.00	59.00	53.80	130.00	5.00	0.00	30.06	M	3.11	M	FEW	M	M	M	2000.00	M	M	M	HZ	M	M	M	M	M	M	77.00	VOHY 101540Z 13005KT 5000 HZ FEW020 25/15 Q1018 NOSIG	M
VOHY	2014-03-11 00:40	69.80	55.40	60.21	0.00	0.00	0.00	30.03	M	1.24	M	BKN	M	M	M	20000.00	M	M	M	BR	M	M	M	M	M	M	69.80	VOHY 110040Z 00000KT 2000 BR BKN200 21/13 Q1017 NOSIG	M
VOHY	2014-03-11 03:40	80.60	51.80	36.79	140.00	6.00	0.00	30.09	M	3.11	M	SCT	M	M	M	20000.00	M	M	M	HZ	M	M	M	M	M	M	80.60	VOHY 110340Z 14006KT 5000 HZ SCT200 27/11 Q1019 NOSIG	M
VOHY	2014-03-11 05:40	87.80	48.20	25.52	120.00	4.00	0.00	30.09	M	3.73	M	FEW	M	M	M	20000.00	M	M	M	M	M	M	M	M	M	M	84.87	VOHY 110540Z 12004KT 6000 FEW200 31/09 Q1019 NOSIG	M
VOHY	2014-03-11 06:40	89.60	50.00	25.79	130.00	5.00	0.00	30.06	M	3.73	M	FEW	M	M	M	20000.00	M	M	M	M	M	M	M	M	M	M	86.70	VOHY 110640Z 13005KT 6000 FEW200 32/10 Q1018 NOSIG	M
VOHY	2014-03-11 07:40	91.40	51.80	26.05	90.00	3.00	0.00	30.03	M	3.73	M	NSC	M	M	M	M	M	M	M	M	M	M	M	M	M	M	88.69	VOHY 110740Z 09003KT 6000 NSC 33/11 Q1017 NOSIG	M
VOHY	2014-03-11 08:40	95.00	53.60	24.89	170.00	5.00	0.00	30.00	M	3.73	M	FEW	SCT	M	M	2000.00	20000.00	M	M	M	M	M	M	M	M	M	92.71	VOHY 110840Z 17005KT 6000 FEW020 SCT200 35/12 Q1016 NOSIG	M
VOHY	2014-03-11 09:40	93.20	53.60	26.31	110.00	9.00	0.00	29.97	M	3.73	M	FEW	BKN	M	M	2000.00	20000.00	M	M	M	M	M	M	M	M	M	90.86	VOHY 110940Z 11009KT 6000 FEW020 BKN200 34/12 Q1015 NOSIG	M
VOHY	2014-03-11 10:40	91.40	57.20	31.72	60.00	6.00	0.00	29.97	M	3.73	M	FEW	SCT	M	M	2000.00	10000.00	M	M	M	M	M	M	M	M	M	90.06	VOHY 111040Z 06006KT 6000 FEW020 SCT100 33/14 Q1015 NOSIG	M
VOHY	2014-03-11 11:40	87.80	59.00	37.90	160.00	6.00	0.00	29.97	M	3.73	M	FEW	BKN	M	M	2000.00	10000.00	M	M	M	M	M	M	M	M	M	87.80	VOHY 111140Z 16006KT 6000 FEW020 BKN100 31/15 Q1015 NOSIG	M
VOHY	2014-03-11 13:40	82.40	59.00	45.07	100.00	5.00	0.00	30.00	M	3.11	M	FEW	BKN	M	M	2000.00	10000.00	M	M	HZ	M	M	M	M	M	M	82.46	VOHY 111340Z 10005KT 5000 HZ FEW020 BKN100 28/15 Q1016 NOSIG	M
VOHY	2014-03-11 14:40	80.60	60.80	50.95	120.00	8.00	0.00	30.03	M	3.11	M	FEW	BKN	M	M	2000.00	10000.00	M	M	HZ	M	M	M	M	M	M	81.46	VOHY 111440Z 12008KT 5000 HZ FEW020 BKN100 27/16 Q1017 NOSIG	M
VOHY	2014-03-11 15:40	78.80	59.00	50.69	120.00	8.00	0.00	30.06	M	3.11	M	FEW	BKN	M	M	2000.00	10000.00	M	M	HZ	M	M	M	M	M	M	78.80	VOHY 111540Z 12008KT 5000 HZ FEW020 BKN100 26/15 Q1018 NOSIG	M
VOHY	2014-03-12 00:40	69.80	53.60	56.38	70.00	4.00	0.00	30.03	M	1.86	M	SCT	BKN	M	M	1500.00	10000.00	M	M	HZ	M	M	M	M	M	M	69.80	VOHY 120040Z 07004KT 3000 HZ SCT015 BKN100 21/12 Q1017 NOSIG	M
VOHY	2014-03-12 01:40	69.80	55.40	60.21	0.00	0.00	0.00	30.06	M	1.86	M	FEW	BKN	M	M	1500.00	20000.00	M	M	HZ	M	M	M	M	M	M	69.80	VOHY 120140Z 00000KT 3000 HZ FEW015 BKN200 21/13 Q1018 NOSIG	M
VOHY	2014-03-12 05:40	86.00	55.40	35.25	140.00	5.00	0.00	30.12	M	3.73	M	FEW	BKN	M	M	2000.00	20000.00	M	M	M	M	M	M	M	M	M	84.54	VOHY 120540Z 14005KT 6000 FEW020 BKN200 30/13 Q1020 NOSIG	M
VOHY	2014-03-12 06:40	89.60	55.40	31.45	210.00	7.00	0.00	30.09	M	3.73	M	FEW	BKN	M	M	2000.00	20000.00	M	M	M	M	M	M	M	M	M	87.78	VOHY 120640Z 21007KT 6000 FEW020 BKN200 32/13 Q1019 NOSIG	M
VOHY	2014-03-12 07:40	89.60	53.60	29.45	130.00	4.00	0.00	30.06	M	3.73	M	FEW	BKN	M	M	2000.00	20000.00	M	M	M	M	M	M	M	M	M	87.36	VOHY 120740Z 13004KT 6000 FEW020 BKN200 32/12 Q1018 NOSIG	M
VOHY	2014-03-12 08:40	91.40	55.40	29.72	120.00	4.00	0.00	30.00	M	3.73	M	FEW	BKN	M	M	2000.00	20000.00	M	M	M	M	M	M	M	M	M	89.53	VOHY 120840Z 12004KT 6000 FEW020 BKN200 33/13 Q1016 NOSIG	M
VOHY	2014-03-12 09:40	89.60	55.40	31.45	110.00	7.00	0.00	30.00	M	3.73	M	SCT	BKN	M	M	2000.00	20000.00	M	M	M	M	M	M	M	M	M	87.78	VOHY 120940Z 11007KT 6000 SCT020 BKN200 32/13 Q1016 NOSIG	M
VOHY	2014-03-12 10:40	89.60	55.40	31.45	120.00	8.00	0.00	29.97	M	3.73	M	SCT	BKN	M	M	2000.00	20000.00	M	M	M	M	M	M	M	M	M	87.78	VOHY 121040Z 12008KT 6000 SCT020 BKN200 32/13 Q1015 NOSIG	M
VOHY	2014-03-12 12:40	82.40	59.00	45.07	90.00	7.00	0.00	30.00	M	3.11	M	SCT	BKN	M	M	2000.00	20000.00	M	M	HZ	M	M	M	M	M	M	82.46	VOHY 121240Z 09007KT 5000 HZ SCT020 BKN200 28/15 Q1016 NOSIG	M
VOHY	2014-03-12 13:40	80.60	59.00	47.79	100.00	7.00	0.00	30.03	M	3.11	M	SCT	BKN	M	M	2000.00	20000.00	M	M	HZ	M	M	M	M	M	M	81.11	VOHY 121340Z 10007KT 5000 HZ SCT020 BKN200 27/15 Q1017 NOSIG	M
VOHY	2014-03-12 14:40	78.80	59.00	50.69	100.00	6.00	0.00	30.03	M	3.11	M	FEW	BKN	M	M	2000.00	20000.00	M	M	HZ	M	M	M	M	M	M	78.80	VOHY 121440Z 10006KT 5000 HZ FEW020 BKN200 26/15 Q1017 NOSIG	M
VOHY	2014-03-12 15:40	78.80	59.00	50.69	100.00	8.00	0.00	30.06	M	3.11	M	FEW	SCT	M	M	2000.00	20000.00	M	M	HZ	M	M	M	M	M	M	78.80	VOHY 121540Z 10008KT 5000 HZ FEW020 SCT200 26/15 Q1018 NOSIG	M
VOHY	2014-03-13 00:40	71.60	59.00	64.48	0.00	0.00	0.00	30.03	M	2.49	M	SCT	BKN	M	M	2000.00	10000.00	M	M	HZ	M	M	M	M	M	M	71.60	VOHY 130040Z 00000KT 4000 HZ SCT020 BKN100 22/15 Q1017 NOSIG	M
VOHY	2014-03-13 01:40	69.80	59.00	68.55	0.00	0.00	0.00	30.06	M	2.49	M	SCT	BKN	M	M	2000.00	10000.00	M	M	HZ	M	M	M	M	M	M	69.80	VOHY 130140Z 00000KT 4000 HZ SCT020 BKN100 21/15 Q1018 NOSIG	M
VOHY	2014-03-13 04:40	84.20	53.60	34.97	90.00	4.00	0.00	30.12	M	3.73	M	FEW	SCT	M	M	2000.00	20000.00	M	M	M	M	M	M	M	M	M	82.76	VOHY 130440Z 09004KT 6000 FEW020 SCT200 29/12 Q1020 NOSIG	M
VOHY	2014-03-13 05:40	87.80	51.80	29.18	70.00	3.00	0.00	30.12	M	3.73	M	FEW	M	M	M	2000.00	M	M	M	M	M	M	M	M	M	M	85.39	VOHY 130540Z 07003KT 6000 FEW020 31/11 Q1020 NOSIG	M
VOHY	2014-03-13 06:40	89.60	51.80	27.56	60.00	3.00	0.00	30.09	M	3.73	M	FEW	M	M	M	2000.00	M	M	M	M	M	M	M	M	M	M	87.00	VOHY 130640Z 06003KT 6000 FEW020 32/11 Q1019 NOSIG	M
VOHY	2014-03-13 07:40	93.20	48.20	21.54	170.00	4.00	0.00	30.03	M	3.73	M	FEW	M	M	M	2000.00	M	M	M	M	M	M	M	M	M	M	89.80	VOHY 130740Z 17004KT 6000 FEW020 34/09 Q1017 NOSIG	M
VOHY	2014-03-13 08:40	95.00	46.40	19.04	170.00	4.00	0.00	30.00	M	3.73	M	FEW	M	M	M	2000.00	M	M	M	M	M	M	M	M	M	M	91.29	VOHY 130840Z 17004KT 6000 FEW020 35/08 Q1016 NOSIG	M
VOHY	2014-03-13 09:40	93.20	46.40	20.13	160.00	5.00	0.00	30.00	M	3.73	M	FEW	M	M	M	2000.00	M	M	M	M	M	M	M	M	M	M	89.55	VOHY 130940Z 16005KT 6000 FEW020 34/08 Q1016 NOSIG	M
VOHY	2014-03-13 10:40	93.20	46.40	20.13	120.00	5.00	0.00	29.97	M	3.73	M	FEW	M	M	M	2000.00	M	M	M	M	M	M	M	M	M	M	89.55	VOHY 131040Z 12005KT 6000 FEW020 34/08 Q1015 NOSIG	M
VOHY	2014-03-13 11:40	89.60	48.20	24.11	90.00	5.00	0.00	29.97	M	3.73	M	FEW	M	M	M	2000.00	M	M	M	M	M	M	M	M	M	M	86.44	VOHY 131140Z 09005KT 6000 FEW020 32/09 Q1015 NOSIG	M
VOHY	2014-03-13 12:40	87.80	48.20	25.52	110.00	5.00	0.00	29.97	M	3.73	M	FEW	M	M	M	2000.00	M	M	M	M	M	M	M	M	M	M	84.87	VOHY 131240Z 11005KT 6000 FEW020 31/09 Q1015 NOSIG	M
VOHY	2014-03-13 14:40	82.40	48.20	30.35	110.00	6.00	0.00	30.00	M	3.11	M	M	M	M	M	M	M	M	M	HZ	M	M	M	M	M	M	80.80	VOHY 131440Z 11006KT 5000 HZ 28/09 Q1016 NOSIG	M
VOHY	2014-03-13 15:40	80.60	48.20	32.18	110.00	2.00	0.00	30.06	M	3.11	M	M	M	M	M	M	M	M	M	HZ	M	M	M	M	M	M	80.60	VOHY 131540Z 11002KT 5000 HZ 27/09 Q1018 NOSIG	M
VOHY	2014-03-14 00:40	64.40	53.60	67.95	0.00	0.00	0.00	30.03	M	1.24	M	NSC	M	M	M	M	M	M	M	BR	M	M	M	M	M	M	64.40	VOHY 140040Z 00000KT 2000 BR NSC 18/12 Q1017 NOSIG	M
VOHY	2014-03-14 04:40	87.80	57.20	35.53	0.00	0.00	0.00	30.12	M	3.73	M	NSC	M	M	M	M	M	M	M	M	M	M	M	M	M	M	86.58	VOHY 140440Z 00000KT 6000 NSC 31/14 Q1020 NOSIG	M
VOHY	2014-03-14 05:40	89.60	57.20	33.56	80.00	7.00	0.00	30.09	M	3.73	M	NSC	M	M	M	M	M	M	M	M	M	M	M	M	M	M	88.28	VOHY 140540Z 08007KT 6000 NSC 32/14 Q1019 NOSIG	M
VOHY	2014-03-14 07:40	93.20	55.40	28.10	80.00	10.00	0.00	30.00	M	3.73	M	NSC	M	M	M	M	M	M	M	M	M	M	M	M	M	M	91.35	VOHY 140740Z 08010KT 6000 NSC 34/13 Q1016 NOSIG	M
VOHY	2014-03-14 08:40	93.20	55.40	28.10	130.00	8.00	0.00	29.97	M	3.73	M	FEW	M	M	M	2500.00	M	M	M	M	M	M	M	M	M	M	91.35	VOHY 140840Z 13008KT 6000 FEW025 34/13 Q1015 NOSIG	M
VOHY	2014-03-14 09:40	95.00	55.40	26.58	110.00	8.00	0.00	29.94	M	3.73	M	FEW	M	M	M	2500.00	M	M	M	M	M	M	M	M	M	M	93.22	VOHY 140940Z 11008KT 6000 FEW025 35/13 Q1014 NOSIG	M
VOHY	2014-03-14 10:40	93.20	53.60	26.31	90.00	6.00	0.00	29.94	M	3.73	M	FEW	M	M	M	2500.00	M	M	M	M	M	M	M	M	M	M	90.86	VOHY 141040Z 09006KT 6000 FEW025 34/12 Q1014 NOSIG	M
VOHY	2014-03-14 11:40	93.20	51.80	24.63	90.00	3.00	0.00	29.94	M	3.73	M	FEW	M	M	M	2500.00	M	M	M	M	M	M	M	M	M	M	90.45	VOHY 141140Z 09003KT 6000 FEW025 34/11 Q1014 NOSIG	M
VOHY	2014-03-14 13:40	87.80	57.20	35.53	0.00	0.00	0.00	30.00	M	3.11	M	FEW	M	M	M	2000.00	M	M	M	HZ	M	M	M	M	M	M	86.58	VOHY 141340Z 00000KT 5000 HZ FEW020 31/14 Q1016 NOSIG	M
VOHY	2014-03-14 14:40	84.20	55.40	37.35	0.00	0.00	0.00	30.03	M	3.11	M	FEW	M	M	M	2000.00	M	M	M	HZ	M	M	M	M	M	M	83.09	VOHY 141440Z 00000KT 5000 HZ FEW020 29/13 Q1017 NOSIG	M
VOHY	2014-03-14 15:40	82.40	55.40	39.58	M	4.00	0.00	30.06	M	3.11	M	FEW	M	M	M	2000.00	M	M	M	HZ	M	M	M	M	M	M	82.40	VOHY 141540Z VRB04KT 5000 HZ FEW020 28/13 Q1018 NOSIG	M
VOHY	2014-03-15 00:40	68.00	55.40	64.04	0.00	0.00	0.00	30.03	M	1.86	M	NSC	M	M	M	M	M	M	M	HZ	M	M	M	M	M	M	68.00	VOHY 150040Z 00000KT 3000 HZ NSC 20/13 Q1017 NOSIG	M
VOHY	2014-03-15 01:40	69.80	55.40	60.21	0.00	0.00	0.00	30.06	M	1.86	M	NSC	M	M	M	M	M	M	M	HZ	M	M	M	M	M	M	69.80	VOHY 150140Z 00000KT 3000 HZ NSC 21/13 Q1018 NOSIG	M
VOHY	2014-03-15 04:40	93.20	51.80	24.63	130.00	6.00	0.00	30.15	M	3.11	M	NSC	M	M	M	M	M	M	M	HZ	M	M	M	M	M	M	90.45	VOHY 150440Z 13006KT 5000 HZ NSC 34/11 Q1021 NOSIG	M
VOHY	2014-03-15 06:40	96.80	53.60	23.55	150.00	3.00	0.00	30.09	M	3.73	M	NSC	M	M	M	M	M	M	M	M	M	M	M	M	M	M	94.59	VOHY 150640Z 150003KT 6000 NSC 36/12 Q1019 NOSIG	M
VOHY	2014-03-15 07:40	98.60	53.60	22.29	80.00	3.00	0.00	30.06	M	3.73	M	NSC	M	M	M	M	M	M	M	M	M	M	M	M	M	M	96.51	VOHY 150740Z 08003KT 6000 NSC 37/12 Q1018 NOSIG	M
VOHY	2014-03-15 08:40	98.60	50.00	19.52	80.00	6.00	0.00	30.03	M	3.73	M	NSC	M	M	M	M	M	M	M	M	M	M	M	M	M	M	95.56	VOHY 150840Z 08006KT 6000 NSC 37/10 Q1017 NOSIG	M
VOHY	2014-03-15 09:40	95.00	50.00	21.79	90.00	6.00	0.00	30.00	M	3.73	M	NSC	M	M	M	M	M	M	M	M	M	M	M	M	M	M	91.89	VOHY 150940Z 09006KT 6000 NSC 35/10 Q1016 NOSIG	M
VOHY	2014-03-15 10:40	95.00	50.00	21.79	70.00	4.00	0.00	30.00	M	3.73	M	NSC	M	M	M	M	M	M	M	M	M	M	M	M	M	M	91.89	VOHY 151040Z 07004KT 6000 NSC 35/10 Q1016 NOSIG	M
VOHY	2014-03-15 11:40	93.20	50.00	23.04	70.00	3.00	0.00	30.00	M	3.73	M	NSC	M	M	M	M	M	M	M	M	M	M	M	M	M	M	90.10	VOHY 151140Z 07003KT 6000 NSC 34/10 Q1016 NOSIG	M
VOHY	2014-03-15 12:40	89.60	50.00	25.79	0.00	0.00	0.00	30.03	M	3.73	M	FEW	SCT	M	M	2000.00	2500.00	M	M	M	M	M	M	M	M	M	86.70	VOHY 151240Z 00000KT 6000 FEW020 SCT025 32/10 Q1017 TEMPO 5000 HZ	M
VOHY	2014-03-15 13:40	87.80	51.80	29.18	100.00	4.00	0.00	30.06	M	3.73	M	FEW	M	M	M	2000.00	M	M	M	M	M	M	M	M	M	M	85.39	VOHY 151340Z 10004KT 6000 FEW020 31/11 Q1018	M
VOHY	2014-03-15 14:40	86.00	51.80	30.90	100.00	6.00	0.00	30.09	M	3.73	M	FEW	M	M	M	2000.00	M	M	M	M	M	M	M	M	M	M	83.87	VOHY 151440Z 10006KT 6000 FEW020 30/11 Q1019	M
VOHY	2014-03-15 15:40	84.20	51.80	32.73	0.00	0.00	0.00	30.09	M	3.73	M	NSC	M	M	M	M	M	M	M	M	M	M	M	M	M	M	82.48	VOHY 151540Z 00000KT 6000 NSC 29/11 Q1019	M
VOHY	2014-03-15 19:40	73.40	57.20	56.88	0.00	0.00	0.00	30.09	M	3.11	M	SCT	M	M	M	2000.00	M	M	M	HZ	M	M	M	M	M	M	73.40	VOHY 151940Z 00000KT 5000 HZ SCT020 23/14 Q1019 NOSIG	M
VOHY	2014-03-16 00:40	69.80	57.20	64.26	0.00	0.00	0.00	30.09	M	1.24	M	NSC	M	M	M	M	M	M	M	BR	M	M	M	M	M	M	69.80	VOHY 160040Z 00000KT 2000 BR NSC 21/14 Q1019 NOSIG	M
VOHY	2014-03-16 02:40	80.60	59.00	47.79	0.00	0.00	0.00	30.15	M	1.86	M	NSC	M	M	M	M	M	M	M	HZ	M	M	M	M	M	M	81.11	VOHY 160240Z 00000KT 3000 HZ NSC 27/15 Q1021 NOSIG	M
VOHY	2014-03-16 04:40	91.40	59.00	33.84	0.00	0.00	0.00	30.18	M	3.11	M	NSC	M	M	M	M	M	M	M	HZ	M	M	M	M	M	M	91.40	VOHY 160440Z 00000KT 5000 HZ NSC 33/15 Q1022 NOSIG	M
VOHY	2014-03-16 06:40	95.00	53.60	24.89	80.00	5.00	0.00	30.12	M	3.73	M	FEW	M	M	M	2000.00	M	M	M	M	M	M	M	M	M	M	92.71	VOHY 160640Z 08005KT 6000 FEW020 35/12 Q1020 NOSIG	M
VOHY	2014-03-16 07:40	96.80	55.40	25.15	180.00	3.00	0.00	30.09	M	3.73	M	FEW	M	M	M	2000.00	M	M	M	M	M	M	M	M	M	M	95.14	VOHY 160740Z 18003KT 6000 FEW020 36/13 Q1019 NOSIG	M
VOHY	2014-03-16 08:40	96.80	51.80	22.04	130.00	3.00	0.00	30.03	M	3.73	M	FEW	SCT	M	M	2000.00	2500.00	M	M	M	M	M	M	M	M	M	94.12	VOHY 160840Z 13003KT 6000 FEW020 SCT025 36/11 Q1017 NOSIG	M
VOHY	2014-03-16 09:40	96.80	53.60	23.55	70.00	6.00	0.00	30.03	M	3.73	M	FEW	SCT	M	M	2000.00	2500.00	M	M	M	M	M	M	M	M	M	94.59	VOHY 160940Z 07006KT 6000 FEW020 SCT025 36/12 Q1017 NOSIG	M
VOHY	2014-03-16 11:40	95.00	51.80	23.30	100.00	7.00	0.00	30.00	M	3.73	M	FEW	SCT	M	M	2000.00	2500.00	M	M	M	M	M	M	M	M	M	92.26	VOHY 161140Z 10007KT 6000 FEW020 SCT025 35/11 Q1016 NOSIG	M
VOHY	2014-03-16 12:40	91.40	51.80	26.05	90.00	4.00	0.00	30.03	M	3.73	M	FEW	SCT	M	M	2000.00	2500.00	M	M	M	M	M	M	M	M	M	88.69	VOHY 161240Z 09004KT 6000 FEW020 SCT025 33/11 Q1017 NOSIG	M
VOHY	2014-03-16 14:40	86.00	51.80	30.90	0.00	0.00	0.00	30.06	M	3.11	M	FEW	M	M	M	2000.00	M	M	M	M	M	M	M	M	M	M	83.87	VOHY 161440Z 00000KT 5000 FEW020 30/11 Q1018 NOSIG	M
VOHY	2014-03-16 15:40	84.20	53.60	34.97	80.00	3.00	0.00	30.09	M	3.11	M	NSC	M	M	M	M	M	M	M	M	M	M	M	M	M	M	82.76	VOHY 161540Z 08003KT 5000 NSC 29/12 Q1019 NOSIG	M
VOHY	2014-03-16 16:40	80.60	55.40	41.97	0.00	0.00	0.00	30.09	M	3.11	M	NSC	M	M	M	M	M	M	M	HZ	M	M	M	M	M	M	80.53	VOHY 161640Z 00000KT 5000 HZ NSC 27/13 Q1019 NOSIG	M
VOHY	2014-03-16 17:40	78.80	55.40	44.52	0.00	0.00	0.00	30.09	M	3.11	M	NSC	M	M	M	M	M	M	M	HZ	M	M	M	M	M	M	78.80	VOHY 161740Z 00000KT 5000 HZ NSC 26/13 Q1019 NOSIG	M
VOHY	2014-03-16 18:40	75.20	57.20	53.55	0.00	0.00	0.00	30.06	M	3.11	M	NSC	M	M	M	M	M	M	M	HZ	M	M	M	M	M	M	75.20	VOHY 161840Z 00000KT 5000 HZ NSC 24/14 Q1018 NOSIG	M
VOHY	2014-03-16 19:40	73.40	57.20	56.88	0.00	0.00	0.00	30.06	M	3.11	M	NSC	M	M	M	M	M	M	M	HZ	M	M	M	M	M	M	73.40	VOHY 161940Z 00000KT 5000 HZ NSC 23/14 Q1018 NOSIG	M
VOHY	2014-03-16 20:40	71.60	57.20	60.44	0.00	0.00	0.00	30.03	M	3.11	M	NSC	M	M	M	M	M	M	M	HZ	M	M	M	M	M	M	71.60	VOHY 162040Z 00000KT 5000 HZ NSC 22/14 Q1017 NOSIG	M
VOHY	2014-03-16 23:40	68.00	59.00	72.92	0.00	0.00	0.00	30.03	M	3.11	M	NSC	M	M	M	M	M	M	M	HZ	M	M	M	M	M	M	68.00	VOHY 162340Z 00000KT 5000 HZ NSC 20/15 Q1017 NOSIG	M
VOHY	2014-03-17 01:40	69.80	59.00	68.55	0.00	0.00	0.00	30.06	M	1.86	M	NSC	M	M	M	M	M	M	M	HZ	M	M	M	M	M	M	69.80	VOHY 170140Z 00000KT 3000 HZ NSC 21/15 Q1018 NOSIG	M
VOHY	2014-03-17 02:40	82.40	60.80	48.05	0.00	0.00	0.00	30.09	M	1.86	M	NSC	M	M	M	M	M	M	M	HZ	M	M	M	M	M	M	82.90	VOHY 170240Z 00000KT 3000 HZ NSC 28/16 Q1019 BECMG 4000	M
VOHY	2014-03-17 06:40	98.60	50.00	19.52	140.00	3.00	0.00	30.06	M	3.73	M	FEW	FEW	M	M	2000.00	20000.00	M	M	M	M	M	M	M	M	M	95.56	VOHY 170640Z 14003KT 6000 FEW020 FEW200 37/10 Q1018 NOSIG	M
VOHY	2014-03-17 07:40	98.60	51.80	20.87	0.00	0.00	0.00	30.03	M	3.73	M	FEW	FEW	FEW	M	2000.00	2500.00	20000.00	M	M	M	M	M	M	M	M	96.00	VOHY 170740Z 00000KT 6000 FEW020 FEW025 FEW200 37/11 Q1017 NOSIG	M
VOHY	2014-03-17 08:40	98.60	50.00	19.52	120.00	3.00	0.00	30.00	M	3.73	M	SCT	M	M	M	2000.00	M	M	M	M	M	M	M	M	M	M	95.56	VOHY 170840Z 12003KT 6000 SCT020 37/10 Q1016 NOSIG	M
VOHY	2014-03-17 10:40	98.60	48.20	18.25	260.00	3.00	0.00	29.97	M	3.73	M	SCT	M	M	M	2000.00	M	M	M	M	M	M	M	M	M	M	95.17	VOHY 171040Z 26003KT 6000 SCT020 37/09 Q1015 NOSIG	M
VOHY	2014-03-17 11:40	95.00	50.00	21.79	140.00	3.00	0.00	29.97	M	3.73	M	SCT	M	M	M	2000.00	M	M	M	M	M	M	M	M	M	M	91.89	VOHY 171140Z 14003KT 6000 SCT020 35/10 Q1015 NOSIG	M
VOHY	2014-03-17 12:40	91.40	50.00	24.37	120.00	2.00	0.00	29.97	M	3.73	M	FEW	M	M	M	2000.00	M	M	M	M	M	M	M	M	M	M	88.36	VOHY 171240Z 12002KT 6000 FEW020 33/10 Q1015 NOSIG	M
VOHY	2014-03-17 13:40	87.80	51.80	29.18	120.00	2.00	0.00	30.00	M	3.73	M	FEW	M	M	M	2000.00	M	M	M	M	M	M	M	M	M	M	85.39	VOHY 171340Z 12002KT 6000 FEW020 31/11 Q1016 TEMPO 5000 HZ	M
VOHY	2014-03-17 15:40	86.00	51.80	30.90	0.00	0.00	0.00	30.06	M	3.11	M	FEW	M	M	M	2000.00	M	M	M	HZ	M	M	M	M	M	M	83.87	VOHY 171540Z 00000KT 5000 HZ FEW020 30/11 Q1018 NOSIG	M
VOHY	2014-03-18 00:40	71.60	57.20	60.44	0.00	0.00	0.00	30.03	M	1.86	M	NSC	M	M	M	M	M	M	M	HZ	M	M	M	M	M	M	71.60	VOHY 180040Z 00000KT 3000 HZ NSC 22/14 Q1017 NOSIG	M
VOHY	2014-03-18 05:40	98.60	53.60	22.29	170.00	4.00	0.00	30.09	M	3.73	M	NSC	M	M	M	M	M	M	M	M	M	M	M	M	M	M	96.51	VOHY 180540Z 17004KT 6000 NSC 37/12 Q1019 NOSIG	M
VOHY	2014-03-18 06:40	100.40	48.20	17.28	90.00	6.00	0.00	30.06	M	3.73	M	NSC	M	M	M	M	M	M	M	M	M	M	M	M	M	M	97.00	VOHY 180640Z 09006KT 6000 NSC 38/09 Q1018 NOSIG	M
VOHY	2014-03-18 07:40	100.40	46.40	16.15	0.00	0.00	0.00	30.03	M	3.73	M	NSC	M	M	M	M	M	M	M	M	M	M	M	M	M	M	96.63	VOHY 180740Z 00000KT 6000 NSC 38/08 Q1017 NOSIG	M
VOHY	2014-03-18 08:40	98.60	42.80	14.87	0.00	0.00	0.00	30.00	M	3.73	M	FEW	M	M	M	2000.00	M	M	M	M	M	M	M	M	M	M	94.30	VOHY 180840Z 00000KT 6000 FEW020 37/06 Q1016 NOSIG	M
VOHY	2014-03-18 09:40	100.40	44.60	15.08	0.00	0.00	0.00	29.97	M	3.73	M	FEW	M	M	M	2000.00	M	M	M	M	M	M	M	M	M	M	96.31	VOHY 180940Z 00000KT 6000 FEW020 38/07 Q1015 NOSIG	M
VOHY	2014-03-18 10:40	98.60	42.80	14.87	90.00	6.00	0.00	29.94	M	3.73	M	FEW	M	M	M	2000.00	M	M	M	M	M	M	M	M	M	M	94.30	VOHY 181040Z 09006KT 6000 FEW020 37/06 Q1014 NOSIG	M
VOHY	2014-03-18 11:40	96.80	42.80	15.71	70.00	6.00	0.00	29.94	M	3.73	M	NSC	M	M	M	M	M	M	M	M	M	M	M	M	M	M	92.57	VOHY 181140Z 07006KT 6000 NSC 36/06 Q1014 NOSIG	M
VOHY	2014-03-18 12:40	93.20	42.80	17.55	90.00	3.00	0.00	29.97	M	3.73	M	FEW	M	M	M	2000.00	M	M	M	M	M	M	M	M	M	M	89.17	VOHY 181240Z 09003KT 6000 FEW020 34/06 Q1015 NOSIG	M
VOHY	2014-03-18 13:40	89.60	48.20	24.11	110.00	3.00	0.00	29.97	M	3.73	M	NSC	M	M	M	M	M	M	M	M	M	M	M	M	M	M	86.44	VOHY 181340Z 11003KT 6000 NSC 32/09 Q1015 NOSIG	M
VOHY	2014-03-18 14:40	87.80	50.00	27.29	100.00	3.00	0.00	30.00	M	3.73	M	NSC	M	M	M	M	M	M	M	M	M	M	M	M	M	M	85.11	VOHY 181440Z 10003KT 6000 NSC 31/10 Q1016 NOSIG	M
VOHY	2014-03-18 15:40	86.00	50.00	28.90	90.00	4.00	0.00	30.03	M	3.73	M	NSC	M	M	M	M	M	M	M	M	M	M	M	M	M	M	83.62	VOHY 181540Z 09004KT 6000 NSC 30/10 Q1017 NOSIG	M
VOHY	2014-03-19 00:40	68.00	53.60	59.97	0.00	0.00	0.00	30.00	M	1.86	M	FEW	SCT	M	M	2000.00	10000.00	M	M	HZ	M	M	M	M	M	M	68.00	VOHY 190040Z 00000KT 3000 HZ FEW020 SCT100 20/12 Q1016 NOSIG	M
VOHY	2014-03-19 01:40	73.40	50.00	43.69	0.00	0.00	0.00	30.00	M	1.86	M	FEW	SCT	M	M	2000.00	10000.00	M	M	HZ	M	M	M	M	M	M	73.40	VOHY 190140Z 00000KT 3000 HZ FEW020 SCT100 23/10 Q1016 NOSIG	M
VOHY	2014-03-19 03:40	89.60	50.00	25.79	0.00	0.00	0.00	30.06	M	2.49	M	FEW	M	M	M	2000.00	M	M	M	HZ	M	M	M	M	M	M	86.70	VOHY 190340Z 00000KT 4000 HZ FEW020 32/10 Q1018 NOSIG	M
VOHY	2014-03-19 05:40	98.60	53.60	22.29	0.00	0.00	0.00	30.06	M	3.11	M	NSC	M	M	M	M	M	M	M	HZ	M	M	M	M	M	M	96.51	VOHY 190540Z 00000KT 5000 HZ NSC 37/12 Q1018 NOSIG	M
VOHY	2014-03-19 07:40	100.40	50.00	18.48	130.00	7.00	0.00	30.00	M	3.73	M	NSC	M	M	M	M	M	M	M	M	M	M	M	M	M	M	97.42	VOHY 190740Z 13007KT 6000 NSC 38/10 Q1016 NOSIG	M
VOHY	2014-03-19 08:40	100.40	50.00	18.48	140.00	5.00	0.00	29.97	M	3.73	M	FEW	SCT	M	M	2000.00	2500.00	M	M	M	M	M	M	M	M	M	97.42	VOHY 190840Z 14005KT 6000 FEW020 SCT025 38/10 Q1015 NOSIG	M
VOHY	2014-03-19 09:40	98.60	48.20	18.25	70.00	3.00	0.00	29.94	M	3.73	M	SCT	SCT	M	M	2000.00	2500.00	M	M	M	M	M	M	M	M	M	95.17	VOHY 190940Z 07003KT 6000 SCT020 SCT025 37/09 Q1014 NOSIG	M
VOHY	2014-03-19 10:40	98.60	48.20	18.25	110.00	4.00	0.00	29.94	M	3.73	M	SCT	SCT	M	M	2000.00	2500.00	M	M	M	M	M	M	M	M	M	95.17	VOHY 191040Z 11004KT 6000 SCT020 SCT025 37/09 Q1014 NOSIG	M
VOHY	2014-03-19 11:40	96.80	48.20	19.28	100.00	5.00	0.00	29.91	M	3.73	M	SCT	SCT	M	M	2000.00	2500.00	M	M	M	M	M	M	M	M	M	93.36	VOHY 191140Z 10005KT 6000 SCT020 SCT025 36/09 Q1013 NOSIG	M
VOHY	2014-03-19 12:40	93.20	48.20	21.54	100.00	4.00	0.00	29.94	M	3.73	M	FEW	SCT	M	M	2000.00	2500.00	M	M	M	M	M	M	M	M	M	89.80	VOHY 191240Z 10004KT 6000 FEW020 SCT025 34/09 Q1014 NOSIG	M
VOHY	2014-03-19 13:40	91.40	44.60	19.89	90.00	3.00	0.00	29.94	M	3.73	M	SCT	M	M	M	2000.00	M	M	M	M	M	M	M	M	M	M	87.68	VOHY 191340Z 09003KT 6000 SCT020 33/07 Q1014 NOSIG	M
VOHY	2014-03-19 14:40	89.60	48.20	24.11	100.00	3.00	0.00	29.97	M	3.73	M	SCT	M	M	M	2000.00	M	M	M	M	M	M	M	M	M	M	86.44	VOHY 191440Z 100003KT 6000 SCT020 32/09 Q1015 NOSIG	M
VOHY	2014-03-19 15:40	86.00	50.00	28.90	0.00	0.00	0.00	29.97	M	3.73	M	FEW	M	M	M	2000.00	M	M	M	M	M	M	M	M	M	M	83.62	VOHY 191540Z 00000KT 6000 FEW020 30/10 Q1015 NOSIG	M
VOHY	2014-03-20 00:40	69.80	55.40	60.21	0.00	0.00	0.00	29.94	M	2.49	M	FEW	SCT	M	M	2000.00	10000.00	M	M	HZ	M	M	M	M	M	M	69.80	VOHY 200040Z 00000KT 4000 HZ FEW020 SCT100 21/13 Q1014 NOSIG	M
VOHY	2014-03-20 01:40	71.60	57.20	60.44	0.00	0.00	0.00	29.97	M	2.49	M	FEW	SCT	M	M	2000.00	10000.00	M	M	HZ	M	M	M	M	M	M	71.60	VOHY 200140Z 00000KT 4000 HZ FEW020 SCT100 22/14 Q1015 NOSIG	M
VOHY	2014-03-20 04:40	95.00	53.60	24.89	210.00	3.00	0.00	30.03	M	3.11	M	FEW	M	M	M	2000.00	M	M	M	HZ	M	M	M	M	M	M	92.71	VOHY 200440Z 21003KT 5000 HZ FEW020 35/12 Q1017 NOSIG	M
VOHY	2014-03-20 06:40	102.20	50.00	17.51	190.00	3.00	0.00	29.97	M	3.73	M	FEW	M	M	M	2000.00	M	M	M	M	M	M	M	M	M	M	99.28	VOHY 200640Z 19003KT 6000 FEW020 39/10 Q1015 NOSIG	M
VOHY	2014-03-20 07:40	100.40	46.40	16.15	230.00	6.00	0.00	29.94	M	3.73	M	SCT	M	M	M	2000.00	M	M	M	M	M	M	M	M	M	M	96.63	VOHY 200740Z 23006KT 6000 SCT020 38/08 Q1014 NOSIG	M
VOHY	2014-03-20 08:40	104.00	44.60	13.54	300.00	4.00	0.00	29.91	M	3.73	M	SCT	M	M	M	2000.00	M	M	M	M	M	M	M	M	M	M	99.82	VOHY 200840Z 30004KT 6000 SCT020 40/07 Q1013 NOSIG	M
VOHY	2014-03-20 09:40	100.40	46.40	16.15	360.00	3.00	0.00	29.88	M	3.73	M	SCT	BKN	M	M	2000.00	20000.00	M	M	M	M	M	M	M	M	M	96.63	VOHY 200940Z 36003KT 6000 SCT020 BKN200 38/08 Q1012 NOSIG	M
VOHY	2014-03-20 10:40	100.40	46.40	16.15	300.00	6.00	0.00	29.88	M	3.73	M	SCT	BKN	M	M	2000.00	20000.00	M	M	M	M	M	M	M	M	M	96.63	VOHY 201040Z 30006KT 6000 SCT020 BKN200 38/08 Q1012 NOSIG	M
VOHY	2014-03-20 11:40	98.60	46.40	17.05	40.00	3.00	0.00	29.88	M	3.73	M	SCT	BKN	M	M	2000.00	20000.00	M	M	M	M	M	M	M	M	M	94.84	VOHY 201140Z 04003KT 6000 SCT020 BKN200 37/08 Q1012 NOSIG	M
VOHY	2014-03-20 12:40	95.00	44.60	17.78	340.00	4.00	0.00	29.88	M	3.73	M	FEW	M	M	M	2000.00	M	M	M	M	M	M	M	M	M	M	91.06	VOHY 201240Z 34004KT 6000 FEW020 35/07 Q1012 NOSIG	M
VOHY	2014-03-20 13:40	91.40	48.20	22.78	0.00	0.00	0.00	29.91	M	3.73	M	FEW	M	M	M	2000.00	M	M	M	M	M	M	M	M	M	M	88.09	VOHY 201340Z 00000KT 6000 FEW020 33/09 Q1013 NOSIG	M
VOHY	2014-03-20 14:40	89.60	51.80	27.56	110.00	3.00	0.00	29.94	M	3.73	M	NSC	M	M	M	M	M	M	M	M	M	M	M	M	M	M	87.00	VOHY 201440Z 11003KT 6000 NSC 32/11 Q1014 NOSIG	M
VOHY	2014-03-21 00:40	69.80	57.20	64.26	0.00	0.00	0.00	29.91	M	1.86	M	NSC	M	M	M	M	M	M	M	HZ	M	M	M	M	M	M	69.80	VOHY 210040Z 00000KT 3000 HZ NSC 21/14 Q1013 NOSIG	M
VOHY	2014-03-21 01:40	71.60	59.00	64.48	0.00	0.00	0.00	29.94	M	1.86	M	SCT	M	M	M	10000.00	M	M	M	HZ	M	M	M	M	M	M	71.60	VOHY 210140Z 00000KT 3000 HZ SCT100 22/15 Q1014 NOSIG	M
VOHY	2014-03-21 04:40	95.00	50.00	21.79	270.00	10.00	0.00	29.97	M	3.73	M	NSC	M	M	M	M	M	M	M	M	M	M	M	M	M	M	91.89	VOHY 210440Z 27010KT 6000 NSC 35/10 Q1015 NOSIG	M
VOHY	2014-03-21 05:40	95.00	50.00	21.79	280.00	10.00	0.00	29.97	M	3.73	M	NSC	M	M	M	M	M	M	M	M	M	M	M	M	M	M	91.89	VOHY 210540Z 28010KT 6000 NSC 35/10 Q1015 NOSIG	M
VOHY	2014-03-21 06:40	98.60	46.40	17.05	270.00	6.00	0.00	29.94	M	3.73	M	NSC	M	M	M	M	M	M	M	M	M	M	M	M	M	M	94.84	VOHY 210640Z 27006KT 6000 NSC 37/08 Q1014 NOSIG	M
VOHY	2014-03-21 07:40	102.20	46.40	15.30	250.00	4.00	0.00	29.91	M	3.73	M	NSC	M	M	M	M	M	M	M	M	M	M	M	M	M	M	98.43	VOHY 210740Z 25004KT 6000 NSC 39/08 Q1013 NOSIG	M
VOHY	2014-03-21 08:40	102.20	46.40	15.30	170.00	3.00	0.00	29.85	M	3.73	M	FEW	M	M	M	2000.00	M	M	M	M	M	M	M	M	M	M	98.43	VOHY 210840Z 17003KT 6000 FEW020 39/08 Q1011 NOSIG	M
VOHY	2014-03-21 09:40	102.20	46.40	15.30	0.00	0.00	0.00	29.83	M	3.73	M	SCT	M	M	M	2000.00	M	M	M	M	M	M	M	M	M	M	98.43	VOHY 210940Z 00000KT 6000 SCT020 39/08 Q1010 NOSIG	M
VOHY	2014-03-21 10:40	102.20	48.20	16.37	120.00	3.00	0.00	29.83	M	3.73	M	SCT	M	M	M	2000.00	M	M	M	M	M	M	M	M	M	M	98.83	VOHY 211040Z 12003KT 6000 SCT020 39/09 Q1010 NOSIG	M
VOHY	2014-03-21 11:40	100.40	46.40	16.15	0.00	0.00	0.00	29.83	M	3.73	M	SCT	SCT	M	M	2000.00	2500.00	M	M	M	M	M	M	M	M	M	96.63	VOHY 211140Z 00000KT 6000 SCT020 SCT025 38/08 Q1010 NOSIG	M
VOHY	2014-03-21 13:40	93.20	48.20	21.54	60.00	3.00	0.00	29.85	M	3.11	M	SCT	SCT	M	M	2000.00	2500.00	M	M	HZ	M	M	M	M	M	M	89.80	VOHY 211340Z 06003KT 5000 HZ SCT020 SCT025 34/09 Q1011 NOSIG	M
VOHY	2014-03-21 14:40	89.60	53.60	29.45	110.00	6.00	0.00	29.85	M	3.11	M	FEW	SCT	M	M	2000.00	2500.00	M	M	HZ	M	M	M	M	M	M	87.36	VOHY 211440Z 11006KT 5000 HZ FEW020 SCT025 32/12 Q1011 NOSIG	M
VOHY	2014-03-21 15:40	89.60	55.40	31.45	160.00	5.00	0.00	29.88	M	3.11	M	FEW	SCT	M	M	2000.00	2500.00	M	M	HZ	M	M	M	M	M	M	87.78	VOHY 211540Z 16005KT 5000 HZ FEW020 SCT025 32/13 Q1012 NOSIG	M
VOHY	2014-03-22 00:40	75.20	59.00	57.12	0.00	0.00	0.00	29.85	M	2.49	M	FEW	SCT	M	M	2000.00	10000.00	M	M	HZ	M	M	M	M	M	M	75.20	VOHY 220040Z 00000KT 4000 HZ FEW020 SCT100 24/15 Q1011 NOSIG	M
VOHY	2014-03-22 01:40	78.80	57.20	47.52	0.00	0.00	0.00	29.88	M	2.49	M	FEW	SCT	M	M	2000.00	10000.00	M	M	HZ	M	M	M	M	M	M	78.80	VOHY 220140Z 00000KT 4000 HZ FEW020 SCT100 26/14 Q1012 NOSIG	M
VOHY	2014-03-22 02:40	80.60	59.00	47.79	0.00	0.00	0.00	29.91	M	2.49	M	FEW	SCT	M	M	2000.00	10000.00	M	M	HZ	M	M	M	M	M	M	81.11	VOHY 220240Z 00000KT 4000 HZ FEW020 SCT100 27/15 Q1013 NOSIG	M
VOHY	2014-03-22 03:40	87.80	55.40	33.29	330.00	3.00	0.00	29.94	M	2.49	M	FEW	M	M	M	2000.00	M	M	M	HZ	M	M	M	M	M	M	86.11	VOHY 220340Z 33003KT 4000 HZ FEW020 31/13 Q1014 NOSIG	M
VOHY	2014-03-22 07:40	100.40	48.20	17.28	290.00	4.00	0.00	29.85	M	3.73	M	NSC	M	M	M	M	M	M	M	M	M	M	M	M	M	M	97.00	VOHY 220740Z 29004KT 6000 NSC 38/09 Q1011 NOSIG	M
VOHY	2014-03-22 08:40	102.20	48.20	16.37	50.00	2.00	0.00	29.83	M	3.73	M	FEW	M	M	M	2000.00	M	M	M	M	M	M	M	M	M	M	98.83	VOHY 220840Z 05002KT 6000 FEW020 39/09 Q1010 NOSIG	M
VOHY	2014-03-22 09:40	100.40	46.40	16.15	300.00	2.00	0.00	30.09	M	3.73	M	FEW	M	M	M	2000.00	M	M	M	M	M	M	M	M	M	M	96.63	VOHY 220940Z 30002KT 6000 FEW020 38/08 Q1019 NOSIG	M
VOHY	2014-03-22 10:40	100.40	44.60	15.08	300.00	5.00	0.00	29.80	M	3.73	M	FEW	M	M	M	2000.00	M	M	M	M	M	M	M	M	M	M	96.31	VOHY 221040Z 30005KT 6000 FEW020 38/07 Q1009 NOSIG	M
VOHY	2014-03-22 11:40	98.60	48.20	18.25	320.00	6.00	0.00	29.80	M	3.73	M	FEW	M	M	M	2000.00	M	M	M	M	M	M	M	M	M	M	95.17	VOHY 221140Z 32006KT 6000 FEW020 37/09 Q1009 NOSIG	M
VOHY	2014-03-22 13:40	89.60	50.00	25.79	0.00	0.00	0.00	29.83	M	3.73	M	FEW	M	M	M	2000.00	M	M	M	M	M	M	M	M	M	M	86.70	VOHY 221340Z 00000KT 6000 FEW020 32/10 Q1010 NOSIG	M
VOHY	2014-03-22 14:40	87.80	51.80	29.18	90.00	4.00	0.00	29.85	M	3.73	M	FEW	SCT	M	M	2000.00	10000.00	M	M	M	M	M	M	M	M	M	85.39	VOHY 221440Z 09004KT 6000 FEW020 SCT100 31/11 Q1011 NOSIG	M
VOHY	2014-03-22 15:40	87.80	55.40	33.29	110.00	6.00	0.00	29.88	M	3.73	M	FEW	SCT	M	M	2000.00	10000.00	M	M	M	M	M	M	M	M	M	86.11	VOHY 221540Z 11006KT 6000 FEW020 SCT100 31/13 Q1012 NOSIG	M
VOHY	2014-03-23 00:40	71.60	60.80	68.75	0.00	0.00	0.00	29.88	M	1.86	M	NSC	M	M	M	M	M	M	M	HZ	M	M	M	M	M	M	71.60	VOHY 230040Z 00000KT 3000 HZ NSC 22/16 Q1012 NOSIG	M
VOHY	2014-03-23 01:40	73.40	60.80	64.69	0.00	0.00	0.00	29.91	M	1.86	M	NSC	M	M	M	M	M	M	M	HZ	M	M	M	M	M	M	73.40	VOHY 230140Z 00000KT 3000 HZ NSC 23/16 Q1013 BECMG 5000 HZ	M
VOHY	2014-03-23 04:40	93.20	60.80	34.11	0.00	0.00	0.00	29.97	M	3.73	M	NSC	M	M	M	M	M	M	M	M	M	M	M	M	M	M	93.20	VOHY 230440Z 00000KT 6000 NSC 34/16 Q1015 NOSIG	M
VOHY	2014-03-23 05:40	95.00	59.00	30.26	220.00	6.00	0.00	29.94	M	3.73	M	NSC	M	M	M	M	M	M	M	M	M	M	M	M	M	M	95.00	VOHY 230540Z 22006KT 6000 NSC 35/15 Q1014 NOSIG	M
VOHY	2014-03-23 06:40	98.60	55.40	23.81	160.00	4.00	0.00	29.94	M	3.73	M	NSC	M	M	M	M	M	M	M	M	M	M	M	M	M	M	97.09	VOHY 230640Z 16004KT 6000 NSC 37/13 Q1014 NOSIG	M
VOHY	2014-03-23 07:40	100.40	50.00	18.48	180.00	4.00	0.00	29.88	M	3.73	M	SCT	M	M	M	2000.00	M	M	M	M	M	M	M	M	M	M	97.42	VOHY 230740Z 18004KT 6000 SCT020 38/10 Q1012 NOSIG	M
VOHY	2014-03-23 08:40	104.00	46.40	14.50	M	2.00	0.00	29.85	M	3.73	M	SCT	M	M	M	2000.00	M	M	M	M	M	M	M	M	M	M	100.21	VOHY 230840Z VRB02KT 6000 SCT020 40/08 Q1011 NOSIG	M
VOHY	2014-03-23 09:40	104.00	48.20	15.52	190.00	4.00	0.00	29.85	M	3.73	M	SCT	FEW	M	M	2000.00	2500.00	M	M	M	M	M	M	M	M	M	100.65	VOHY 230940Z 19004KT 6000 SCT020 FEW025 40/09 Q1011 NOSIG	M
VOHY	2014-03-23 10:40	102.20	53.60	20.00	80.00	6.00	0.00	29.83	M	3.73	M	SCT	FEW	M	M	2000.00	2500.00	M	M	M	M	M	M	M	M	M	100.38	VOHY 231040Z 08006KT 6000 SCT020 FEW025 39/12 Q1010 NOSIG	M
VOHY	2014-03-23 11:40	96.80	53.60	23.55	110.00	9.00	0.00	29.85	M	3.73	M	FEW	FEW	M	M	2000.00	2500.00	M	M	M	M	M	M	M	M	M	94.59	VOHY 231140Z 11009KT 6000 FEW020 FEW025 36/12 Q1011 NOSIG	M
VOHY	2014-03-23 12:40	93.20	53.60	26.31	100.00	6.00	0.00	29.85	M	3.73	M	FEW	M	M	M	2000.00	M	M	M	M	M	M	M	M	M	M	90.86	VOHY 231240Z 10006KT 6000 FEW020 34/12 Q1011 NOSIG	M
VOHY	2014-03-23 13:40	89.60	57.20	33.56	110.00	8.00	0.00	29.88	M	3.73	M	FEW	M	M	M	2000.00	M	M	M	M	M	M	M	M	M	M	88.28	VOHY 231340Z 11008KT 6000 FEW020 32/14 Q1012 NOSIG	M
VOHY	2014-03-23 14:40	87.80	60.80	40.41	120.00	7.00	0.00	29.91	M	3.73	M	FEW	M	M	M	2000.00	M	M	M	M	M	M	M	M	M	M	87.75	VOHY 231440Z 12007KT 6000 FEW020 31/16 Q1013 NOSIG	M
VOHY	2014-03-23 15:40	86.00	64.40	48.58	120.00	6.00	0.00	29.94	M	3.73	M	SCT	FEW	M	M	2000.00	20000.00	M	M	M	M	M	M	M	M	M	87.49	VOHY 231540Z 12006KT 6000 SCT020 FEW200 30/18 Q1014 NOSIG	M
VOHY	2014-03-24 00:40	73.40	62.60	68.94	90.00	8.00	0.00	29.91	M	1.86	M	SCT	BKN	M	M	2000.00	10000.00	M	M	HZ	M	M	M	M	M	M	73.40	VOHY 240040Z 09008KT 3000 HZ SCT020 BKN100 23/17 Q1013 NOSIG	M
VOHY	2014-03-24 01:40	75.20	64.40	69.14	140.00	4.00	0.00	29.94	M	1.86	M	SCT	BKN	M	M	2000.00	10000.00	M	M	HZ	M	M	M	M	M	M	75.20	VOHY 240140Z 14004KT 3000 HZ SCT020 BKN100 24/18 Q1014 NOSIG	M
VOHY	2014-03-24 03:40	86.00	66.20	51.72	0.00	0.00	0.00	30.00	M	2.49	M	SCT	SCT	M	M	2000.00	20000.00	M	M	HZ	M	M	M	M	M	M	88.39	VOHY 240340Z 00000KT 4000 HZ SCT020 SCT200 30/19 Q1016 BECMG 5000	M
VOHY	2014-03-24 05:40	95.00	60.80	32.27	0.00	0.00	0.00	30.00	M	3.11	M	NSC	M	M	M	M	M	M	M	HZ	M	M	M	M	M	M	95.00	VOHY 240540Z 00000KT 5000 HZ NSC 35/16 Q1016 NOSIG	M
VOHY	2014-03-24 07:40	100.40	51.80	19.76	230.00	3.00	0.00	29.94	M	3.73	M	NSC	M	M	M	M	M	M	M	M	M	M	M	M	M	M	97.90	VOHY 240740Z 23003KT 6000 NSC 38/11 Q1014 NOSIG	M
VOHY	2014-03-24 08:40	102.20	50.00	17.51	0.00	0.00	0.00	29.91	M	3.73	M	NSC	M	M	M	M	M	M	M	M	M	M	M	M	M	M	99.28	VOHY 240840Z 00000KT 6000 NSC 39/10 Q1013 NOSIG	M
VOHY	2014-03-24 09:40	102.20	55.40	21.36	150.00	5.00	0.00	29.88	M	3.73	M	SCT	M	M	M	2000.00	M	M	M	M	M	M	M	M	M	M	101.04	VOHY 240940Z 15005KT 6000 SCT020 39/13 Q1012 NOSIG	M
VOHY	2014-03-24 10:40	98.60	53.60	22.29	100.00	8.00	0.00	29.88	M	3.73	M	SCT	M	M	M	2000.00	M	M	M	M	M	M	M	M	M	M	96.51	VOHY 241040Z 10008KT 6000 SCT020 37/12 Q1012 NOSIG	M
VOHY	2014-03-24 11:40	95.00	50.00	21.79	80.00	8.00	0.00	29.88	M	3.73	M	SCT	M	M	M	2000.00	M	M	M	M	M	M	M	M	M	M	91.89	VOHY 241140Z 08008KT 6000 SCT020 35/10 Q1012 NOSIG	M
VOHY	2014-03-24 13:40	87.80	59.00	37.90	110.00	4.00	0.00	29.94	M	3.73	M	FEW	M	M	M	2000.00	M	M	M	M	M	M	M	M	M	M	87.80	VOHY 241340Z 11004KT 6000 FEW020 31/15 Q1014 NOSIG	M
VOHY	2014-03-24 15:40	84.20	62.60	48.32	120.00	4.00	0.00	29.97	M	3.73	M	FEW	M	M	M	2000.00	M	M	M	M	M	M	M	M	M	M	85.03	VOHY 241540Z 12004KT 6000 FEW020 29/17 Q1015 NOSIG	M
VOHY	2014-03-25 00:40	75.20	62.60	64.91	0.00	0.00	0.00	29.94	M	1.86	M	NSC	M	M	M	M	M	M	M	HZ	M	M	M	M	M	M	75.20	VOHY 250040Z 00000KT 3000 HZ NSC 24/17 Q1014 NOSIG	M
VOHY	2014-03-25 01:40	77.00	62.60	61.13	0.00	0.00	0.00	29.97	M	1.86	M	NSC	M	M	M	M	M	M	M	HZ	M	M	M	M	M	M	77.00	VOHY 250140Z 00000KT 3000 HZ NSC 25/17 Q1015 NOSIG	M
VOHY	2014-03-25 05:40	98.60	50.00	19.52	160.00	5.00	0.00	29.97	M	3.73	M	NSC	M	M	M	M	M	M	M	M	M	M	M	M	M	M	95.56	VOHY 250540Z 16005KT 6000 NSC 37/10 Q1015 NOSIG	M
VOHY	2014-03-25 06:40	100.40	48.20	17.28	230.00	6.00	0.00	29.94	M	3.73	M	NSC	M	M	M	M	M	M	M	M	M	M	M	M	M	M	97.00	VOHY 250640Z 23006KT 6000 NSC 38/09 Q1014 NOSIG	M
VOHY	2014-03-25 07:40	102.20	48.20	16.37	210.00	3.00	0.00	29.91	M	3.73	M	NSC	M	M	M	M	M	M	M	M	M	M	M	M	M	M	98.83	VOHY 250740Z 21003KT 6000 NSC 39/09 Q1013 NOSIG	M
VOHY	2014-03-25 08:40	104.00	48.20	15.52	190.00	3.00	0.00	29.88	M	3.73	M	FEW	FEW	M	M	2000.00	10000.00	M	M	M	M	M	M	M	M	M	100.65	VOHY 250840Z 19003KT 6000 FEW020 FEW100 40/09 Q1012 NOSIG	M
VOHY	2014-03-25 09:40	104.00	44.60	13.54	200.00	3.00	0.00	29.85	M	3.73	M	SCT	M	M	M	2000.00	M	M	M	M	M	M	M	M	M	M	99.82	VOHY 250940Z 20003KT 6000 SCT020 40/07 Q1011 NOSIG	M
VOHY	2014-03-25 10:40	102.20	46.40	15.30	130.00	3.00	0.00	29.83	M	3.73	M	SCT	FEW	M	M	2000.00	2500.00	M	M	M	M	M	M	M	M	M	98.43	VOHY 251040Z 13003KT 6000 SCT020 FEW025 39/08 Q1010 NOSIG	M
VOHY	2014-03-25 11:40	96.80	55.40	25.15	100.00	6.00	0.00	29.83	M	3.73	M	SCT	SCT	M	M	2000.00	2500.00	M	M	M	M	M	M	M	M	M	95.14	VOHY 251140Z 10006KT 6000 SCT020 SCT025 36/13 Q1010 NOSIG	M
VOHY	2014-03-25 12:40	93.20	55.40	28.10	100.00	5.00	0.00	29.85	M	3.73	M	SCT	FEW	FEW	M	2000.00	2500.00	10000.00	M	M	M	M	M	M	M	M	91.35	VOHY 251240Z 10005KT 6000 SCT020 FEW025 FEW100 34/13 Q1011 NOSIG	M
VOHY	2014-03-25 13:40	89.60	57.20	33.56	110.00	6.00	0.00	29.88	M	3.73	M	SCT	M	M	M	2000.00	M	M	M	M	M	M	M	M	M	M	88.28	VOHY 251340Z 11006KT 6000 SCT020 32/14 Q1012 NOSIG	M
VOHY	2014-03-25 14:40	87.80	59.00	37.90	130.00	8.00	0.00	29.91	M	3.73	M	FEW	M	M	M	2000.00	M	M	M	M	M	M	M	M	M	M	87.80	VOHY 251440Z 13008KT 6000 FEW020 31/15 Q1013 NOSIG	M
VOHY	2014-03-25 15:40	86.00	60.80	42.80	120.00	6.00	0.00	29.91	M	3.73	M	SCT	M	M	M	2000.00	M	M	M	M	M	M	M	M	M	M	86.05	VOHY 251540Z 12006KT 6000 SCT020 30/16 Q1013 NOSIG	M
VOHY	2014-03-26 00:40	73.40	57.20	56.88	130.00	3.00	0.00	29.94	M	1.86	M	NSC	M	M	M	M	M	M	M	HZ	M	M	M	M	M	M	73.40	VOHY 260040Z 13003KT 3000 HZ NSC 23/14 Q1014 NOSIG	M
VOHY	2014-03-26 01:40	75.20	59.00	57.12	80.00	3.00	0.00	29.94	M	1.86	M	NSC	M	M	M	M	M	M	M	HZ	M	M	M	M	M	M	75.20	VOHY 260140Z 08003KT 3000 HZ NSC 24/15 Q1014 NOSIG	M
VOHY	2014-03-26 04:40	91.40	57.20	31.72	220.00	4.00	0.00	30.00	M	3.11	M	NSC	M	M	M	M	M	M	M	HZ	M	M	M	M	M	M	90.06	VOHY 260440Z 22004KT 5000 HZ NSC 33/14 Q1016 BECMG 6000	M
VOHY	2014-03-26 06:40	102.20	50.00	17.51	210.00	3.00	0.00	29.94	M	3.73	M	NSC	M	M	M	M	M	M	M	M	M	M	M	M	M	M	99.28	VOHY 260640Z 21003KT 6000 NSC 39/10 Q1014 NOSIG	M
VOHY	2014-03-26 07:40	104.00	46.40	14.50	200.00	5.00	0.00	29.91	M	3.73	M	NSC	M	M	M	M	M	M	M	M	M	M	M	M	M	M	100.21	VOHY 260740Z 20005KT 6000 NSC 40/08 Q1013 NOSIG	M
VOHY	2014-03-26 08:40	102.20	48.20	16.37	110.00	5.00	0.00	29.88	M	3.73	M	FEW	FEW	M	M	2000.00	20000.00	M	M	M	M	M	M	M	M	M	98.83	VOHY 260840Z 110005KT 6000 FEW020 FEW200 39/09 Q1012 NOSIG	M
VOHY	2014-03-26 09:40	102.20	44.60	14.29	80.00	4.00	0.00	29.85	M	3.73	M	NSC	M	M	M	M	M	M	M	M	M	M	M	M	M	M	98.07	VOHY 260940Z 08004KT 6000 NSC 39/07 Q1011 NOSIG	M
VOHY	2014-03-26 10:40	100.40	44.60	15.08	80.00	8.00	0.00	29.83	M	3.73	M	NSC	M	M	M	M	M	M	M	M	M	M	M	M	M	M	96.31	VOHY 261040Z 08008KT 6000 NSC 38/07 Q1010 NOSIG	M
VOHY	2014-03-26 11:40	98.60	50.00	19.52	110.00	8.00	0.00	29.85	M	3.73	M	NSC	M	M	M	M	M	M	M	M	M	M	M	M	M	M	95.56	VOHY 261140Z 11008KT 6000 NSC 37/10 Q1011 NOSIG	M
VOHY	2014-03-26 12:40	93.20	48.20	21.54	90.00	10.00	0.00	29.85	M	3.73	M	NSC	M	M	M	M	M	M	M	M	M	M	M	M	M	M	89.80	VOHY 261240Z 09010KT 6000 NSC 34/09 Q1011 NOSIG	M
VOHY	2014-03-26 13:40	91.40	53.60	27.83	110.00	4.00	0.00	29.88	M	3.73	M	FEW	M	M	M	2000.00	M	M	M	M	M	M	M	M	M	M	89.08	VOHY 261340Z 11004KT 6000 FEW020 33/12 Q1012 NOSIG	M
VOHY	2014-03-26 14:40	87.80	55.40	33.29	110.00	8.00	0.00	29.91	M	3.73	M	NSC	M	M	M	M	M	M	M	M	M	M	M	M	M	M	86.11	VOHY 261440Z 11008KT 6000 NSC 31/13 Q1013 NOSIG	M
VOHY	2014-03-26 15:40	86.00	55.40	35.25	110.00	5.00	0.00	29.94	M	3.73	M	NSC	M	M	M	M	M	M	M	M	M	M	M	M	M	M	84.54	VOHY 261540Z 11005KT 6000 NSC 30/13 Q1014 NOSIG	M
VOHY	2014-03-27 00:40	73.40	59.00	60.67	0.00	0.00	0.00	29.94	M	2.49	M	NSC	M	M	M	M	M	M	M	HZ	M	M	M	M	M	M	73.40	VOHY 270040Z 00000KT 4000 HZ NSC 23/15 Q1014 NOSIG	M
VOHY	2014-03-27 01:40	77.00	53.60	44.25	210.00	4.00	0.00	29.94	M	2.49	M	NSC	M	M	M	M	M	M	M	HZ	M	M	M	M	M	M	77.00	VOHY 270140Z 21004KT 4000 HZ NSC 25/12 Q1014 NOSIG	M
VOHY	2014-03-27 02:40	84.20	50.00	30.62	200.00	3.00	0.00	30.00	M	2.49	M	NSC	M	M	M	M	M	M	M	HZ	M	M	M	M	M	M	82.24	VOHY 270240Z 20003KT 4000 HZ NSC 29/10 Q1016 BECMG 5000	M
VOHY	2014-03-27 04:40	95.00	48.20	20.38	200.00	6.00	0.00	30.00	M	3.11	M	NSC	M	M	M	M	M	M	M	HZ	M	M	M	M	M	M	91.56	VOHY 270440Z 20006KT 5000 HZ NSC 35/09 Q1016 NOSIG	M
VOHY	2014-03-27 06:40	102.20	44.60	14.29	170.00	5.00	0.00	29.97	M	3.73	M	NSC	M	M	M	M	M	M	M	M	M	M	M	M	M	M	98.07	VOHY 270640Z 17005KT 6000 NSC 39/07 Q1015 NOSIG	M
VOHY	2014-03-27 07:40	104.00	42.80	12.64	190.00	5.00	0.00	29.94	M	3.73	M	FEW	SCT	M	M	2000.00	20000.00	M	M	M	M	M	M	M	M	M	99.42	VOHY 270740Z 19005KT 6000 FEW020 SCT200 40/06 Q1014 NOSIG	M
VOHY	2014-03-27 08:40	105.80	44.60	12.84	200.00	4.00	0.00	29.91	M	3.73	M	FEW	SCT	M	M	2000.00	20000.00	M	M	M	M	M	M	M	M	M	101.53	VOHY 270840Z 20004KT 6000 FEW020 SCT200 41/07 Q1013 NOSIG	M
VOHY	2014-03-27 09:40	105.80	42.80	11.98	210.00	6.00	0.00	29.88	M	3.73	M	FEW	M	M	M	2000.00	M	M	M	M	M	M	M	M	M	M	101.02	VOHY 270940Z 21006KT 6000 FEW020 41/06 Q1012 NOSIG	M
VOHY	2014-03-27 10:40	104.00	44.60	13.54	200.00	4.00	0.00	29.88	M	3.73	M	FEW	M	M	M	2000.00	M	M	M	M	M	M	M	M	M	M	99.82	VOHY 271040Z 20004KT 6000 FEW020 40/07 Q1012 NOSIG	M
VOHY	2014-03-27 11:40	100.40	42.80	14.08	120.00	7.00	0.00	29.88	M	3.73	M	FEW	M	M	M	2000.00	M	M	M	M	M	M	M	M	M	M	96.04	VOHY 271140Z 12007KT 6000 FEW020 38/06 Q1012 NOSIG	M
VOHY	2014-03-27 12:40	96.80	41.00	14.66	100.00	7.00	0.00	29.88	M	3.73	M	FEW	M	M	M	2000.00	M	M	M	M	M	M	M	M	M	M	92.39	VOHY 271240Z 10007KT 6000 FEW020 36/05 Q1012 NOSIG	M
VOHY	2014-03-27 13:40	93.20	46.40	20.13	100.00	7.00	0.00	29.91	M	3.73	M	NSC	M	M	M	M	M	M	M	M	M	M	M	M	M	M	89.55	VOHY 271340Z 10007KT 6000 NSC 34/08 Q1013 NOSIG	M
VOHY	2014-03-27 14:40	89.60	46.40	22.53	110.00	7.00	0.00	29.94	M	3.73	M	NSC	M	M	M	M	M	M	M	M	M	M	M	M	M	M	86.24	VOHY 271440Z 11007KT 6000 NSC 32/08 Q1014 NOSIG	M
VOHY	2014-03-27 15:40	87.80	46.40	23.85	110.00	6.00	0.00	29.94	M	3.73	M	NSC	M	M	M	M	M	M	M	M	M	M	M	M	M	M	84.68	VOHY 271540Z 11006KT 6000 NSC 31/08 Q1014 NOSIG	M
VOHY	2014-03-28 01:40	73.40	57.20	56.88	0.00	0.00	0.00	29.97	M	2.49	M	NSC	M	M	M	M	M	M	M	HZ	M	M	M	M	M	M	73.40	VOHY 280140Z 00000 4000 HZ NSC 23/14 Q1015 NOSIG	M
VOHY	2014-03-28 02:40	84.20	48.20	28.63	220.00	9.72	0.00	30.00	M	2.49	M	NSC	M	M	M	M	M	M	M	HZ	M	M	M	M	M	M	82.04	VOHY 280240Z 22005 4000 HZ NSC 29/09 Q1016 BECMG 5000	M
VOHY	2014-03-28 05:40	100.40	44.60	15.08	210.00	5.00	0.00	30.00	M	3.73	M	NSC	M	M	M	M	M	M	M	M	M	M	M	M	M	M	96.31	VOHY 280540Z 21005KT 6000 NSC 38/07 Q1016 NOSIG	M
VOHY	2014-03-28 06:40	102.20	44.60	14.29	270.00	4.00	0.00	29.97	M	3.73	M	FEW	BKN	M	M	2000.00	20000.00	M	M	M	M	M	M	M	M	M	98.07	VOHY 280640Z 27004KT 6000 FEW020 BKN200 39/07 Q1015 NOSIG	M
VOHY	2014-03-28 07:40	104.00	44.60	13.54	230.00	4.00	0.00	29.94	M	3.73	M	FEW	SCT	M	M	2000.00	20000.00	M	M	M	M	M	M	M	M	M	99.82	VOHY 280740Z 23004KT 6000 FEW020 SCT200 40/07 Q1014 NOSIG	M
VOHY	2014-03-28 08:40	104.00	46.40	14.50	0.00	0.00	0.00	29.91	M	3.73	M	FEW	BKN	M	M	2000.00	20000.00	M	M	M	M	M	M	M	M	M	100.21	VOHY 280840Z 00000KT 6000 FEW020 BKN200 40/08 Q1013 NOSIG	M
VOHY	2014-03-28 09:40	104.00	44.60	13.54	280.00	3.00	0.00	29.88	M	3.73	M	FEW	BKN	M	M	2000.00	20000.00	M	M	M	M	M	M	M	M	M	99.82	VOHY 280940Z 28003KT 6000 FEW020 BKN200 40/07 Q1012 NOSIG	M
VOHY	2014-03-28 10:40	104.00	44.60	13.54	0.00	0.00	0.00	29.88	M	3.73	M	SCT	SCT	M	M	2000.00	20000.00	M	M	M	M	M	M	M	M	M	99.82	VOHY 281040Z 00000KT 6000 SCT020 SCT200 40/07 Q1012 NOSIG	M
VOHY	2014-03-28 11:40	100.40	42.80	14.08	120.00	6.00	0.00	29.88	M	3.73	M	SCT	SCT	M	M	2000.00	10000.00	M	M	M	M	M	M	M	M	M	96.04	VOHY 281140Z 12006KT 6000 SCT020 SCT100 38/06 Q1012 NOSIG	M
VOHY	2014-03-28 12:40	96.80	44.60	16.83	0.00	0.00	0.00	29.88	M	3.73	M	FEW	BKN	M	M	2000.00	20000.00	M	M	M	M	M	M	M	M	M	92.79	VOHY 281240Z 00000KT 6000 FEW020 BKN200 36/07 Q1012 NOSIG	M
VOHY	2014-03-28 14:40	87.80	48.20	25.52	0.00	0.00	0.00	29.94	M	3.11	M	FEW	SCT	M	M	2000.00	20000.00	M	M	HZ	M	M	M	M	M	M	84.87	VOHY 281440Z 00000KT 5000 HZ FEW020 SCT200 31/09 Q1014 NOSIG	M
VOHY	2014-03-28 15:40	82.40	48.20	30.35	0.00	0.00	0.00	29.97	M	3.11	M	FEW	SCT	M	M	2000.00	20000.00	M	M	HZ	M	M	M	M	M	M	80.80	VOHY 281540Z 00000KT 5000 HZ FEW020 SCT200 28/09 Q1015 NOSIG	M
VOHY	2014-03-29 00:40	71.60	57.20	60.44	0.00	0.00	0.00	29.91	M	1.86	M	NSC	M	M	M	M	M	M	M	HZ	M	M	M	M	M	M	71.60	VOHY 290040Z 00000KT 3000 HZ NSC 22/14 Q1013 NOSIG	M
VOHY	2014-03-29 01:40	71.60	57.20	60.44	0.00	0.00	0.00	29.94	M	1.86	M	NSC	M	M	M	M	M	M	M	HZ	M	M	M	M	M	M	71.60	VOHY 290140Z 00000KT 3000 HZ NSC 22/14 Q1014 NOSIG	M
VOHY	2014-03-29 03:40	95.00	53.60	24.89	0.00	0.00	0.00	30.00	M	2.49	M	NSC	M	M	M	M	M	M	M	HZ	M	M	M	M	M	M	92.71	VOHY 290340Z 00000KT 4000 HZ NSC 35/12 Q1016 NOSIG	M
VOHY	2014-03-29 06:40	104.00	44.60	13.54	330.00	5.00	0.00	29.94	M	3.73	M	NSC	M	M	M	M	M	M	M	M	M	M	M	M	M	M	99.82	VOHY 290640Z 33005KT 6000 NSC 40/07 Q1014 NOSIG	M
VOHY	2014-03-29 07:40	104.00	44.60	13.54	340.00	5.00	0.00	29.91	M	3.73	M	FEW	SCT	M	M	2000.00	20000.00	M	M	M	M	M	M	M	M	M	99.82	VOHY 290740Z 34005KT 6000 FEW020 SCT200 40/07 Q1013 NOSIG	M
VOHY	2014-03-29 08:40	105.80	46.40	13.75	140.00	3.00	0.00	29.88	M	3.73	M	FEW	BKN	M	M	2000.00	20000.00	M	M	M	M	M	M	M	M	M	101.97	VOHY 290840Z 14003KT 6000 FEW020 BKN200 41/08 Q1012 NOSIG	M
VOHY	2014-03-29 09:40	104.00	44.60	13.54	190.00	3.00	0.00	29.85	M	3.73	M	FEW	BKN	M	M	2000.00	20000.00	M	M	M	M	M	M	M	M	M	99.82	VOHY 290940Z 19003KT 6000 FEW020 BKN200 40/07 Q1011 NOSIG	M
VOHY	2014-03-29 11:40	102.20	42.80	13.34	130.00	5.00	0.00	29.83	M	3.73	M	FEW	SCT	M	M	2000.00	20000.00	M	M	M	M	M	M	M	M	M	97.76	VOHY 291140Z 13005KT 6000 FEW020 SCT200 39/06 Q1010 NOSIG	M
VOHY	2014-03-29 12:40	98.60	46.40	17.05	110.00	4.00	0.00	29.85	M	3.73	M	NSC	M	M	M	M	M	M	M	M	M	M	M	M	M	M	94.84	VOHY 291240Z 11004KT 6000 NSC 37/08 Q1011 NOSIG	M
VOHY	2014-03-29 13:40	93.20	48.20	21.54	0.00	0.00	0.00	29.85	M	3.73	M	NSC	M	M	M	M	M	M	M	M	M	M	M	M	M	M	89.80	VOHY 291340Z 00000KT 6000 NSC 34/09 Q1011 NOSIG	M
VOHY	2014-03-29 14:40	87.80	48.20	25.52	0.00	0.00	0.00	29.91	M	3.73	M	NSC	M	M	M	M	M	M	M	M	M	M	M	M	M	M	84.87	VOHY 291440Z 00000KT 6000 NSC 31/09 Q1013 NOSIG	M
VOHY	2014-03-29 15:40	86.00	50.00	28.90	0.00	0.00	0.00	29.94	M	3.73	M	NSC	M	M	M	M	M	M	M	M	M	M	M	M	M	M	83.62	VOHY 291540Z 00000KT 6000 NSC 30/10 Q1014 NOSIG	M
VOHY	2014-03-30 00:40	73.40	55.40	53.29	0.00	0.00	0.00	29.91	M	1.24	M	NSC	M	M	M	M	M	M	M	BR	M	M	M	M	M	M	73.40	VOHY 300040Z 00000KT 2000 BR NSC 23/13 Q1013 NOSIG	M
VOHY	2014-03-30 01:40	75.20	55.40	50.17	0.00	0.00	0.00	29.91	M	1.24	M	NSC	M	M	M	M	M	M	M	BR	M	M	M	M	M	M	75.20	VOHY 300140Z 00000KT 2000 BR NSC 24/13 Q1013 BECMG 3000 HZ	M
VOHY	2014-03-30 06:40	104.00	50.00	16.59	M	2.00	0.00	29.94	M	3.11	M	NSC	M	M	M	M	M	M	M	HZ	M	M	M	M	M	M	101.14	VOHY 300640Z VRB02KT 5000 HZ NSC 40/10 Q1014 NOSIG	M
VOHY	2014-03-30 07:40	104.00	46.40	14.50	20.00	4.00	0.00	29.88	M	3.11	M	FEW	SCT	M	M	2000.00	20000.00	M	M	HZ	M	M	M	M	M	M	100.21	VOHY 300740Z 02004KT 5000 HZ FEW020 SCT200 40/08 Q1012 NOSIG	M
VOHY	2014-03-30 08:40	104.00	46.40	14.50	50.00	7.00	0.00	29.85	M	3.11	M	SCT	SCT	M	M	2000.00	20000.00	M	M	HZ	M	M	M	M	M	M	100.21	VOHY 300840Z 05007KT 5000 HZ SCT020 SCT200 40/08 Q1011 NOSIG	M
VOHY	2014-03-30 09:40	105.80	44.60	12.84	270.00	4.00	0.00	29.83	M	3.11	M	SCT	SCT	M	M	2000.00	20000.00	M	M	HZ	M	M	M	M	M	M	101.53	VOHY 300940Z 27004KT 5000 HZ SCT020 SCT200 41/07 Q1010 NOSIG	M
VOHY	2014-03-30 10:40	105.80	42.80	11.98	10.00	4.00	0.00	29.83	M	3.11	M	FEW	SCT	M	M	2000.00	20000.00	M	M	HZ	M	M	M	M	M	M	101.02	VOHY 301040Z 01004KT 5000 HZ FEW020 SCT200 41/06 Q1010 NOSIG	M
VOHY	2014-03-30 11:40	104.00	42.80	12.64	20.00	4.00	0.00	29.83	M	3.11	M	NSC	M	M	M	M	M	M	M	HZ	M	M	M	M	M	M	99.42	VOHY 301140Z 02004KT 5000 HZ NSC 40/06 Q1010 NOSIG	M
VOHY	2014-03-30 12:40	98.60	50.00	19.52	120.00	2.00	0.00	29.83	M	3.11	M	NSC	M	M	M	M	M	M	M	HZ	M	M	M	M	M	M	95.56	VOHY 301240Z 12002KT 5000 HZ NSC 37/10 Q1010 NOSIG	M
VOHY	2014-03-30 13:40	93.20	51.80	24.63	0.00	0.00	0.00	29.85	M	3.11	M	NSC	M	M	M	M	M	M	M	HZ	M	M	M	M	M	M	90.45	VOHY 301340Z 00000KT 5000 HZ NSC 34/11 Q1011 NOSIG	M
VOHY	2014-03-30 14:40	93.20	51.80	24.63	0.00	0.00	0.00	29.88	M	3.11	M	NSC	M	M	M	M	M	M	M	HZ	M	M	M	M	M	M	90.45	VOHY 301440Z 00000KT 5000 HZ NSC 34/11 Q1012 NOSIG	M
VOHY	2014-03-30 15:40	87.80	53.60	31.17	0.00	0.00	0.00	29.88	M	3.11	M	NSC	M	M	M	M	M	M	M	HZ	M	M	M	M	M	M	85.72	VOHY 301540Z 00000KT 5000 HZ NSC 31/12 Q1012 NOSIG	M
VOHY	2014-03-31 00:40	73.40	59.00	60.67	0.00	0.00	0.00	29.88	M	1.86	M	FEW	SCT	M	M	2000.00	20000.00	M	M	HZ	M	M	M	M	M	M	73.40	VOHY 310040Z 00000KT 3000 HZ FEW020 SCT200 23/15 Q1012 NOSIG	M
VOHY	2014-03-31 01:40	77.00	57.20	50.43	200.00	3.00	0.00	29.88	M	1.86	M	FEW	SCT	M	M	2000.00	20000.00	M	M	HZ	M	M	M	M	M	M	77.00	VOHY 310140Z 20003KT 3000 HZ FEW020 SCT200 25/14 Q1012 NOSIG	M
VOHY	2014-03-31 04:40	96.80	51.80	22.04	230.00	5.00	0.00	29.94	M	2.49	M	NSC	FEW	SCT	M	M	2000.00	20000.00	M	HZ	M	M	M	M	M	M	94.12	VOHY 310440Z 23005KT 4000 HZ NSC FEW020 SCT200 36/11 Q1014 NOSIG	M
VOHY	2014-03-31 06:40	102.20	50.00	17.51	230.00	5.00	0.00	29.91	M	3.11	M	FEW	SCT	M	M	2000.00	20000.00	M	M	HZ	M	M	M	M	M	M	99.28	VOHY 310640Z 23005KT 5000 HZ FEW020 SCT200 39/10 Q1013 NOSIG	M
VOHY	2014-03-31 07:40	104.00	48.20	15.52	180.00	5.00	0.00	29.88	M	3.11	M	FEW	SCT	M	M	2000.00	20000.00	M	M	HZ	M	M	M	M	M	M	100.65	VOHY 310740Z 18005KT 5000 HZ FEW020 SCT200 40/09 Q1012 NOSIG	M
VOHY	2014-03-31 08:40	105.80	48.20	14.71	150.00	3.00	0.00	29.85	M	3.11	M	FEW	SCT	M	M	2000.00	20000.00	M	M	HZ	M	M	M	M	M	M	102.45	VOHY 310840Z 15003KT 5000 HZ FEW020 SCT200 41/09 Q1011 NOSIG	M
VOHY	2014-03-31 09:40	105.80	44.60	12.84	0.00	0.00	0.00	29.83	M	3.11	M	FEW	SCT	M	M	2000.00	20000.00	M	M	HZ	M	M	M	M	M	M	101.53	VOHY 310940Z 00000KT 5000 HZ FEW020 SCT200 41/07 Q1010 NOSIG	M
VOHY	2014-03-31 10:40	107.60	46.40	13.04	220.00	6.00	0.00	29.80	M	3.11	M	FEW	SCT	M	M	2000.00	20000.00	M	M	HZ	M	M	M	M	M	M	103.71	VOHY 311040Z 22006KT 5000 HZ FEW020 SCT200 42/08 Q1009 NOSIG	M
VOHY	2014-03-31 11:40	105.80	44.60	12.84	0.00	0.00	0.00	29.80	M	3.11	M	SCT	SCT	M	M	2000.00	20000.00	M	M	HZ	M	M	M	M	M	M	101.53	VOHY 311140Z 00000KT 5000 HZ SCT020 SCT200 41/07 Q1009 NOSIG	M
VOHY	2014-03-31 12:40	102.20	44.60	14.29	200.00	3.00	0.00	29.83	M	3.11	M	SCT	SCT	BKN	M	1500.00	2000.00	20000.00	M	HZ	M	M	M	M	M	M	98.07	VOHY 311240Z 20003KT 5000 HZ SCT015 SCT020 BKN200 39/07 Q1010 NOSIG	M
VOHY	2014-03-31 13:40	95.00	50.00	21.79	0.00	0.00	0.00	29.83	M	3.11	M	SCT	SCT	M	M	2000.00	20000.00	M	M	HZ	M	M	M	M	M	M	91.89	VOHY 311340Z 00000KT 5000 HZ SCT020 SCT200 35/10 Q1010 NOSIG	M
VOHY	2014-03-31 14:40	95.00	50.00	21.79	130.00	5.00	0.00	29.85	M	3.11	M	SCT	SCT	M	M	2000.00	20000.00	M	M	HZ	M	M	M	M	M	M	91.89	VOHY 311440Z 13005KT 5000 HZ SCT020 SCT200 35/10 Q1011 NOSIG	M
VOHY	2014-03-31 15:40	93.20	51.80	24.63	110.00	5.00	0.00	29.85	M	3.11	M	SCT	SCT	M	M	2000.00	20000.00	M	M	HZ	M	M	M	M	M	M	90.45	VOHY 311540Z 11005KT 5000 HZ SCT020 SCT200 34/11 Q1011 NOSIG	M
VOHY	2014-04-01 00:40	M	M	M	0.00	0.00	0.00	M	M	2.49	M	FEW	M	M	M	M	M	M	M	HZ	M	M	M	M	M	M	M	VOHY 010040Z 00000KT 4000 HZ FEW 020 SCT 020 26/12 QNH 1011 NOSIG	M
VOHY	2014-04-01 01:40	M	M	M	0.00	0.00	0.00	M	M	2.49	M	SCT	M	M	M	M	M	M	M	HZ	M	M	M	M	M	M	M	VOHY 010140Z 00000KT 4000 HZ SCT 020 BKN 100 26/14 QNH 1012 NOSIG	M
VOHY	2014-04-01 02:40	M	M	M	300.00	3.00	0.00	M	M	2.49	M	SCT	M	M	M	M	M	M	M	HZ	M	M	M	M	M	M	M	VOHY 010240Z 30003KT 4000 HZ SCT 020 BKN 100 30/12 QNH 1013 NOSIG	M
VOHY	2014-04-01 03:40	M	M	M	10.00	3.00	0.00	M	M	2.49	M	SCT	M	M	M	M	M	M	M	HZ	M	M	M	M	M	M	M	VOHY 010340Z 01003KT 4000 HZ SCT 020 BKN 100 31/13 QNH 1013 NOSIG	M
VOHY	2014-04-01 04:40	91.40	55.40	29.72	340.00	3.00	0.00	29.91	M	2.49	M	SCT	BKN	M	M	2000.00	10000.00	M	M	HZ	M	M	M	M	M	M	89.53	VOHY 010440Z 34003KT 4000 HZ SCT020 BKN100 33/13 QNH 1013 BECMG 5000	M
VOHY	2014-04-01 07:40	102.20	51.80	18.72	290.00	4.00	0.00	29.85	M	3.11	M	SCT	BKN	M	M	2000.00	10000.00	M	M	HZ	M	M	M	M	M	M	99.80	VOHY 010740Z 29004KT 5000 HZ SCT020 BKN100 39/11 Q1011 NOSIG	M
VOHY	2014-04-01 08:40	104.00	51.80	17.74	210.00	4.00	0.00	29.80	M	3.11	M	SCT	BKN	M	M	2000.00	10000.00	M	M	HZ	M	M	M	M	M	M	101.69	VOHY 010840Z 21004KT 5000 HZ SCT020 BKN100 40/11 Q1009 NOSIG	M
VOHY	2014-04-01 09:40	102.20	51.80	18.72	290.00	7.00	0.00	29.77	M	3.11	M	SCT	BKN	M	M	2000.00	10000.00	M	M	HZ	M	M	M	M	M	M	99.80	VOHY 010940Z 29007KT 5000 HZ SCT020 BKN100 39/11 Q1008 NOSIG	M
VOHY	2014-04-01 10:40	104.00	51.80	17.74	150.00	3.00	0.00	29.77	M	3.11	M	SCT	BKN	M	M	2000.00	10000.00	M	M	HZ	M	M	M	M	M	M	101.69	VOHY 011040Z 15003KT 5000 HZ SCT020 BKN100 40/11 Q1008 NOSIG	M
VOHY	2014-04-01 11:40	102.20	50.00	17.51	90.00	3.00	0.00	29.77	M	3.11	M	FEW	SCT	M	M	2000.00	10000.00	M	M	HZ	M	M	M	M	M	M	99.28	VOHY 011140Z 09003KT 5000 HZ FEW020 SCT100 39/10 Q1008 NOSIG	M
VOHY	2014-04-01 13:40	89.60	51.80	27.56	150.00	6.00	0.00	29.83	M	3.11	M	SCT	BKN	M	M	1500.00	10000.00	M	M	HZ	M	M	M	M	M	M	87.00	VOHY 011340Z 15006KT 5000 HZ SCT015 BKN100 FEW(CB)030 32/11 Q1010 NOSIG	M
VOHY	2014-04-01 14:40	87.80	53.60	31.17	150.00	7.00	0.00	29.88	M	3.11	M	SCT	BKN	M	M	1500.00	10000.00	M	M	HZ	M	M	M	M	M	M	85.72	VOHY 011440Z 15007KT 5000 HZ SCT015 BKN100 FEW(CB)030 31/12 Q1012 NOSIG	M
VOHY	2014-04-01 15:40	86.00	51.80	30.90	180.00	3.00	0.00	29.88	M	3.11	M	SCT	BKN	M	M	1500.00	10000.00	M	M	HZ	M	M	M	M	M	M	83.87	VOHY 011540Z 18003KT 5000 HZ SCT015 BKN100 FEW(CB)030 30/11 Q1012 NOSIG	M
VOHY	2014-04-02 00:40	75.20	53.60	46.98	330.00	3.00	0.00	29.85	M	1.86	M	FEW	SCT	M	M	2000.00	20000.00	M	M	HZ	M	M	M	M	M	M	75.20	VOHY 020040Z 33003KT 3000 HZ FEW020 SCT200 24/12 Q1011 NOSIG	M
VOHY	2014-04-02 01:40	77.00	55.40	47.25	0.00	0.00	0.00	29.88	M	1.86	M	NSC	M	M	M	M	M	M	M	HZ	M	M	M	M	M	M	77.00	VOHY 020140Z 00000KT 3000 HZ NSC 25/13 Q1012 NOSIG	M
VOHY	2014-04-02 02:40	86.00	55.40	35.25	280.00	6.00	0.00	29.91	M	1.86	M	NSC	M	M	M	M	M	M	M	HZ	M	M	M	M	M	M	84.54	VOHY 020240Z 28006KT 3000 HZ NSC 30/13 Q1013 NOSIG	M
VOHY	2014-04-02 04:40	91.40	55.40	29.72	300.00	8.00	0.00	29.91	M	2.49	M	NSC	M	M	M	M	M	M	M	HZ	M	M	M	M	M	M	89.53	VOHY 020440Z 30008KT 4000 HZ NSC 33/13 Q1013 BECMG 5000	M
VOHY	2014-04-02 06:40	98.60	50.00	19.52	330.00	4.00	0.00	29.88	M	3.11	M	NSC	M	M	M	M	M	M	M	HZ	M	M	M	M	M	M	95.56	VOHY 020640Z 33004KT 5000 HZ NSC 37/10 Q1012 NOSIG	M
VOHY	2014-04-02 08:40	102.20	46.40	15.30	0.00	0.00	0.00	29.83	M	3.73	M	NSC	M	M	M	M	M	M	M	M	M	M	M	M	M	M	98.43	VOHY 020840Z 00000KT 6000 NSC 39/08 Q1010 NOSIG	M
VOHY	2014-04-02 09:40	102.20	50.00	17.51	280.00	7.00	0.00	29.80	M	3.73	M	FEW	M	M	M	2000.00	M	M	M	M	M	M	M	M	M	M	99.28	VOHY 020940Z 28007KT 6000 FEW020 39/10 Q1009 NOSIG	M
VOHY	2014-04-02 10:40	100.40	48.20	17.28	30.00	7.00	0.00	29.80	M	3.73	M	FEW	M	M	M	2000.00	M	M	M	M	M	M	M	M	M	M	97.00	VOHY 021040Z 03007KT 6000 FEW020 38/09 Q1009 NOSIG	M
VOHY	2014-04-02 12:40	96.80	46.40	18.02	330.00	4.00	0.00	29.80	M	3.73	M	FEW	M	M	M	2000.00	M	M	M	M	M	M	M	M	M	M	93.05	VOHY 021240Z 33004KT 6000 FEW020 36/08 Q1009 NOSIG	M
VOHY	2014-04-02 13:40	91.40	50.00	24.37	180.00	3.00	0.00	29.83	M	3.73	M	FEW	M	M	M	2000.00	M	M	M	M	M	M	M	M	M	M	88.36	VOHY 021340Z 18003KT 6000 FEW020 33/10 Q1010 NOSIG	M
VOHY	2014-04-02 14:40	87.80	53.60	31.17	200.00	4.00	0.00	29.85	M	3.73	M	FEW	M	M	M	2000.00	M	M	M	M	M	M	M	M	M	M	85.72	VOHY 021440Z 20004KT 6000 FEW020 31/12 Q1011 NOSIG	M
VOHY	2014-04-02 15:40	86.00	51.80	30.90	0.00	0.00	0.00	29.88	M	3.73	M	NSC	M	M	M	M	M	M	M	M	M	M	M	M	M	M	83.87	VOHY 021540Z 00000KT 6000 NSC 30/11 Q1012 NOSIG	M
VOHY	2014-04-03 00:40	78.80	60.80	54.05	100.00	3.00	0.00	29.88	M	1.86	M	NSC	M	M	M	M	M	M	M	HZ	M	M	M	M	M	M	78.80	VOHY 030040Z 10003KT 3000 HZ NSC 26/16 Q1012 NOSIG	M
VOHY	2014-04-03 01:40	75.20	62.60	64.91	300.00	2.00	0.00	29.91	M	1.86	M	NSC	M	M	M	M	M	M	M	HZ	M	M	M	M	M	M	75.20	VOHY 030140Z 30002KT 3000 HZ NSC 24/17 Q1013 NOSIG	M
VOHY	2014-04-03 02:40	82.40	64.40	54.55	350.00	3.00	0.00	29.94	M	1.86	M	FEW	SCT	M	M	2000.00	10000.00	M	M	HZ	M	M	M	M	M	M	83.98	VOHY 030240Z 35003KT 3000 HZ FEW020 SCT100 28/18 Q1014 NOSIG	M
VOHY	2014-04-03 03:40	86.00	62.60	45.61	310.00	4.00	0.00	29.97	M	1.86	M	NSC	M	M	M	M	M	M	M	HZ	M	M	M	M	M	M	86.72	VOHY 030340Z 31004KT 3000 HZ NSC 30/17 Q1015 NOSIG	M
VOHY	2014-04-03 05:40	96.80	59.00	28.63	60.00	4.00	0.00	29.94	M	2.49	M	NSC	M	M	M	M	M	M	M	HZ	M	M	M	M	M	M	96.80	VOHY 030540Z 06004KT 4000 HZ NSC 36/15 Q1014 BECMG 5000	M
VOHY	2014-04-03 08:40	102.20	44.60	14.29	50.00	6.00	0.00	29.88	M	3.73	M	NSC	M	M	M	M	M	M	M	M	M	M	M	M	M	M	98.07	VOHY 030840Z 05006KT 6000 NSC 39/07 Q1012 NOSIG	M
VOHY	2014-04-03 09:40	102.20	46.40	15.30	20.00	4.00	0.00	29.85	M	3.73	M	FEW	M	M	M	2000.00	M	M	M	M	M	M	M	M	M	M	98.43	VOHY 030940Z 02004KT 6000 FEW020 39/08 Q1011 NOSIG	M
VOHY	2014-04-03 10:40	102.20	48.20	16.37	80.00	4.00	0.00	29.83	M	3.73	M	FEW	M	M	M	2000.00	M	M	M	M	M	M	M	M	M	M	98.83	VOHY 031040Z 08004KT 6000 FEW020 39/09 Q1010 NOSIG	M
VOHY	2014-04-03 11:40	98.60	55.40	23.81	120.00	8.00	0.00	29.83	M	3.73	M	FEW	M	M	M	2000.00	M	M	M	M	M	M	M	M	M	M	97.09	VOHY 031140Z 12008KT 6000 FEW020 37/13 Q1010 NOSIG	M
VOHY	2014-04-03 13:40	93.20	55.40	28.10	90.00	6.00	0.00	29.85	M	3.73	M	FEW	M	M	M	2000.00	M	M	M	M	M	M	M	M	M	M	91.35	VOHY 031340Z 09006KT 6000 FEW020 34/13 Q1011 NOSIG	M
VOHY	2014-04-03 15:40	89.60	55.40	31.45	80.00	3.00	0.00	29.91	M	3.73	M	FEW	M	M	M	2000.00	M	M	M	M	M	M	M	M	M	M	87.78	VOHY 031540Z 08003KT 6000 FEW020 32/13 Q1013 NOSIG	M
VOHY	2014-04-04 00:40	71.60	59.00	64.48	0.00	0.00	0.00	29.91	M	1.86	M	FEW	SCT	M	M	2000.00	10000.00	M	M	HZ	M	M	M	M	M	M	71.60	VOHY 040040Z 00000KT 3000 HZ FEW020 SCT100 22/15 Q1013 NOSIG	M
VOHY	2014-04-04 03:40	93.20	57.20	29.99	180.00	5.00	0.00	29.97	M	1.86	M	NSC	M	M	M	M	M	M	M	HZ	M	M	M	M	M	M	91.91	VOHY 040340Z 18005KT 3000 HZ NSC 34/14 Q1015 NOSIG	M
VOHY	2014-04-04 07:40	102.20	50.00	17.51	140.00	6.00	0.00	29.91	M	3.73	M	FEW	SCT	M	M	2000.00	20000.00	M	M	M	M	M	M	M	M	M	99.28	VOHY 040740Z 14006KT 6000 FEW020 SCT200 39/10 Q1013 NOSIG	M
VOHY	2014-04-04 08:40	104.00	50.00	16.59	170.00	7.00	0.00	29.88	M	3.73	M	FEW	SCT	M	M	2000.00	20000.00	M	M	M	M	M	M	M	M	M	101.14	VOHY 040840Z 17007KT 6000 FEW020 SCT200 40/10 Q1012 NOSIG	M
VOHY	2014-04-04 09:40	102.20	46.40	15.30	130.00	6.00	0.00	29.85	M	3.73	M	FEW	SCT	M	M	2000.00	20000.00	M	M	M	M	M	M	M	M	M	98.43	VOHY 040940Z 13006KT 6000 FEW020 SCT200 39/08 Q1011 NOSIG	M
VOHY	2014-04-04 10:40	102.20	48.20	16.37	120.00	4.00	0.00	29.85	M	3.73	M	FEW	SCT	M	M	2000.00	20000.00	M	M	M	M	M	M	M	M	M	98.83	VOHY 041040Z 12004KT 6000 FEW020 SCT200 39/09 Q1011 NOSIG	M
VOHY	2014-04-04 11:40	98.60	48.20	18.25	110.00	4.00	0.00	29.85	M	3.73	M	FEW	SCT	M	M	2000.00	20000.00	M	M	M	M	M	M	M	M	M	95.17	VOHY 041140Z 11004KT 6000 FEW020 SCT200 37/09 Q1011 NOSIG	M
VOHY	2014-04-04 12:40	95.00	50.00	21.79	110.00	7.00	0.00	29.88	M	3.73	M	SCT	SCT	M	M	2000.00	20000.00	M	M	M	M	M	M	M	M	M	91.89	VOHY 041240Z 11007KT 6000 SCT020 SCT200 35/10 Q1012 NOSIG	M
VOHY	2014-04-04 13:40	91.40	55.40	29.72	90.00	3.00	0.00	29.91	M	3.73	M	SCT	SCT	M	M	2000.00	20000.00	M	M	M	M	M	M	M	M	M	89.53	VOHY 041340Z 09003KT 6000 SCT020 SCT200 33/13 Q1013 NOSIG	M
VOHY	2014-04-04 14:40	91.40	55.40	29.72	80.00	4.00	0.00	29.91	M	3.73	M	SCT	SCT	M	M	2000.00	20000.00	M	M	M	M	M	M	M	M	M	89.53	VOHY 041440Z 08004KT 6000 SCT020 SCT200 33/13 Q1013 NOSIG	M
VOHY	2014-04-04 15:40	89.60	53.60	29.45	100.00	3.00	0.00	29.94	M	3.73	M	FEW	SCT	M	M	2000.00	20000.00	M	M	M	M	M	M	M	M	M	87.36	VOHY 041540Z 10003KT 6000 FEW020 SCT200 32/12 Q1014 NOSIG	M
